{"type":"FeatureCollection","name":"corrections","metadata":{"generated":"2026-05-19T17:52:28Z","source":"HIFLD Prison Points (US) + OpenStreetMap (CA / GL / IS)","clipped_to":"scenario.geojson land polygons (Ocean excluded)","count":251},"features":[{"type":"Feature","geometry":{"type":"Point","coordinates":[-107.608560052125,45.7319882092199]},"properties":{"name":"BIG HORN COUNTY SHERIFF'S OFFICE / DETENTION CENTER","city":"HARDIN","region":"MT","country":"US","type":"COUNTY","security":"NOT AVAILABLE","population":43,"capacity":null,"tier":"limited","source":"HIFLD"}},{"type":"Feature","geometry":{"type":"Point","coordinates":[-84.7756148357286,43.6059562662925]},"properties":{"name":"ISABELLA COUNTY JAIL","city":"MT. PLEASANT","region":"MI","country":"US","type":"COUNTY","security":"NOT AVAILABLE","population":233,"capacity":196,"tier":"limited","source":"HIFLD"}},{"type":"Feature","geometry":{"type":"Point","coordinates":[-162.59287928753,66.8964725789298]},"properties":{"name":"KOTZEBUE REGIONAL JAIL","city":"KOTZEBUE","region":"AK","country":"US","type":"LOCAL","security":"NOT AVAILABLE","population":null,"capacity":12,"tier":"limited","source":"HIFLD"}},{"type":"Feature","geometry":{"type":"Point","coordinates":[-149.856667499309,61.218258593908]},"properties":{"name":"ANCHORAGE CORRECTIONAL COMPLEX","city":"ANCHORAGE","region":"AK","country":"US","type":"STATE","security":"MAXIMUM","population":832,"capacity":863,"tier":"major","source":"HIFLD"}},{"type":"Feature","geometry":{"type":"Point","coordinates":[-151.301798971378,60.5829954525796]},"properties":{"name":"WILDWOOD PRETRIAL FACILITY","city":"KENAI","region":"AK","country":"US","type":"STATE","security":"MEDIUM","population":106,"capacity":115,"tier":"standard","source":"HIFLD"}},{"type":"Feature","geometry":{"type":"Point","coordinates":[-149.104611584362,61.5861882848661]},"properties":{"name":"MAT-SU YOUTH FACILITY","city":"PALMER","region":"AK","country":"US","type":"STATE","security":"JUVENILE","population":12,"capacity":15,"tier":"standard","source":"HIFLD"}},{"type":"Feature","geometry":{"type":"Point","coordinates":[-147.764615148544,64.8327612337063]},"properties":{"name":"FAIRBANKS YOUTH FACILITY","city":"FAIRBANKS","region":"AK","country":"US","type":"STATE","security":"JUVENILE","population":16,"capacity":28,"tier":"standard","source":"HIFLD"}},{"type":"Feature","geometry":{"type":"Point","coordinates":[-83.2970918625536,44.6568950014712]},"properties":{"name":"ALCONA COUNTY JAIL","city":"HARRISVILLE","region":"MI","country":"US","type":"COUNTY","security":"NOT AVAILABLE","population":27,"capacity":31,"tier":"limited","source":"HIFLD"}},{"type":"Feature","geometry":{"type":"Point","coordinates":[-84.7281306174455,45.8898947787611]},"properties":{"name":"SAULT TRIBE YOUTH FACILITY","city":"SAINT IGNACE","region":"MI","country":"US","type":"LOCAL","security":"JUVENILE","population":null,"capacity":25,"tier":"limited","source":"HIFLD"}},{"type":"Feature","geometry":{"type":"Point","coordinates":[-149.334178468992,60.0931114063556]},"properties":{"name":"SPRING CREEK CORRECTIONAL CENTER","city":"SEWARD","region":"AK","country":"US","type":"STATE","security":"MAXIMUM","population":518,"capacity":551,"tier":"major","source":"HIFLD"}},{"type":"Feature","geometry":{"type":"Point","coordinates":[-97.877509699841,42.6088924733429]},"properties":{"name":"KNOX COUNTY JAIL","city":"CENTER","region":"NE","country":"US","type":"COUNTY","security":"NOT AVAILABLE","population":7,"capacity":16,"tier":"limited","source":"HIFLD"}},{"type":"Feature","geometry":{"type":"Point","coordinates":[-151.300566309433,60.5846652294453]},"properties":{"name":"WILDWOOD CORRECTIONAL CENTER","city":"KENAI","region":"AK","country":"US","type":"STATE","security":"MEDIUM","population":275,"capacity":264,"tier":"standard","source":"HIFLD"}},{"type":"Feature","geometry":{"type":"Point","coordinates":[-161.787347456931,60.7862180034783]},"properties":{"name":"YUKON KUSKOKWIM CORRECTIONAL CENTER","city":"BETHEL","region":"AK","country":"US","type":"STATE","security":"CLOSE","population":170,"capacity":232,"tier":"standard","source":"HIFLD"}},{"type":"Feature","geometry":{"type":"Point","coordinates":[-147.757644982813,64.8329498993489]},"properties":{"name":"FAIRBANKS CORRECTIONAL CENTER","city":"FAIRBANKS","region":"AK","country":"US","type":"STATE","security":"CLOSE","population":230,"capacity":258,"tier":"standard","source":"HIFLD"}},{"type":"Feature","geometry":{"type":"Point","coordinates":[-161.787852800601,60.7871494153524]},"properties":{"name":"BETHEL YOUTH FACILITY","city":"BETHEL","region":"AK","country":"US","type":"STATE","security":"JUVENILE","population":9,"capacity":23,"tier":"standard","source":"HIFLD"}},{"type":"Feature","geometry":{"type":"Point","coordinates":[-97.3931936594441,42.8718533310584]},"properties":{"name":"YANKTON COUNTY SHERIFF","city":"YANKTON","region":"SD","country":"US","type":"COUNTY","security":"NOT AVAILABLE","population":null,"capacity":120,"tier":"limited","source":"HIFLD"}},{"type":"Feature","geometry":{"type":"Point","coordinates":[-97.866213116547,42.993852690106]},"properties":{"name":"BON HOMME COUNTY JAIL","city":"TYNDALL","region":"SD","country":"US","type":"COUNTY","security":"NOT AVAILABLE","population":null,"capacity":6,"tier":"limited","source":"HIFLD"}},{"type":"Feature","geometry":{"type":"Point","coordinates":[-84.4809037975608,45.6295398793776]},"properties":{"name":"CHEBOYGAN COUNTY JAIL","city":"CHEBOYGAN","region":"MI","country":"US","type":"COUNTY","security":"NOT AVAILABLE","population":78,"capacity":83,"tier":"limited","source":"HIFLD"}},{"type":"Feature","geometry":{"type":"Point","coordinates":[-149.109193513334,61.6023321352009]},"properties":{"name":"MAT-SU PRETRIAL","city":"PALMER","region":"AK","country":"US","type":"STATE","security":"CLOSE","population":102,"capacity":102,"tier":"standard","source":"HIFLD"}},{"type":"Feature","geometry":{"type":"Point","coordinates":[-102.63469064027,46.0015532222226]},"properties":{"name":"ADAMS COUNTY SHERIFF'S DEPARTMENT","city":"HETTINGER","region":"ND","country":"US","type":"COUNTY","security":"MEDIUM","population":null,"capacity":null,"tier":"standard","source":"HIFLD"}},{"type":"Feature","geometry":{"type":"Point","coordinates":[-98.6473023559998,42.4594891682778]},"properties":{"name":"HOLT COUNTY JAIL","city":"O'NEILL","region":"NE","country":"US","type":"COUNTY","security":"NOT AVAILABLE","population":8,"capacity":20,"tier":"limited","source":"HIFLD"}},{"type":"Feature","geometry":{"type":"Point","coordinates":[-149.579535709717,61.3029654389097]},"properties":{"name":"HILAND MOUNTAIN CORRECTIONAL CENTER","city":"EAGLE RIVER","region":"AK","country":"US","type":"STATE","security":"MEDIUM","population":342,"capacity":404,"tier":"standard","source":"HIFLD"}},{"type":"Feature","geometry":{"type":"Point","coordinates":[-109.454330704109,47.0476177929508]},"properties":{"name":"NEXUS TREATMENT CENTER","city":"LEWISTOWN","region":"MT","country":"US","type":"STATE","security":"NOT AVAILABLE","population":82,"capacity":82,"tier":"standard","source":"HIFLD"}},{"type":"Feature","geometry":{"type":"Point","coordinates":[-165.413564335246,64.5376505392021]},"properties":{"name":"ANVIL MOUNTAIN CORRECTIONAL CENTER","city":"NOME","region":"AK","country":"US","type":"STATE","security":"CLOSE","population":113,"capacity":128,"tier":"standard","source":"HIFLD"}},{"type":"Feature","geometry":{"type":"Point","coordinates":[-134.48405543645,58.3626063743791]},"properties":{"name":"LEMON CREEK CORRECTIONAL CENTER","city":"JUNEAU","region":"AK","country":"US","type":"STATE","security":"MAXIMUM","population":209,"capacity":232,"tier":"major","source":"HIFLD"}},{"type":"Feature","geometry":{"type":"Point","coordinates":[-131.649356559809,55.3482990536023]},"properties":{"name":"KETCHIKAN CORRECTIONAL CENTER","city":"KETCHIKAN","region":"AK","country":"US","type":"STATE","security":"NOT AVAILABLE","population":49,"capacity":58,"tier":"standard","source":"HIFLD"}},{"type":"Feature","geometry":{"type":"Point","coordinates":[-150.008448005846,61.3603062992828]},"properties":{"name":"GOOSE CREEK CORRECTIONAL CENTER","city":"WASILLA","region":"AK","country":"US","type":"STATE","security":"MEDIUM","population":1125,"capacity":1536,"tier":"standard","source":"HIFLD"}},{"type":"Feature","geometry":{"type":"Point","coordinates":[-84.8137370528692,44.6858596185724]},"properties":{"name":"SHAWONO CENTER","city":"GRAYLING","region":"MI","country":"US","type":"STATE","security":"JUVENILE","population":null,"capacity":40,"tier":"standard","source":"HIFLD"}},{"type":"Feature","geometry":{"type":"Point","coordinates":[-84.9532859287157,45.3755016273623]},"properties":{"name":"EMMET COUNTY CORRECTIONAL FACILITY","city":"PETOSKEY","region":"MI","country":"US","type":"COUNTY","security":"NOT AVAILABLE","population":82,"capacity":103,"tier":"limited","source":"HIFLD"}},{"type":"Feature","geometry":{"type":"Point","coordinates":[-83.5169822781993,44.2686628545967]},"properties":{"name":"IOSCO COUNTY JAIL","city":"TAWAS CITY","region":"MI","country":"US","type":"COUNTY","security":"NOT AVAILABLE","population":77,"capacity":63,"tier":"limited","source":"HIFLD"}},{"type":"Feature","geometry":{"type":"Point","coordinates":[-84.7334379764334,45.8660380849855]},"properties":{"name":"MACKINAC COUNTY JAIL","city":"SAINT IGNACE","region":"MI","country":"US","type":"COUNTY","security":"NOT AVAILABLE","population":24,"capacity":28,"tier":"limited","source":"HIFLD"}},{"type":"Feature","geometry":{"type":"Point","coordinates":[-84.4546902020871,46.2490849672995]},"properties":{"name":"KINROSS CORRECTIONAL FACILITY","city":"KINCHELOE","region":"MI","country":"US","type":"STATE","security":"MEDIUM","population":1509,"capacity":1602,"tier":"standard","source":"HIFLD"}},{"type":"Feature","geometry":{"type":"Point","coordinates":[-85.26345696394,45.3102760441176]},"properties":{"name":"CHARLEVOIX COUNTY JAIL","city":"CHARLEVOIX","region":"MI","country":"US","type":"COUNTY","security":"NOT AVAILABLE","population":null,"capacity":89,"tier":"limited","source":"HIFLD"}},{"type":"Feature","geometry":{"type":"Point","coordinates":[-86.2700159259109,44.2457089914146]},"properties":{"name":"OAKS CORRECTIONAL FACILITY","city":"MANISTEE","region":"MI","country":"US","type":"STATE","security":"CLOSE","population":1039,"capacity":1060,"tier":"standard","source":"HIFLD"}},{"type":"Feature","geometry":{"type":"Point","coordinates":[-99.5360755465253,42.5826484873522]},"properties":{"name":"ROCK COUNTY JAIL","city":"BASSETT","region":"NE","country":"US","type":"COUNTY","security":"NOT AVAILABLE","population":null,"capacity":6,"tier":"limited","source":"HIFLD"}},{"type":"Feature","geometry":{"type":"Point","coordinates":[-85.213008070759,44.3333905820717]},"properties":{"name":"MISSAUKEE COUNTY JAIL","city":"LAKE CITY","region":"MI","country":"US","type":"COUNTY","security":"NOT AVAILABLE","population":34,"capacity":34,"tier":"limited","source":"HIFLD"}},{"type":"Feature","geometry":{"type":"Point","coordinates":[-84.4922205857622,43.9802298833809]},"properties":{"name":"GLADWIN COUNTY JAIL","city":"GLADWIN","region":"MI","country":"US","type":"COUNTY","security":"NOT AVAILABLE","population":null,"capacity":84,"tier":"limited","source":"HIFLD"}},{"type":"Feature","geometry":{"type":"Point","coordinates":[-84.1723690049989,45.0065595836047]},"properties":{"name":"MONTMORENCY COUNTY JAIL","city":"ATLANTA","region":"MI","country":"US","type":"COUNTY","security":"NOT AVAILABLE","population":33,"capacity":42,"tier":"limited","source":"HIFLD"}},{"type":"Feature","geometry":{"type":"Point","coordinates":[-156.788132405423,71.2918282485041]},"properties":{"name":"NORTH SLOPE BOROUGH CORRECTIONAL CENTER","city":"BARROW","region":"AK","country":"US","type":"COUNTY","security":"NOT AVAILABLE","population":null,"capacity":null,"tier":"limited","source":"HIFLD"}},{"type":"Feature","geometry":{"type":"Point","coordinates":[-149.439040049087,60.1031278272806]},"properties":{"name":"SEWARD COMMUNITY JAIL","city":"SEWARD","region":"AK","country":"US","type":"LOCAL","security":"NOT AVAILABLE","population":null,"capacity":14,"tier":"limited","source":"HIFLD"}},{"type":"Feature","geometry":{"type":"Point","coordinates":[-156.665935320231,58.7021088046745]},"properties":{"name":"KING SALMON JAIL","city":"KING SALMON","region":"AK","country":"US","type":"LOCAL","security":"NOT AVAILABLE","population":null,"capacity":null,"tier":"limited","source":"HIFLD"}},{"type":"Feature","geometry":{"type":"Point","coordinates":[-160.49812347129,55.3408748687301]},"properties":{"name":"SAND POINT JAIL","city":"SAND POINT","region":"AK","country":"US","type":"LOCAL","security":"NOT AVAILABLE","population":null,"capacity":null,"tier":"limited","source":"HIFLD"}},{"type":"Feature","geometry":{"type":"Point","coordinates":[-86.4430592066763,43.9580450300782]},"properties":{"name":"MASON COUNTY JAIL","city":"LUDINGTON","region":"MI","country":"US","type":"COUNTY","security":"MAXIMUM","population":57,"capacity":104,"tier":"major","source":"HIFLD"}},{"type":"Feature","geometry":{"type":"Point","coordinates":[-84.1812134983844,43.6256455170838]},"properties":{"name":"MIDLAND COUNTY JUVENILE CARE CENTER","city":"MIDLAND","region":"MI","country":"US","type":"COUNTY","security":"JUVENILE","population":null,"capacity":22,"tier":"limited","source":"HIFLD"}},{"type":"Feature","geometry":{"type":"Point","coordinates":[-83.4509040555307,45.0794293963969]},"properties":{"name":"ALPENA COUNTY JAIL / SHERIFF","city":"ALPENA","region":"MI","country":"US","type":"COUNTY","security":"NOT AVAILABLE","population":58,"capacity":69,"tier":"limited","source":"HIFLD"}},{"type":"Feature","geometry":{"type":"Point","coordinates":[-85.6891544672461,44.9938549156383]},"properties":{"name":"LEELANAU COUNTY JAIL","city":"SUTTONS BAY","region":"MI","country":"US","type":"COUNTY","security":"NOT AVAILABLE","population":28,"capacity":80,"tier":"limited","source":"HIFLD"}},{"type":"Feature","geometry":{"type":"Point","coordinates":[-82.998316369035,43.8015951981273]},"properties":{"name":"HURON COUNTY JAIL","city":"BAD AXE","region":"MI","country":"US","type":"COUNTY","security":"NOT AVAILABLE","population":68,"capacity":70,"tier":"limited","source":"HIFLD"}},{"type":"Feature","geometry":{"type":"Point","coordinates":[-85.1858580750263,44.7402769583538]},"properties":{"name":"KALKASKA COUNTY JAIL","city":"KALKASKA","region":"MI","country":"US","type":"COUNTY","security":"NOT AVAILABLE","population":53,"capacity":62,"tier":"limited","source":"HIFLD"}},{"type":"Feature","geometry":{"type":"Point","coordinates":[-85.851630570677,43.9003914143016]},"properties":{"name":"LAKE COUNTY JAIL","city":"BALDWIN","region":"MI","country":"US","type":"COUNTY","security":"NOT AVAILABLE","population":null,"capacity":48,"tier":"limited","source":"HIFLD"}},{"type":"Feature","geometry":{"type":"Point","coordinates":[-85.616989852202,44.761095597505]},"properties":{"name":"GRAND TRAVERSE COUNTY CORRECTIONAL FACILITY","city":"TRAVERSE CITY","region":"MI","country":"US","type":"COUNTY","security":"NOT AVAILABLE","population":154,"capacity":194,"tier":"limited","source":"HIFLD"}},{"type":"Feature","geometry":{"type":"Point","coordinates":[-86.2716513690727,44.2709334640108]},"properties":{"name":"MANISTEE COUNTY JAIL","city":"MANISTEE","region":"MI","country":"US","type":"COUNTY","security":"NOT AVAILABLE","population":null,"capacity":52,"tier":"limited","source":"HIFLD"}},{"type":"Feature","geometry":{"type":"Point","coordinates":[-86.0930860678991,44.6244470416499]},"properties":{"name":"BENZIE COUNTY JAIL","city":"BEULAH","region":"MI","country":"US","type":"COUNTY","security":"NOT AVAILABLE","population":35,"capacity":47,"tier":"limited","source":"HIFLD"}},{"type":"Feature","geometry":{"type":"Point","coordinates":[-85.207619383695,44.9757985542399]},"properties":{"name":"ANTRIM COUNTY JAIL","city":"BELLAIRE","region":"MI","country":"US","type":"COUNTY","security":"NOT AVAILABLE","population":null,"capacity":56,"tier":"limited","source":"HIFLD"}},{"type":"Feature","geometry":{"type":"Point","coordinates":[-83.9564459368218,43.9836239228076]},"properties":{"name":"ARENAC COUNTY JAIL","city":"STANDISH","region":"MI","country":"US","type":"COUNTY","security":"NOT AVAILABLE","population":null,"capacity":46,"tier":"limited","source":"HIFLD"}},{"type":"Feature","geometry":{"type":"Point","coordinates":[-84.4555222019403,46.2571651248495]},"properties":{"name":"CHIPPEWA CORRECTIONAL FACILITY","city":"KINCHELOE","region":"MI","country":"US","type":"STATE","security":"MAXIMUM","population":2322,"capacity":2366,"tier":"major","source":"HIFLD"}},{"type":"Feature","geometry":{"type":"Point","coordinates":[-97.390358882733,42.8803349243343]},"properties":{"name":"FPC YANKTON","city":"YANKTON","region":"SD","country":"US","type":"FEDERAL","security":"MINIMUM","population":487,"capacity":684,"tier":"major","source":"HIFLD"}},{"type":"Feature","geometry":{"type":"Point","coordinates":[-84.8044021080847,44.0190377990928]},"properties":{"name":"CLARE COUNTY CORRECTIONAL FACILITY","city":"HARRISON","region":"MI","country":"US","type":"COUNTY","security":"NOT AVAILABLE","population":163,"capacity":176,"tier":"limited","source":"HIFLD"}},{"type":"Feature","geometry":{"type":"Point","coordinates":[-84.7167976380093,44.6598674464248]},"properties":{"name":"CRAWFORD COUNTY JAIL","city":"GRAYLING","region":"MI","country":"US","type":"COUNTY","security":"MAXIMUM","population":65,"capacity":51,"tier":"major","source":"HIFLD"}},{"type":"Feature","geometry":{"type":"Point","coordinates":[-102.867200596213,46.5354115991843]},"properties":{"name":"DAKOTA WOMEN'S CORRECTIONAL AND REHABILITATION CENTER","city":"NEW ENGLAND","region":"ND","country":"US","type":"STATE","security":"MINIMUM","population":113,"capacity":126,"tier":"standard","source":"HIFLD"}},{"type":"Feature","geometry":{"type":"Point","coordinates":[-86.3628416784037,43.7012704469411]},"properties":{"name":"OCEANA COUNTY JAIL","city":"HART","region":"MI","country":"US","type":"COUNTY","security":"NOT AVAILABLE","population":53,"capacity":67,"tier":"limited","source":"HIFLD"}},{"type":"Feature","geometry":{"type":"Point","coordinates":[-84.2470217548523,44.2756518995776]},"properties":{"name":"OGEMAW COUNTY CORRECTIONAL FACILITY","city":"WEST BRANCH","region":"MI","country":"US","type":"COUNTY","security":"NOT AVAILABLE","population":null,"capacity":124,"tier":"limited","source":"HIFLD"}},{"type":"Feature","geometry":{"type":"Point","coordinates":[-85.5149848051156,43.8755395437436]},"properties":{"name":"OSCEOLA COUNTY JAIL","city":"REED CITY","region":"MI","country":"US","type":"COUNTY","security":"NOT AVAILABLE","population":66,"capacity":77,"tier":"limited","source":"HIFLD"}},{"type":"Feature","geometry":{"type":"Point","coordinates":[-84.6764275045495,45.0268184701191]},"properties":{"name":"OTSEGO COUNTY JAIL","city":"GAYLORD","region":"MI","country":"US","type":"COUNTY","security":"NOT AVAILABLE","population":49,"capacity":34,"tier":"limited","source":"HIFLD"}},{"type":"Feature","geometry":{"type":"Point","coordinates":[-83.8167772364962,45.4214612835141]},"properties":{"name":"PRESQUE ISLE COUNTY JAIL","city":"ROGERS CITY","region":"MI","country":"US","type":"COUNTY","security":"MAXIMUM","population":24,"capacity":24,"tier":"major","source":"HIFLD"}},{"type":"Feature","geometry":{"type":"Point","coordinates":[-84.593976979178,44.4962479958536]},"properties":{"name":"ROSCOMMON COUNTY JAIL","city":"ROSCOMMON","region":"MI","country":"US","type":"COUNTY","security":"NOT AVAILABLE","population":69,"capacity":96,"tier":"limited","source":"HIFLD"}},{"type":"Feature","geometry":{"type":"Point","coordinates":[-84.5933203717907,44.4970146840895]},"properties":{"name":"ROSCOMMON COUNTY JUVENILE DETENTION CENTER","city":"ROSCOMMON","region":"MI","country":"US","type":"COUNTY","security":"JUVENILE","population":null,"capacity":16,"tier":"limited","source":"HIFLD"}},{"type":"Feature","geometry":{"type":"Point","coordinates":[-97.9866448002033,43.3972213068562]},"properties":{"name":"OUR HOME - PARKSTON","city":"PARKSTON","region":"SD","country":"US","type":"STATE","security":"JUVENILE","population":34,"capacity":385,"tier":"standard","source":"HIFLD"}},{"type":"Feature","geometry":{"type":"Point","coordinates":[-94.3597428073638,45.9757984922113]},"properties":{"name":"MORRISON COUNTY JAIL","city":"LITTLE FALLS","region":"MN","country":"US","type":"COUNTY","security":"NOT AVAILABLE","population":59,"capacity":148,"tier":"limited","source":"HIFLD"}},{"type":"Feature","geometry":{"type":"Point","coordinates":[-106.956850737045,44.8156518903727]},"properties":{"name":"SHERIDAN COUNTY JAIL / SHERIFF","city":"SHERIDAN","region":"WY","country":"US","type":"COUNTY","security":"NOT AVAILABLE","population":null,"capacity":126,"tier":"limited","source":"HIFLD"}},{"type":"Feature","geometry":{"type":"Point","coordinates":[-105.512640661573,44.277524297527]},"properties":{"name":"CAMPBELL COUNTY DETENTION CENTER","city":"GILLETTE","region":"WY","country":"US","type":"COUNTY","security":"NOT AVAILABLE","population":null,"capacity":null,"tier":"limited","source":"HIFLD"}},{"type":"Feature","geometry":{"type":"Point","coordinates":[-98.5381357346526,43.1537410440008]},"properties":{"name":"CHARLES MIX COUNTY JAIL","city":"LAKE ANDES","region":"SD","country":"US","type":"COUNTY","security":"NOT AVAILABLE","population":null,"capacity":60,"tier":"limited","source":"HIFLD"}},{"type":"Feature","geometry":{"type":"Point","coordinates":[-105.407435315083,45.4442371051276]},"properties":{"name":"POWDER RIVER COUNTY SHERIFF'S OFFICE","city":"BROADUS","region":"MT","country":"US","type":"COUNTY","security":"NOT AVAILABLE","population":null,"capacity":null,"tier":"limited","source":"HIFLD"}},{"type":"Feature","geometry":{"type":"Point","coordinates":[-104.276204797385,46.3606454616446]},"properties":{"name":"FALLON COUNTY DETENTION CENTER","city":"BAKER","region":"MT","country":"US","type":"COUNTY","security":"NOT AVAILABLE","population":3,"capacity":null,"tier":"limited","source":"HIFLD"}},{"type":"Feature","geometry":{"type":"Point","coordinates":[-109.430460861721,47.0617902180719]},"properties":{"name":"FERGUS COUNTY SHERIFF'S DEPARTMENT","city":"LEWISTOWN","region":"MT","country":"US","type":"COUNTY","security":"NOT AVAILABLE","population":null,"capacity":null,"tier":"limited","source":"HIFLD"}},{"type":"Feature","geometry":{"type":"Point","coordinates":[-85.386681878124,44.2461337811131]},"properties":{"name":"WEXFORD COUNTY JAIL","city":"CADILLAC","region":"MI","country":"US","type":"COUNTY","security":"NOT AVAILABLE","population":null,"capacity":32,"tier":"limited","source":"HIFLD"}},{"type":"Feature","geometry":{"type":"Point","coordinates":[-97.403657778456,42.915477058053]},"properties":{"name":"YANKTON COMMUNITY WORK CENTER","city":"YANKTON","region":"SD","country":"US","type":"STATE","security":"MINIMUM","population":292,"capacity":240,"tier":"standard","source":"HIFLD"}},{"type":"Feature","geometry":{"type":"Point","coordinates":[-94.8609671356678,45.9724465958187]},"properties":{"name":"TODD COUNTY JAIL","city":"LONG PRAIRIE","region":"MN","country":"US","type":"COUNTY","security":"NOT AVAILABLE","population":31,"capacity":52,"tier":"limited","source":"HIFLD"}},{"type":"Feature","geometry":{"type":"Point","coordinates":[-151.529276336029,59.6493468398247]},"properties":{"name":"HOMER COMMUNITY JAIL","city":"HOMER","region":"AK","country":"US","type":"LOCAL","security":"NOT AVAILABLE","population":null,"capacity":7,"tier":"limited","source":"HIFLD"}},{"type":"Feature","geometry":{"type":"Point","coordinates":[-152.372895722273,57.8045094603311]},"properties":{"name":"KODIAK JAIL","city":"KODIAK","region":"AK","country":"US","type":"LOCAL","security":"NOT AVAILABLE","population":null,"capacity":null,"tier":"limited","source":"HIFLD"}},{"type":"Feature","geometry":{"type":"Point","coordinates":[-97.899471919418,42.8607238925249]},"properties":{"name":"MIKE DURFEE STATE PRISON","city":"SPRINGFIELD","region":"SD","country":"US","type":"STATE","security":"MEDIUM","population":1245,"capacity":2044,"tier":"standard","source":"HIFLD"}},{"type":"Feature","geometry":{"type":"Point","coordinates":[-151.2333437355,60.5667434346213]},"properties":{"name":"KENAI PENINSULA YOUTH FACILITY","city":"KENAI","region":"AK","country":"US","type":"STATE","security":"JUVENILE","population":6,"capacity":10,"tier":"standard","source":"HIFLD"}},{"type":"Feature","geometry":{"type":"Point","coordinates":[-149.833204858747,61.1865308426603]},"properties":{"name":"MCLAUGHLIN YOUTH CENTER","city":"ANCHORAGE","region":"AK","country":"US","type":"STATE","security":"JUVENILE","population":23,"capacity":110,"tier":"standard","source":"HIFLD"}},{"type":"Feature","geometry":{"type":"Point","coordinates":[-134.46704651118,58.3299249836232]},"properties":{"name":"JOHNSON YOUTH CENTER","city":"JUNEAU","region":"AK","country":"US","type":"STATE","security":"JUVENILE","population":19,"capacity":20,"tier":"standard","source":"HIFLD"}},{"type":"Feature","geometry":{"type":"Point","coordinates":[-64.3028197,44.5691332]},"properties":{"name":"Correctional facility","city":"","region":"","country":"CA","type":"prison","security":"","population":null,"capacity":null,"tier":"standard","source":"OSM (Canada)"}},{"type":"Feature","geometry":{"type":"Point","coordinates":[-100.2844707,49.2031921]},"properties":{"name":"Correctional facility","city":"","region":"","country":"CA","type":"prison","security":"","population":null,"capacity":null,"tier":"standard","source":"OSM (Canada)"}},{"type":"Feature","geometry":{"type":"Point","coordinates":[-100.2187642,49.2082176]},"properties":{"name":"Correctional facility","city":"","region":"","country":"CA","type":"prison","security":"","population":null,"capacity":null,"tier":"standard","source":"OSM (Canada)"}},{"type":"Feature","geometry":{"type":"Point","coordinates":[-113.8877976,54.051476]},"properties":{"name":"Correctional facility","city":"","region":"","country":"CA","type":"prison","security":"","population":null,"capacity":null,"tier":"standard","source":"OSM (Canada)"}},{"type":"Feature","geometry":{"type":"Point","coordinates":[-114.3963041,54.1371774]},"properties":{"name":"Correctional facility","city":"","region":"","country":"CA","type":"prison","security":"","population":null,"capacity":null,"tier":"standard","source":"OSM (Canada)"}},{"type":"Feature","geometry":{"type":"Point","coordinates":[-64.5979491,46.0088661]},"properties":{"name":"Correctional facility","city":"","region":"","country":"CA","type":"prison","security":"","population":null,"capacity":null,"tier":"standard","source":"OSM (Canada)"}},{"type":"Feature","geometry":{"type":"Point","coordinates":[-114.4839119,53.2899559]},"properties":{"name":"Correctional facility","city":"","region":"","country":"CA","type":"prison","security":"","population":null,"capacity":null,"tier":"standard","source":"OSM (Canada)"}},{"type":"Feature","geometry":{"type":"Point","coordinates":[-66.1019582,43.8259408]},"properties":{"name":"Correctional facility","city":"","region":"","country":"CA","type":"prison","security":"","population":null,"capacity":null,"tier":"standard","source":"OSM (Canada)"}},{"type":"Feature","geometry":{"type":"Point","coordinates":[-97.2225666,50.0795199]},"properties":{"name":"Rockwood Institution","city":"","region":"","country":"CA","type":"prison","security":"","population":null,"capacity":null,"tier":"standard","source":"OSM (Canada)"}},{"type":"Feature","geometry":{"type":"Point","coordinates":[-113.8046423,53.1766997]},"properties":{"name":"Correctional facility","city":"","region":"","country":"CA","type":"prison","security":"","population":null,"capacity":null,"tier":"standard","source":"OSM (Canada)"}},{"type":"Feature","geometry":{"type":"Point","coordinates":[-113.7975929,53.0546922]},"properties":{"name":"Correctional facility","city":"","region":"","country":"CA","type":"prison","security":"","population":null,"capacity":null,"tier":"standard","source":"OSM (Canada)"}},{"type":"Feature","geometry":{"type":"Point","coordinates":[-113.7967879,53.0549446]},"properties":{"name":"Correctional facility","city":"","region":"","country":"CA","type":"prison","security":"","population":null,"capacity":null,"tier":"standard","source":"OSM (Canada)"}},{"type":"Feature","geometry":{"type":"Point","coordinates":[-113.798349,53.0546868]},"properties":{"name":"Correctional facility","city":"","region":"","country":"CA","type":"prison","security":"","population":null,"capacity":null,"tier":"standard","source":"OSM (Canada)"}},{"type":"Feature","geometry":{"type":"Point","coordinates":[-113.5379801,52.8955121]},"properties":{"name":"Correctional facility","city":"","region":"","country":"CA","type":"prison","security":"","population":null,"capacity":null,"tier":"standard","source":"OSM (Canada)"}},{"type":"Feature","geometry":{"type":"Point","coordinates":[-65.971824,43.8552697]},"properties":{"name":"Correctional facility","city":"","region":"","country":"CA","type":"prison","security":"","population":null,"capacity":null,"tier":"standard","source":"OSM (Canada)"}},{"type":"Feature","geometry":{"type":"Point","coordinates":[-65.9335024,43.8357762]},"properties":{"name":"Correctional facility","city":"","region":"","country":"CA","type":"prison","security":"","population":null,"capacity":null,"tier":"standard","source":"OSM (Canada)"}},{"type":"Feature","geometry":{"type":"Point","coordinates":[-65.9825411,43.739164]},"properties":{"name":"Correctional facility","city":"","region":"","country":"CA","type":"prison","security":"","population":null,"capacity":null,"tier":"standard","source":"OSM (Canada)"}},{"type":"Feature","geometry":{"type":"Point","coordinates":[-65.8336982,43.9216985]},"properties":{"name":"Correctional facility","city":"","region":"","country":"CA","type":"prison","security":"","population":null,"capacity":null,"tier":"standard","source":"OSM (Canada)"}},{"type":"Feature","geometry":{"type":"Point","coordinates":[-65.7689093,43.6230142]},"properties":{"name":"Correctional facility","city":"","region":"","country":"CA","type":"prison","security":"","population":null,"capacity":null,"tier":"standard","source":"OSM (Canada)"}},{"type":"Feature","geometry":{"type":"Point","coordinates":[-65.7350928,43.5370817]},"properties":{"name":"Correctional facility","city":"","region":"","country":"CA","type":"prison","security":"","population":null,"capacity":null,"tier":"standard","source":"OSM (Canada)"}},{"type":"Feature","geometry":{"type":"Point","coordinates":[-65.586615,43.5647889]},"properties":{"name":"Correctional facility","city":"","region":"","country":"CA","type":"prison","security":"","population":null,"capacity":null,"tier":"standard","source":"OSM (Canada)"}},{"type":"Feature","geometry":{"type":"Point","coordinates":[-65.8584797,43.8197925]},"properties":{"name":"Correctional facility","city":"","region":"","country":"CA","type":"prison","security":"","population":null,"capacity":null,"tier":"standard","source":"OSM (Canada)"}},{"type":"Feature","geometry":{"type":"Point","coordinates":[-65.6088854,43.4692076]},"properties":{"name":"Correctional facility","city":"","region":"","country":"CA","type":"prison","security":"","population":null,"capacity":null,"tier":"standard","source":"OSM (Canada)"}},{"type":"Feature","geometry":{"type":"Point","coordinates":[-65.6103899,43.4928882]},"properties":{"name":"Correctional facility","city":"","region":"","country":"CA","type":"prison","security":"","population":null,"capacity":null,"tier":"standard","source":"OSM (Canada)"}},{"type":"Feature","geometry":{"type":"Point","coordinates":[-65.6158739,43.4313122]},"properties":{"name":"Correctional facility","city":"","region":"","country":"CA","type":"prison","security":"","population":null,"capacity":null,"tier":"standard","source":"OSM (Canada)"}},{"type":"Feature","geometry":{"type":"Point","coordinates":[-65.3776543,43.7467003]},"properties":{"name":"Correctional facility","city":"","region":"","country":"CA","type":"prison","security":"","population":null,"capacity":null,"tier":"standard","source":"OSM (Canada)"}},{"type":"Feature","geometry":{"type":"Point","coordinates":[-71.4512415,46.1097912]},"properties":{"name":"Correctional facility","city":"","region":"","country":"CA","type":"prison","security":"","population":null,"capacity":null,"tier":"standard","source":"OSM (Canada)"}},{"type":"Feature","geometry":{"type":"Point","coordinates":[-66.166659,44.0621171]},"properties":{"name":"Correctional facility","city":"","region":"","country":"CA","type":"prison","security":"","population":null,"capacity":null,"tier":"standard","source":"OSM (Canada)"}},{"type":"Feature","geometry":{"type":"Point","coordinates":[-66.1762502,44.1204074]},"properties":{"name":"Correctional facility","city":"","region":"","country":"CA","type":"prison","security":"","population":null,"capacity":null,"tier":"standard","source":"OSM (Canada)"}},{"type":"Feature","geometry":{"type":"Point","coordinates":[-66.1761788,44.1211366]},"properties":{"name":"Correctional facility","city":"","region":"","country":"CA","type":"prison","security":"","population":null,"capacity":null,"tier":"standard","source":"OSM (Canada)"}},{"type":"Feature","geometry":{"type":"Point","coordinates":[-66.1804075,44.0966123]},"properties":{"name":"Correctional facility","city":"","region":"","country":"CA","type":"prison","security":"","population":null,"capacity":null,"tier":"standard","source":"OSM (Canada)"}},{"type":"Feature","geometry":{"type":"Point","coordinates":[-72.512512,46.3670964]},"properties":{"name":"Correctional facility","city":"","region":"","country":"CA","type":"prison","security":"","population":null,"capacity":null,"tier":"standard","source":"OSM (Canada)"}},{"type":"Feature","geometry":{"type":"Point","coordinates":[-72.514067,46.3699881]},"properties":{"name":"Correctional facility","city":"","region":"","country":"CA","type":"prison","security":"","population":null,"capacity":null,"tier":"standard","source":"OSM (Canada)"}},{"type":"Feature","geometry":{"type":"Point","coordinates":[-66.861164,45.9760422]},"properties":{"name":"Correctional facility","city":"","region":"","country":"CA","type":"prison","security":"","population":null,"capacity":null,"tier":"standard","source":"OSM (Canada)"}},{"type":"Feature","geometry":{"type":"Point","coordinates":[-71.3582772,46.9190688]},"properties":{"name":"Correctional facility","city":"","region":"","country":"CA","type":"prison","security":"","population":null,"capacity":null,"tier":"standard","source":"OSM (Canada)"}},{"type":"Feature","geometry":{"type":"Point","coordinates":[-96.6972423,49.0891679]},"properties":{"name":"Correctional facility","city":"","region":"","country":"CA","type":"prison","security":"","population":null,"capacity":null,"tier":"standard","source":"OSM (Canada)"}},{"type":"Feature","geometry":{"type":"Point","coordinates":[-59.9790598,45.9840233]},"properties":{"name":"Correctional facility","city":"","region":"","country":"CA","type":"prison","security":"","population":null,"capacity":null,"tier":"standard","source":"OSM (Canada)"}},{"type":"Feature","geometry":{"type":"Point","coordinates":[-60.3685581,45.717562]},"properties":{"name":"Correctional facility","city":"","region":"","country":"CA","type":"prison","security":"","population":null,"capacity":null,"tier":"standard","source":"OSM (Canada)"}},{"type":"Feature","geometry":{"type":"Point","coordinates":[-60.2887272,45.8714864]},"properties":{"name":"Correctional facility","city":"","region":"","country":"CA","type":"prison","security":"","population":null,"capacity":null,"tier":"standard","source":"OSM (Canada)"}},{"type":"Feature","geometry":{"type":"Point","coordinates":[-70.8381929,48.2282184]},"properties":{"name":"Correctional facility","city":"","region":"","country":"CA","type":"prison","security":"","population":null,"capacity":null,"tier":"standard","source":"OSM (Canada)"}},{"type":"Feature","geometry":{"type":"Point","coordinates":[-73.1569787,45.7835379]},"properties":{"name":"Correctional facility","city":"","region":"","country":"CA","type":"prison","security":"","population":null,"capacity":null,"tier":"standard","source":"OSM (Canada)"}},{"type":"Feature","geometry":{"type":"Point","coordinates":[-71.9553194,48.4123906]},"properties":{"name":"Correctional facility","city":"","region":"","country":"CA","type":"prison","security":"","population":null,"capacity":null,"tier":"standard","source":"OSM (Canada)"}},{"type":"Feature","geometry":{"type":"Point","coordinates":[-64.3071452,48.598028]},"properties":{"name":"Correctional facility","city":"","region":"","country":"CA","type":"prison","security":"","population":null,"capacity":null,"tier":"standard","source":"OSM (Canada)"}},{"type":"Feature","geometry":{"type":"Point","coordinates":[-104.6948142,50.4666697]},"properties":{"name":"Paul Dojack Youth Centre","city":"","region":"","country":"CA","type":"prison","security":"","population":null,"capacity":null,"tier":"limited","source":"OSM (Canada)"}},{"type":"Feature","geometry":{"type":"Point","coordinates":[-60.3193997,46.8144756]},"properties":{"name":"Correctional facility","city":"","region":"","country":"CA","type":"prison","security":"","population":null,"capacity":null,"tier":"standard","source":"OSM (Canada)"}},{"type":"Feature","geometry":{"type":"Point","coordinates":[-60.4111388,46.6376365]},"properties":{"name":"Correctional facility","city":"","region":"","country":"CA","type":"prison","security":"","population":null,"capacity":null,"tier":"standard","source":"OSM (Canada)"}},{"type":"Feature","geometry":{"type":"Point","coordinates":[-108.6127017,59.5739487]},"properties":{"name":"Correctional facility","city":"","region":"","country":"CA","type":"prison","security":"","population":null,"capacity":null,"tier":"standard","source":"OSM (Canada)"}},{"type":"Feature","geometry":{"type":"Point","coordinates":[-108.6109363,59.5738694]},"properties":{"name":"Correctional facility","city":"","region":"","country":"CA","type":"prison","security":"","population":null,"capacity":null,"tier":"standard","source":"OSM (Canada)"}},{"type":"Feature","geometry":{"type":"Point","coordinates":[-114.073218,52.7080429]},"properties":{"name":"Correctional facility","city":"","region":"","country":"CA","type":"prison","security":"","population":null,"capacity":null,"tier":"standard","source":"OSM (Canada)"}},{"type":"Feature","geometry":{"type":"Point","coordinates":[-59.2852702,47.6388977]},"properties":{"name":"Correctional facility","city":"","region":"","country":"CA","type":"prison","security":"","population":null,"capacity":null,"tier":"standard","source":"OSM (Canada)"}},{"type":"Feature","geometry":{"type":"Point","coordinates":[-115.7821264,60.8153139]},"properties":{"name":"Correctional facility","city":"","region":"","country":"CA","type":"prison","security":"","population":null,"capacity":null,"tier":"standard","source":"OSM (Canada)"}},{"type":"Feature","geometry":{"type":"Point","coordinates":[-59.0478481,47.5736876]},"properties":{"name":"Correctional facility","city":"","region":"","country":"CA","type":"prison","security":"","population":null,"capacity":null,"tier":"standard","source":"OSM (Canada)"}},{"type":"Feature","geometry":{"type":"Point","coordinates":[-99.0942644,49.5556525]},"properties":{"name":"Correctional facility","city":"","region":"","country":"CA","type":"prison","security":"","population":null,"capacity":null,"tier":"standard","source":"OSM (Canada)"}},{"type":"Feature","geometry":{"type":"Point","coordinates":[-99.0941408,49.557626]},"properties":{"name":"Correctional facility","city":"","region":"","country":"CA","type":"prison","security":"","population":null,"capacity":null,"tier":"standard","source":"OSM (Canada)"}},{"type":"Feature","geometry":{"type":"Point","coordinates":[-98.1584823,49.506959]},"properties":{"name":"Correctional facility","city":"","region":"","country":"CA","type":"prison","security":"","population":null,"capacity":null,"tier":"standard","source":"OSM (Canada)"}},{"type":"Feature","geometry":{"type":"Point","coordinates":[-53.1901022,47.6769497]},"properties":{"name":"Correctional facility","city":"","region":"","country":"CA","type":"prison","security":"","population":null,"capacity":null,"tier":"standard","source":"OSM (Canada)"}},{"type":"Feature","geometry":{"type":"Point","coordinates":[-53.1874626,47.7570028]},"properties":{"name":"Correctional facility","city":"","region":"","country":"CA","type":"prison","security":"","population":null,"capacity":null,"tier":"standard","source":"OSM (Canada)"}},{"type":"Feature","geometry":{"type":"Point","coordinates":[-53.8130617,47.995771]},"properties":{"name":"Correctional facility","city":"","region":"","country":"CA","type":"prison","security":"","population":null,"capacity":null,"tier":"standard","source":"OSM (Canada)"}},{"type":"Feature","geometry":{"type":"Point","coordinates":[-53.7503526,48.0457884]},"properties":{"name":"Correctional facility","city":"","region":"","country":"CA","type":"prison","security":"","population":null,"capacity":null,"tier":"standard","source":"OSM (Canada)"}},{"type":"Feature","geometry":{"type":"Point","coordinates":[-53.7439105,48.0071593]},"properties":{"name":"Correctional facility","city":"","region":"","country":"CA","type":"prison","security":"","population":null,"capacity":null,"tier":"standard","source":"OSM (Canada)"}},{"type":"Feature","geometry":{"type":"Point","coordinates":[-53.6353727,48.0343747]},"properties":{"name":"Correctional facility","city":"","region":"","country":"CA","type":"prison","security":"","population":null,"capacity":null,"tier":"standard","source":"OSM (Canada)"}},{"type":"Feature","geometry":{"type":"Point","coordinates":[-53.6015348,48.4126654]},"properties":{"name":"Correctional facility","city":"","region":"","country":"CA","type":"prison","security":"","population":null,"capacity":null,"tier":"standard","source":"OSM (Canada)"}},{"type":"Feature","geometry":{"type":"Point","coordinates":[-54.1713008,46.9255009]},"properties":{"name":"Correctional facility","city":"","region":"","country":"CA","type":"prison","security":"","population":null,"capacity":null,"tier":"standard","source":"OSM (Canada)"}},{"type":"Feature","geometry":{"type":"Point","coordinates":[-97.9757622,50.0563301]},"properties":{"name":"Correctional facility","city":"","region":"","country":"CA","type":"prison","security":"","population":null,"capacity":null,"tier":"standard","source":"OSM (Canada)"}},{"type":"Feature","geometry":{"type":"Point","coordinates":[-71.4877671,46.8999496]},"properties":{"name":"Correctional facility","city":"","region":"","country":"CA","type":"prison","security":"","population":null,"capacity":null,"tier":"standard","source":"OSM (Canada)"}},{"type":"Feature","geometry":{"type":"Point","coordinates":[-80.6773467,48.6415984]},"properties":{"name":"Monteith Correctional Complex","city":"","region":"","country":"CA","type":"prison","security":"","population":null,"capacity":null,"tier":"standard","source":"OSM (Canada)"}},{"type":"Feature","geometry":{"type":"Point","coordinates":[-104.5185893,53.815919]},"properties":{"name":"Correctional facility","city":"","region":"","country":"CA","type":"prison","security":"","population":null,"capacity":null,"tier":"standard","source":"OSM (Canada)"}},{"type":"Feature","geometry":{"type":"Point","coordinates":[-71.3159128,46.8871413]},"properties":{"name":"\u00c9tablissement de d\u00e9tention de Qu\u00e9bec","city":"","region":"","country":"CA","type":"prison","security":"","population":null,"capacity":null,"tier":"standard","source":"OSM (Canada)"}},{"type":"Feature","geometry":{"type":"Point","coordinates":[-73.6862711,45.5453251]},"properties":{"name":"Prison de Bordeaux","city":"","region":"","country":"CA","type":"prison","security":"","population":null,"capacity":null,"tier":"standard","source":"OSM (Canada)"}},{"type":"Feature","geometry":{"type":"Point","coordinates":[-75.7494119,45.4278665]},"properties":{"name":"Centre de d\u00e9tention de Hull","city":"Gatineau","region":"","country":"CA","type":"prison","security":"","population":null,"capacity":null,"tier":"standard","source":"OSM (Canada)"}},{"type":"Feature","geometry":{"type":"Point","coordinates":[-72.6261786,46.3666595]},"properties":{"name":"\u00c9tablissement de d\u00e9tention de Trois-Rivi\u00e8res","city":"Trois-Rivi\u00e8res","region":"QC","country":"CA","type":"prison","security":"","population":null,"capacity":null,"tier":"standard","source":"OSM (Canada)"}},{"type":"Feature","geometry":{"type":"Point","coordinates":[-66.8873032,50.0557994]},"properties":{"name":"Port-Cartier Institution","city":"","region":"","country":"CA","type":"prison","security":"","population":null,"capacity":null,"tier":"standard","source":"OSM (Canada)"}},{"type":"Feature","geometry":{"type":"Point","coordinates":[-113.3909583,52.9083871]},"properties":{"name":"Correctional facility","city":"","region":"","country":"CA","type":"prison","security":"","population":null,"capacity":null,"tier":"standard","source":"OSM (Canada)"}},{"type":"Feature","geometry":{"type":"Point","coordinates":[-113.3886412,52.9119726]},"properties":{"name":"Correctional facility","city":"","region":"","country":"CA","type":"prison","security":"","population":null,"capacity":null,"tier":"standard","source":"OSM (Canada)"}},{"type":"Feature","geometry":{"type":"Point","coordinates":[-60.0763975,46.1778596]},"properties":{"name":"Cape Breton Correctional Centre","city":"","region":"","country":"CA","type":"prison","security":"","population":null,"capacity":null,"tier":"standard","source":"OSM (Canada)"}},{"type":"Feature","geometry":{"type":"Point","coordinates":[-97.2068982,49.8707839]},"properties":{"name":"Manitoba Youth Centre","city":"","region":"","country":"CA","type":"prison","security":"","population":null,"capacity":null,"tier":"limited","source":"OSM (Canada)"}},{"type":"Feature","geometry":{"type":"Point","coordinates":[-52.6970558,47.576381]},"properties":{"name":"H.M. Penitentiary","city":"","region":"","country":"CA","type":"prison","security":"","population":null,"capacity":null,"tier":"standard","source":"OSM (Canada)"}},{"type":"Feature","geometry":{"type":"Point","coordinates":[-97.1457178,49.8877001]},"properties":{"name":"Winnipeg Remand Centre","city":"","region":"","country":"CA","type":"prison","security":"","population":null,"capacity":null,"tier":"standard","source":"OSM (Canada)"}},{"type":"Feature","geometry":{"type":"Point","coordinates":[-64.0705311,45.6243115]},"properties":{"name":"Springhill Institution","city":"Springhill","region":"Nova Scotia","country":"CA","type":"prison","security":"","population":null,"capacity":null,"tier":"standard","source":"OSM (Canada)"}},{"type":"Feature","geometry":{"type":"Point","coordinates":[-65.8062877,46.7991736]},"properties":{"name":"Atlantic Institution","city":"","region":"","country":"CA","type":"prison","security":"","population":null,"capacity":null,"tier":"standard","source":"OSM (Canada)"}},{"type":"Feature","geometry":{"type":"Point","coordinates":[-60.1575031,46.1387354]},"properties":{"name":"Correctional facility","city":"","region":"","country":"CA","type":"prison","security":"","population":null,"capacity":null,"tier":"standard","source":"OSM (Canada)"}},{"type":"Feature","geometry":{"type":"Point","coordinates":[-113.6243486,53.5613995]},"properties":{"name":"Edmonton Institution for Women","city":"","region":"","country":"CA","type":"prison","security":"","population":null,"capacity":null,"tier":"standard","source":"OSM (Canada)"}},{"type":"Feature","geometry":{"type":"Point","coordinates":[-113.5383123,53.6489566]},"properties":{"name":"Correctional facility","city":"","region":"","country":"CA","type":"prison","security":"","population":null,"capacity":null,"tier":"standard","source":"OSM (Canada)"}},{"type":"Feature","geometry":{"type":"Point","coordinates":[-92.1041991,62.8146639]},"properties":{"name":"Rankin Inlet Healing Facility","city":"","region":"","country":"CA","type":"prison","security":"","population":null,"capacity":null,"tier":"standard","source":"OSM (Canada)"}},{"type":"Feature","geometry":{"type":"Point","coordinates":[-113.486853,53.5479346]},"properties":{"name":"Edmonton Remand Centre Downtown","city":"","region":"","country":"CA","type":"prison","security":"","population":null,"capacity":null,"tier":"standard","source":"OSM (Canada)"}},{"type":"Feature","geometry":{"type":"Point","coordinates":[-113.5384203,53.6468279]},"properties":{"name":"Edmonton Remand Centre","city":"Edmonton","region":"AB","country":"CA","type":"prison","security":"","population":null,"capacity":null,"tier":"standard","source":"OSM (Canada)"}},{"type":"Feature","geometry":{"type":"Point","coordinates":[-73.5365438,45.6603479]},"properties":{"name":"Centre de D\u00e9tention de Rivi\u00e8re-des-Prairies","city":"Montr\u00e9al","region":"","country":"CA","type":"prison","security":"","population":null,"capacity":null,"tier":"standard","source":"OSM (Canada)"}},{"type":"Feature","geometry":{"type":"Point","coordinates":[-111.8667119,60.0063767]},"properties":{"name":"Territorial Women's Correctional Centre","city":"","region":"","country":"CA","type":"prison","security":"","population":null,"capacity":null,"tier":"standard","source":"OSM (Canada)"}},{"type":"Feature","geometry":{"type":"Point","coordinates":[-73.6548492,45.6242532]},"properties":{"name":"Centre F\u00e9d\u00e9ral de Formation","city":"","region":"","country":"CA","type":"prison","security":"","population":null,"capacity":null,"tier":"standard","source":"OSM (Canada)"}},{"type":"Feature","geometry":{"type":"Point","coordinates":[-113.2035375,53.6929677]},"properties":{"name":"Fort Saskatchewan Correctional Centre","city":"Fort Saskatchewan","region":"AB","country":"CA","type":"prison","security":"","population":null,"capacity":null,"tier":"standard","source":"OSM (Canada)"}},{"type":"Feature","geometry":{"type":"Point","coordinates":[-106.6028696,52.1620438]},"properties":{"name":"Regional Psychiatric Centre","city":"","region":"","country":"CA","type":"prison","security":"","population":null,"capacity":null,"tier":"standard","source":"OSM (Canada)"}},{"type":"Feature","geometry":{"type":"Point","coordinates":[-71.0614994,48.4253182]},"properties":{"name":"Ancien prison","city":"","region":"","country":"CA","type":"prison","security":"","population":null,"capacity":null,"tier":"standard","source":"OSM (Canada)"}},{"type":"Feature","geometry":{"type":"Point","coordinates":[-114.0136866,51.9770659]},"properties":{"name":"Bowden Institution","city":"Innisfail","region":"","country":"CA","type":"prison","security":"","population":null,"capacity":null,"tier":"standard","source":"OSM (Canada)"}},{"type":"Feature","geometry":{"type":"Point","coordinates":[-114.0113362,51.9795755]},"properties":{"name":"Bowden Institution Annex","city":"","region":"","country":"CA","type":"prison","security":"","population":null,"capacity":null,"tier":"standard","source":"OSM (Canada)"}},{"type":"Feature","geometry":{"type":"Point","coordinates":[-79.6359676,47.4493286]},"properties":{"name":"Former Haileybury Jail","city":"","region":"","country":"CA","type":"prison","security":"","population":null,"capacity":null,"tier":"limited","source":"OSM (Canada)"}},{"type":"Feature","geometry":{"type":"Point","coordinates":[-115.1351432,50.7114273]},"properties":{"name":"Correctional facility","city":"","region":"","country":"CA","type":"prison","security":"","population":null,"capacity":null,"tier":"standard","source":"OSM (Canada)"}},{"type":"Feature","geometry":{"type":"Point","coordinates":[-68.5402026,63.7584196]},"properties":{"name":"Women's Correctional Centre","city":"Iqaluit","region":"","country":"CA","type":"prison","security":"","population":null,"capacity":null,"tier":"standard","source":"OSM (Canada)"}},{"type":"Feature","geometry":{"type":"Point","coordinates":[-68.5410255,63.7587239]},"properties":{"name":"Isumaqsunngittukkuvik Young Offenders Facility","city":"Iqaluit","region":"","country":"CA","type":"prison","security":"","population":null,"capacity":null,"tier":"standard","source":"OSM (Canada)"}},{"type":"Feature","geometry":{"type":"Point","coordinates":[-68.5422405,63.7590987]},"properties":{"name":"Baffin Correctional Centre","city":"Iqaluit","region":"","country":"CA","type":"prison","security":"","population":null,"capacity":null,"tier":"standard","source":"OSM (Canada)"}},{"type":"Feature","geometry":{"type":"Point","coordinates":[-104.5231433,50.4913547]},"properties":{"name":"Regina Provincial Correctional Centre","city":"","region":"","country":"CA","type":"prison","security":"","population":null,"capacity":null,"tier":"standard","source":"OSM (Canada)"}},{"type":"Feature","geometry":{"type":"Point","coordinates":[-112.6889391,51.4233958]},"properties":{"name":"Drumheller Institution","city":"Drumheller","region":"AB","country":"CA","type":"prison","security":"","population":null,"capacity":null,"tier":"standard","source":"OSM (Canada)"}},{"type":"Feature","geometry":{"type":"Point","coordinates":[-64.6705722,45.0596298]},"properties":{"name":"Correctional facility","city":"","region":"","country":"CA","type":"prison","security":"","population":null,"capacity":null,"tier":"standard","source":"OSM (Canada)"}},{"type":"Feature","geometry":{"type":"Point","coordinates":[-73.8628266,45.7478921]},"properties":{"name":"\u00c9tablissement Sainte-Anne-Des-Plaines","city":"","region":"","country":"CA","type":"prison","security":"","population":null,"capacity":null,"tier":"standard","source":"OSM (Canada)"}},{"type":"Feature","geometry":{"type":"Point","coordinates":[-74.0179276,45.8013278]},"properties":{"name":"\u00c9tablissement de d\u00e9tention de Saint-J\u00e9r\u00f4me","city":"","region":"","country":"CA","type":"prison","security":"","population":null,"capacity":null,"tier":"standard","source":"OSM (Canada)"}},{"type":"Feature","geometry":{"type":"Point","coordinates":[-97.3763783,49.8828577]},"properties":{"name":"Women\u2019s Correctional Centre","city":"Headingley","region":"","country":"CA","type":"prison","security":"","population":null,"capacity":null,"tier":"standard","source":"OSM (Canada)"}},{"type":"Feature","geometry":{"type":"Point","coordinates":[-67.5736049,46.1523018]},"properties":{"name":"Woodstock Jail","city":"","region":"","country":"CA","type":"prison","security":"","population":null,"capacity":null,"tier":"limited","source":"OSM (Canada)"}},{"type":"Feature","geometry":{"type":"Point","coordinates":[-63.3017348,45.3470657]},"properties":{"name":"Nova Institution for Women","city":"","region":"","country":"CA","type":"prison","security":"","population":null,"capacity":null,"tier":"standard","source":"OSM (Canada)"}},{"type":"Feature","geometry":{"type":"Point","coordinates":[-78.1252248,48.5789535]},"properties":{"name":"\u00c9tablissement de D\u00e9tention","city":"","region":"","country":"CA","type":"prison","security":"","population":null,"capacity":null,"tier":"standard","source":"OSM (Canada)"}},{"type":"Feature","geometry":{"type":"Point","coordinates":[-64.5079368,45.912097]},"properties":{"name":"Dorchester Penitentary","city":"Dorchester","region":"","country":"CA","type":"prison","security":"","population":null,"capacity":null,"tier":"standard","source":"OSM (Canada)"}},{"type":"Feature","geometry":{"type":"Point","coordinates":[-72.7889754,45.2212375]},"properties":{"name":"P\u00e9nitencier f\u00e9d\u00e9ral de Cowansville","city":"Cowansville","region":"","country":"CA","type":"prison","security":"","population":null,"capacity":null,"tier":"standard","source":"OSM (Canada)"}},{"type":"Feature","geometry":{"type":"Point","coordinates":[-113.3382555,53.6771728]},"properties":{"name":"Edmonton Institution","city":"","region":"","country":"CA","type":"prison","security":"","population":null,"capacity":null,"tier":"standard","source":"OSM (Canada)"}},{"type":"Feature","geometry":{"type":"Point","coordinates":[-74.773938,46.4128382]},"properties":{"name":"P\u00e9nitentier La Macaza","city":"","region":"","country":"CA","type":"prison","security":"","population":null,"capacity":null,"tier":"standard","source":"OSM (Canada)"}},{"type":"Feature","geometry":{"type":"Point","coordinates":[-97.4374398,49.869411]},"properties":{"name":"Headingley Correctional Centre","city":"","region":"","country":"CA","type":"prison","security":"","population":null,"capacity":null,"tier":"standard","source":"OSM (Canada)"}},{"type":"Feature","geometry":{"type":"Point","coordinates":[-68.4987138,48.4635435]},"properties":{"name":"\u00c9tablissement de d\u00e9tention de Rimouski","city":"","region":"","country":"CA","type":"prison","security":"","population":null,"capacity":null,"tier":"standard","source":"OSM (Canada)"}},{"type":"Feature","geometry":{"type":"Point","coordinates":[-97.2183341,50.0749892]},"properties":{"name":"Stony Mountain Institution","city":"","region":"","country":"CA","type":"prison","security":"","population":null,"capacity":null,"tier":"standard","source":"OSM (Canada)"}},{"type":"Feature","geometry":{"type":"Point","coordinates":[-73.0827487,46.0408096]},"properties":{"name":"\u00c9tablissement de d\u00e9tention de Sorel","city":"","region":"","country":"CA","type":"prison","security":"","population":null,"capacity":null,"tier":"standard","source":"OSM (Canada)"}},{"type":"Feature","geometry":{"type":"Point","coordinates":[-73.0778215,46.0302613]},"properties":{"name":"\u00c9tablissement de d\u00e9tention de Sorel-Tracy","city":"Sorel-Tracy","region":"Qu\u00e9bec","country":"CA","type":"prison","security":"","population":null,"capacity":null,"tier":"standard","source":"OSM (Canada)"}},{"type":"Feature","geometry":{"type":"Point","coordinates":[-60.3206655,53.3094236]},"properties":{"name":"Labrador Correctional Centre","city":"","region":"","country":"CA","type":"prison","security":"","population":null,"capacity":null,"tier":"standard","source":"OSM (Canada)"}},{"type":"Feature","geometry":{"type":"Point","coordinates":[-62.6087117,45.5754454]},"properties":{"name":"Northeast Nova Scotia Correctional Facility","city":"Priestville","region":"","country":"CA","type":"prison","security":"","population":null,"capacity":null,"tier":"standard","source":"OSM (Canada)"}},{"type":"Feature","geometry":{"type":"Point","coordinates":[-68.5410987,63.7583013]},"properties":{"name":"Correctional facility","city":"","region":"","country":"CA","type":"prison","security":"","population":null,"capacity":null,"tier":"standard","source":"OSM (Canada)"}},{"type":"Feature","geometry":{"type":"Point","coordinates":[-119.1435032,53.8638998]},"properties":{"name":"Grande Cache Institution","city":"","region":"","country":"CA","type":"prison","security":"","population":null,"capacity":null,"tier":"standard","source":"OSM (Canada)"}},{"type":"Feature","geometry":{"type":"Point","coordinates":[-66.4159996,50.2779574]},"properties":{"name":"\u00c9tablissement de d\u00e9tention de Sept-\u00celes","city":"","region":"","country":"CA","type":"prison","security":"","population":null,"capacity":null,"tier":"standard","source":"OSM (Canada)"}},{"type":"Feature","geometry":{"type":"Point","coordinates":[-113.463876,53.6586545]},"properties":{"name":"Canadian Forces Service Prison and Detention Barracks","city":"","region":"","country":"CA","type":"prison","security":"","population":null,"capacity":null,"tier":"standard","source":"OSM (Canada)"}},{"type":"Feature","geometry":{"type":"Point","coordinates":[-113.4719477,52.8163656]},"properties":{"name":"P\u00ea S\u00e2k\u00e2st\u00eaw Centre","city":"","region":"","country":"CA","type":"prison","security":"","population":null,"capacity":null,"tier":"standard","source":"OSM (Canada)"}},{"type":"Feature","geometry":{"type":"Point","coordinates":[-106.6450385,52.1883537]},"properties":{"name":"Saskatoon Correctional Centre","city":"","region":"","country":"CA","type":"prison","security":"","population":null,"capacity":null,"tier":"standard","source":"OSM (Canada)"}},{"type":"Feature","geometry":{"type":"Point","coordinates":[-75.5792678,45.4239787]},"properties":{"name":"Ottawa-Carleton Detention Centre","city":"","region":"","country":"CA","type":"prison","security":"","population":null,"capacity":null,"tier":"standard","source":"OSM (Canada)"}},{"type":"Feature","geometry":{"type":"Point","coordinates":[-62.6087364,45.5744674]},"properties":{"name":"Correctional facility","city":"","region":"","country":"CA","type":"prison","security":"","population":null,"capacity":null,"tier":"standard","source":"OSM (Canada)"}},{"type":"Feature","geometry":{"type":"Point","coordinates":[-71.6905994,46.6877145]},"properties":{"name":"P\u00e9nitencier de Donnacona","city":"Donnacona","region":"","country":"CA","type":"prison","security":"","population":null,"capacity":null,"tier":"standard","source":"OSM (Canada)"}},{"type":"Feature","geometry":{"type":"Point","coordinates":[-65.9846867,45.268335]},"properties":{"name":"Saint John Regional Correctional Centre","city":"","region":"","country":"CA","type":"prison","security":"","population":null,"capacity":null,"tier":"standard","source":"OSM (Canada)"}},{"type":"Feature","geometry":{"type":"Point","coordinates":[-114.2063804,51.1562594]},"properties":{"name":"Calgary Correctional Centre","city":"","region":"","country":"CA","type":"prison","security":"","population":null,"capacity":null,"tier":"standard","source":"OSM (Canada)"}},{"type":"Feature","geometry":{"type":"Point","coordinates":[-63.2080378,46.2884904]},"properties":{"name":"Provincial Correctional Centre","city":"","region":"","country":"CA","type":"prison","security":"","population":null,"capacity":null,"tier":"standard","source":"OSM (Canada)"}},{"type":"Feature","geometry":{"type":"Point","coordinates":[-64.517359,46.2068182]},"properties":{"name":"Correctional facility","city":"","region":"","country":"CA","type":"prison","security":"","population":null,"capacity":null,"tier":"standard","source":"OSM (Canada)"}},{"type":"Feature","geometry":{"type":"Point","coordinates":[-106.2967801,52.8255739]},"properties":{"name":"Willow Cree Healing Lodge","city":"","region":"","country":"CA","type":"prison","security":"","population":null,"capacity":null,"tier":"standard","source":"OSM (Canada)"}},{"type":"Feature","geometry":{"type":"Point","coordinates":[-66.0947123,43.8289556]},"properties":{"name":"Correctional facility","city":"","region":"","country":"CA","type":"prison","security":"","population":null,"capacity":null,"tier":"standard","source":"OSM (Canada)"}},{"type":"Feature","geometry":{"type":"Point","coordinates":[-64.6670982,45.0531938]},"properties":{"name":"Nova Scotia Youth Centre","city":"Waterville","region":"Nova Scotia","country":"CA","type":"prison","security":"","population":null,"capacity":null,"tier":"limited","source":"OSM (Canada)"}},{"type":"Feature","geometry":{"type":"Point","coordinates":[-65.9276771,44.0061204]},"properties":{"name":"Correctional facility","city":"","region":"","country":"CA","type":"prison","security":"","population":null,"capacity":null,"tier":"standard","source":"OSM (Canada)"}},{"type":"Feature","geometry":{"type":"Point","coordinates":[-106.6434706,52.1885451]},"properties":{"name":"Correctional facility","city":"","region":"","country":"CA","type":"prison","security":"","population":null,"capacity":null,"tier":"standard","source":"OSM (Canada)"}},{"type":"Feature","geometry":{"type":"Point","coordinates":[-72.477103,45.851231]},"properties":{"name":"Service Correctionnel Canada - \u00c9tablissement Drummondville","city":"","region":"","country":"CA","type":"prison","security":"","population":null,"capacity":null,"tier":"standard","source":"OSM (Canada)"}},{"type":"Feature","geometry":{"type":"Point","coordinates":[-73.4145264,46.0325345]},"properties":{"name":"\u00c9tablissement Joliette","city":"","region":"","country":"CA","type":"prison","security":"","population":null,"capacity":null,"tier":"standard","source":"OSM (Canada)"}},{"type":"Feature","geometry":{"type":"Point","coordinates":[-109.2633304,49.7604407]},"properties":{"name":"Okimaw Ohci Healing Lodge","city":"","region":"","country":"CA","type":"prison","security":"","population":null,"capacity":null,"tier":"standard","source":"OSM (Canada)"}},{"type":"Feature","geometry":{"type":"Point","coordinates":[-114.4038527,62.4354932]},"properties":{"name":"North Slave Correctional Complex","city":"","region":"","country":"CA","type":"prison","security":"","population":null,"capacity":null,"tier":"standard","source":"OSM (Canada)"}},{"type":"Feature","geometry":{"type":"Point","coordinates":[-63.3009423,45.3477037]},"properties":{"name":"Correctional facility","city":"","region":"","country":"CA","type":"prison","security":"","population":null,"capacity":null,"tier":"standard","source":"OSM (Canada)"}},{"type":"Feature","geometry":{"type":"Point","coordinates":[-63.3006114,45.3468825]},"properties":{"name":"Correctional facility","city":"","region":"","country":"CA","type":"prison","security":"","population":null,"capacity":null,"tier":"standard","source":"OSM (Canada)"}},{"type":"Feature","geometry":{"type":"Point","coordinates":[-63.3023368,45.346885]},"properties":{"name":"Correctional facility","city":"","region":"","country":"CA","type":"prison","security":"","population":null,"capacity":null,"tier":"standard","source":"OSM (Canada)"}},{"type":"Feature","geometry":{"type":"Point","coordinates":[-63.3021716,45.346356]},"properties":{"name":"Correctional facility","city":"","region":"","country":"CA","type":"prison","security":"","population":null,"capacity":null,"tier":"standard","source":"OSM (Canada)"}},{"type":"Feature","geometry":{"type":"Point","coordinates":[-72.2311688,48.5335053]},"properties":{"name":"\u00c9tablissement de d\u00e9tention de Roberval","city":"","region":"","country":"CA","type":"prison","security":"","population":null,"capacity":null,"tier":"standard","source":"OSM (Canada)"}},{"type":"Feature","geometry":{"type":"Point","coordinates":[-63.300196,45.3480323]},"properties":{"name":"Correctional facility","city":"","region":"","country":"CA","type":"prison","security":"","population":null,"capacity":null,"tier":"standard","source":"OSM (Canada)"}},{"type":"Feature","geometry":{"type":"Point","coordinates":[-114.207949,51.1654513]},"properties":{"name":"Calgary Young Offender Centre","city":"","region":"","country":"CA","type":"prison","security":"","population":null,"capacity":null,"tier":"standard","source":"OSM (Canada)"}},{"type":"Feature","geometry":{"type":"Point","coordinates":[-114.2085263,51.1597288]},"properties":{"name":"Calgary Remand Centre","city":"","region":"","country":"CA","type":"prison","security":"","population":null,"capacity":null,"tier":"standard","source":"OSM (Canada)"}},{"type":"Feature","geometry":{"type":"Point","coordinates":[-105.7281021,53.2209546]},"properties":{"name":"Pine Grove Correctional Centre","city":"","region":"","country":"CA","type":"prison","security":"","population":null,"capacity":null,"tier":"standard","source":"OSM (Canada)"}},{"type":"Feature","geometry":{"type":"Point","coordinates":[-101.2364685,53.8281239]},"properties":{"name":"The Pas Correctional Centre","city":"","region":"","country":"CA","type":"prison","security":"","population":null,"capacity":null,"tier":"standard","source":"OSM (Canada)"}},{"type":"Feature","geometry":{"type":"Point","coordinates":[-117.4527179,56.1551086]},"properties":{"name":"Peace River Correctional Centre","city":"","region":"","country":"CA","type":"prison","security":"","population":null,"capacity":null,"tier":"standard","source":"OSM (Canada)"}},{"type":"Feature","geometry":{"type":"Point","coordinates":[-66.1545555,45.5261737]},"properties":{"name":"Blue Mountain Correctional institute","city":"","region":"","country":"CA","type":"prison","security":"","population":null,"capacity":null,"tier":"standard","source":"OSM (Canada)"}},{"type":"Feature","geometry":{"type":"Point","coordinates":[-114.0056972,51.9667426]},"properties":{"name":"Bowden Institution","city":"Innisfail","region":"","country":"CA","type":"prison","security":"","population":null,"capacity":null,"tier":"standard","source":"OSM (Canada)"}},{"type":"Feature","geometry":{"type":"Point","coordinates":[-114.0155178,51.9660197]},"properties":{"name":"Bowden Institution","city":"Innisfail","region":"","country":"CA","type":"prison","security":"","population":null,"capacity":null,"tier":"standard","source":"OSM (Canada)"}},{"type":"Feature","geometry":{"type":"Point","coordinates":[-96.2187079,50.1442983]},"properties":{"name":"Milner Ridge Correctional Centre","city":"","region":"","country":"CA","type":"prison","security":"","population":null,"capacity":null,"tier":"standard","source":"OSM (Canada)"}},{"type":"Feature","geometry":{"type":"Point","coordinates":[-113.5383123,53.6489566]},"properties":{"name":"Edmonton Young Offenders Centre","city":"Edmonton","region":"AB","country":"CA","type":"prison","security":"","population":null,"capacity":null,"tier":"standard","source":"OSM (Canada)"}},{"type":"Feature","geometry":{"type":"Point","coordinates":[-63.6148985,44.706094]},"properties":{"name":"Jamieson Community Correctional Centre","city":"","region":"","country":"CA","type":"prison","security":"","population":null,"capacity":null,"tier":"standard","source":"OSM (Canada)"}},{"type":"Feature","geometry":{"type":"Point","coordinates":[-72.4774815,45.8513102]},"properties":{"name":"Correctional facility","city":"","region":"","country":"CA","type":"prison","security":"","population":null,"capacity":null,"tier":"standard","source":"OSM (Canada)"}},{"type":"Feature","geometry":{"type":"Point","coordinates":[-66.3926978,48.0407098]},"properties":{"name":"Dalhousie Regional Correctional Centre","city":"","region":"","country":"CA","type":"prison","security":"","population":null,"capacity":null,"tier":"standard","source":"OSM (Canada)"}},{"type":"Feature","geometry":{"type":"Point","coordinates":[-105.8170156,53.1977411]},"properties":{"name":"Saskatchewan Penitentiary","city":"","region":"","country":"CA","type":"prison","security":"","population":null,"capacity":null,"tier":"standard","source":"OSM (Canada)"}},{"type":"Feature","geometry":{"type":"Point","coordinates":[-63.5931547,44.7218254]},"properties":{"name":"Central Nova Scotia Correctional Facility","city":"Dartmouth","region":"Nova Scotia","country":"CA","type":"prison","security":"","population":null,"capacity":null,"tier":"standard","source":"OSM (Canada)"}},{"type":"Feature","geometry":{"type":"Point","coordinates":[-113.537792,53.6461738]},"properties":{"name":"Edmonton Remand Centre","city":"Edmonton","region":"AB","country":"CA","type":"prison","security":"","population":null,"capacity":null,"tier":"standard","source":"OSM (Canada)"}},{"type":"Feature","geometry":{"type":"Point","coordinates":[-78.1371927,48.5842713]},"properties":{"name":"\u00c9tablissement de d\u00e9tention d'Amos","city":"","region":"","country":"CA","type":"prison","security":"","population":null,"capacity":null,"tier":"standard","source":"OSM (Canada)"}},{"type":"Feature","geometry":{"type":"Point","coordinates":[-51.6525891,64.2004617]},"properties":{"name":"Anstalten for Domf\u00e6ldte i Nuuk","city":"","region":"","country":"GL","type":"prison","security":"","population":null,"capacity":null,"tier":"standard","source":"OSM (Greenland)"}},{"type":"Feature","geometry":{"type":"Point","coordinates":[-18.099602,65.6857008]},"properties":{"name":"Fangelsi\u00f0 Akureyri","city":"","region":"","country":"IS","type":"prison","security":"","population":null,"capacity":null,"tier":"standard","source":"OSM (Iceland)"}},{"type":"Feature","geometry":{"type":"Point","coordinates":[-21.6963079,64.0995126]},"properties":{"name":"Fangelsi\u00f0 H\u00f3lmshei\u00f0i","city":"Reykjav\u00edk","region":"","country":"IS","type":"prison","security":"","population":null,"capacity":null,"tier":"standard","source":"OSM (Iceland)"}},{"type":"Feature","geometry":{"type":"Point","coordinates":[-21.1315149,63.9978344]},"properties":{"name":"Fangelsi\u00f0 Sogni","city":"\u00d6lfusi","region":"","country":"IS","type":"prison","security":"","population":null,"capacity":null,"tier":"standard","source":"OSM (Iceland)"}}]}