{"type":"FeatureCollection","name":"food","metadata":{"generated":"2026-05-19T17:59:32Z","source":"USDA FSIS (US, geocoded via Census) + OpenStreetMap (CA / GL / IS)","clipped_to":"scenario.geojson land polygons (Ocean excluded)","count":65},"features":[{"type":"Feature","geometry":{"type":"Point","coordinates":[-112.7800109,49.6975083]},"properties":{"name":"PiP International Inc","activities":"food","city":"","region":"","country":"CA","tier":"standard","source":"OSM (Canada)"}},{"type":"Feature","geometry":{"type":"Point","coordinates":[-73.7044775,45.3998314]},"properties":{"name":"Halal Meats","activities":"slaughterhouse","city":"","region":"","country":"CA","tier":"major","source":"OSM (Canada)"}},{"type":"Feature","geometry":{"type":"Point","coordinates":[-73.5293445,45.3719434]},"properties":{"name":"Tout Cru! Atelier De Fermentation","activities":"food","city":"","region":"","country":"CA","tier":"standard","source":"OSM (Canada)"}},{"type":"Feature","geometry":{"type":"Point","coordinates":[-73.7464651,45.7659459]},"properties":{"name":"Montpak Terrebonne","activities":"food","city":"Terrebonne","region":"","country":"CA","tier":"standard","source":"OSM (Canada)"}},{"type":"Feature","geometry":{"type":"Point","coordinates":[-72.5443746,45.8725429]},"properties":{"name":"Avicomax - Maple Leaf","activities":"slaughterhouse","city":"Drummondville","region":"","country":"CA","tier":"major","source":"OSM (Canada)"}},{"type":"Feature","geometry":{"type":"Point","coordinates":[-72.5268763,45.8703308]},"properties":{"name":"Les aliments Trans-Gras","activities":"food","city":"Drummondville","region":"","country":"CA","tier":"standard","source":"OSM (Canada)"}},{"type":"Feature","geometry":{"type":"Point","coordinates":[-72.5183224,45.8765202]},"properties":{"name":"Anhydra","activities":"food","city":"Drummondville","region":"","country":"CA","tier":"standard","source":"OSM (Canada)"}},{"type":"Feature","geometry":{"type":"Point","coordinates":[-72.5456709,45.8778153]},"properties":{"name":"Olymel","activities":"food","city":"Drummondville","region":"","country":"CA","tier":"standard","source":"OSM (Canada)"}},{"type":"Feature","geometry":{"type":"Point","coordinates":[-74.2316571,45.9080891]},"properties":{"name":"Gourmet Du Village","activities":"food","city":"","region":"","country":"CA","tier":"standard","source":"OSM (Canada)"}},{"type":"Feature","geometry":{"type":"Point","coordinates":[-73.694191,45.3522146]},"properties":{"name":"Yourbarfactory","activities":"food","city":"","region":"","country":"CA","tier":"standard","source":"OSM (Canada)"}},{"type":"Feature","geometry":{"type":"Point","coordinates":[-73.6968217,45.3482729]},"properties":{"name":"Storcan International","activities":"food","city":"","region":"","country":"CA","tier":"standard","source":"OSM (Canada)"}},{"type":"Feature","geometry":{"type":"Point","coordinates":[-73.5953532,45.4626301]},"properties":{"name":"La Fourmi Bionique","activities":"food","city":"Montr\u00e9al","region":"","country":"CA","tier":"standard","source":"OSM (Canada)"}},{"type":"Feature","geometry":{"type":"Point","coordinates":[-73.5801267,45.3937188]},"properties":{"name":"Produits alimentaires Long Phung et Saigon Gourmet","activities":"food","city":"","region":"","country":"CA","tier":"standard","source":"OSM (Canada)"}},{"type":"Feature","geometry":{"type":"Point","coordinates":[-73.490577,45.4118738]},"properties":{"name":"Les viandes AMS","activities":"meat","city":"","region":"","country":"CA","tier":"standard","source":"OSM (Canada)"}},{"type":"Feature","geometry":{"type":"Point","coordinates":[-73.5280563,45.3705648]},"properties":{"name":"Alipro-Mistral Ingr\u00e9dients","activities":"food","city":"","region":"","country":"CA","tier":"standard","source":"OSM (Canada)"}},{"type":"Feature","geometry":{"type":"Point","coordinates":[-73.5232821,45.3681133]},"properties":{"name":"Pro Circuit High Tech Nutrition","activities":"food","city":"","region":"","country":"CA","tier":"standard","source":"OSM (Canada)"}},{"type":"Feature","geometry":{"type":"Point","coordinates":[-73.4647402,45.4287448]},"properties":{"name":"Vortik Charcuterie","activities":"food","city":"","region":"","country":"CA","tier":"standard","source":"OSM (Canada)"}},{"type":"Feature","geometry":{"type":"Point","coordinates":[-106.97106,52.0011992]},"properties":{"name":"Priarie Pulse Inc.","activities":"food","city":"Vanscoy","region":"","country":"CA","tier":"standard","source":"OSM (Canada)"}},{"type":"Feature","geometry":{"type":"Point","coordinates":[-69.6268274,47.6838704]},"properties":{"name":"Aliments ASTA","activities":"slaughterhouse","city":"Saint-Alexandre-de-Kamouraska","region":"","country":"CA","tier":"major","source":"OSM (Canada)"}},{"type":"Feature","geometry":{"type":"Point","coordinates":[-73.7816324,45.6133244]},"properties":{"name":"Whyte's","activities":"food","city":"Laval","region":"","country":"CA","tier":"standard","source":"OSM (Canada)"}},{"type":"Feature","geometry":{"type":"Point","coordinates":[-57.7055275,51.4785075]},"properties":{"name":"Coop\u00e9rative de solidarit\u00e9 Bioproduits Basse-C\u00f4te-Nord","activities":"food","city":"","region":"","country":"CA","tier":"standard","source":"OSM (Canada)"}},{"type":"Feature","geometry":{"type":"Point","coordinates":[-71.1705542,46.8226327]},"properties":{"name":"Bimbo Canada","activities":"food","city":"","region":"","country":"CA","tier":"standard","source":"OSM (Canada)"}},{"type":"Feature","geometry":{"type":"Point","coordinates":[-70.9569319,46.62277]},"properties":{"name":"Exceldor","activities":"slaughterhouse","city":"Saint-Anselme","region":"","country":"CA","tier":"major","source":"OSM (Canada)"}},{"type":"Feature","geometry":{"type":"Point","coordinates":[-74.2721776,45.6151612]},"properties":{"name":"Soci\u00e9t\u00e9 Laurentide","activities":"factory","city":"Lachute","region":"","country":"CA","tier":"standard","source":"OSM (Canada)"}},{"type":"Feature","geometry":{"type":"Point","coordinates":[-74.2840535,45.6387891]},"properties":{"name":"Soci\u00e9t\u00e9 Laurentide","activities":"factory","city":"Lachute","region":"","country":"CA","tier":"standard","source":"OSM (Canada)"}},{"type":"Feature","geometry":{"type":"Point","coordinates":[-74.3162518,45.6395369]},"properties":{"name":"Ice River Springs Water Company","activities":"factory","city":"Lachute","region":"","country":"CA","tier":"standard","source":"OSM (Canada)"}},{"type":"Feature","geometry":{"type":"Point","coordinates":[-65.738843,49.2341205]},"properties":{"name":"Cusimer","activities":"fish","city":"Saint-Maxime-du-Mont-Louis","region":"","country":"CA","tier":"standard","source":"OSM (Canada)"}},{"type":"Feature","geometry":{"type":"Point","coordinates":[-105.0622394,69.1168038]},"properties":{"name":"Kitikmeot Foods","activities":"fish","city":"","region":"","country":"CA","tier":"standard","source":"OSM (Canada)"}},{"type":"Feature","geometry":{"type":"Point","coordinates":[-75.609031,45.4949689]},"properties":{"name":"La Soyarie","activities":"food","city":"","region":"","country":"CA","tier":"standard","source":"OSM (Canada)"}},{"type":"Feature","geometry":{"type":"Point","coordinates":[-64.3942489,48.4189299]},"properties":{"name":"Food production facility","activities":"food","city":"","region":"","country":"CA","tier":"standard","source":"OSM (Canada)"}},{"type":"Feature","geometry":{"type":"Point","coordinates":[-64.3945304,48.4193659]},"properties":{"name":"Food production facility","activities":"food","city":"","region":"","country":"CA","tier":"standard","source":"OSM (Canada)"}},{"type":"Feature","geometry":{"type":"Point","coordinates":[-111.170968,53.3340616]},"properties":{"name":"Baba Jenny's Ukrainian Foods","activities":"food","city":"","region":"","country":"CA","tier":"standard","source":"OSM (Canada)"}},{"type":"Feature","geometry":{"type":"Point","coordinates":[-96.6885463,49.6024345]},"properties":{"name":"Granny's Poultry","activities":"slaughterhouse","city":"","region":"","country":"CA","tier":"major","source":"OSM (Canada)"}},{"type":"Feature","geometry":{"type":"Point","coordinates":[-112.7823589,49.7447195]},"properties":{"name":"Cavendish Farms - Lethbridge","activities":"food","city":"Lethbridge","region":"","country":"CA","tier":"standard","source":"OSM (Canada)"}},{"type":"Feature","geometry":{"type":"Point","coordinates":[-74.8982781,45.6369624]},"properties":{"name":"Abattoir Lefaivre Meat & Slaughterhouse","activities":"slaughterhouse","city":"","region":"","country":"CA","tier":"major","source":"OSM (Canada)"}},{"type":"Feature","geometry":{"type":"Point","coordinates":[-73.1936537,45.1448003]},"properties":{"name":"F. Menard","activities":"slaughterhouse","city":"","region":"","country":"CA","tier":"major","source":"OSM (Canada)"}},{"type":"Feature","geometry":{"type":"Point","coordinates":[-113.3627187,49.7289392]},"properties":{"name":"Bouvry Exports","activities":"slaughterhouse","city":"","region":"","country":"CA","tier":"major","source":"OSM (Canada)"}},{"type":"Feature","geometry":{"type":"Point","coordinates":[-99.8530325,49.8324449]},"properties":{"name":"Canada Packers","activities":"slaughterhouse","city":"","region":"","country":"CA","tier":"major","source":"OSM (Canada)"}},{"type":"Feature","geometry":{"type":"Point","coordinates":[-70.8877273,46.1297277]},"properties":{"name":"Les Produits De L'Erable Bolduc Et Fils","activities":"food","city":"Saint-Victor","region":"","country":"CA","tier":"standard","source":"OSM (Canada)"}},{"type":"Feature","geometry":{"type":"Point","coordinates":[-113.9426595,50.9674444]},"properties":{"name":"Food production facility","activities":"meat","city":"","region":"","country":"CA","tier":"standard","source":"OSM (Canada)"}},{"type":"Feature","geometry":{"type":"Point","coordinates":[-72.8008369,46.2884251]},"properties":{"name":"Food production facility","activities":"slaughterhouse","city":"","region":"","country":"CA","tier":"major","source":"OSM (Canada)"}},{"type":"Feature","geometry":{"type":"Point","coordinates":[-98.2552911,49.9557178]},"properties":{"name":"Prairie Abattoir","activities":"slaughterhouse","city":"Portage la Prairie","region":"","country":"CA","tier":"major","source":"OSM (Canada)"}},{"type":"Feature","geometry":{"type":"Point","coordinates":[-68.6251209,47.539833]},"properties":{"name":"The Maple Treat Corporation","activities":"food","city":"","region":"","country":"CA","tier":"standard","source":"OSM (Canada)"}},{"type":"Feature","geometry":{"type":"Point","coordinates":[-69.6270056,47.6838697]},"properties":{"name":"Aliments ASTA","activities":"slaughterhouse","city":"Saint-Alexandre-de-Kamouraska","region":"","country":"CA","tier":"major","source":"OSM (Canada)"}},{"type":"Feature","geometry":{"type":"Point","coordinates":[-98.2705866,49.9868771]},"properties":{"name":"NutriPea","activities":"food","city":"Portage la Prairie","region":"","country":"CA","tier":"standard","source":"OSM (Canada)"}},{"type":"Feature","geometry":{"type":"Point","coordinates":[-111.9337205,50.6198325]},"properties":{"name":"JBS Food Canada","activities":"slaughterhouse","city":"County of Newell","region":"","country":"CA","tier":"major","source":"OSM (Canada)"}},{"type":"Feature","geometry":{"type":"Point","coordinates":[-51.8237318,68.634891]},"properties":{"name":"Food production facility","activities":"fish","city":"Aasiaat","region":"","country":"GL","tier":"standard","source":"OSM (Greenland)"}},{"type":"Feature","geometry":{"type":"Point","coordinates":[-15.9484385,66.4569366]},"properties":{"name":"G.P.G","activities":"fish","city":"","region":"","country":"IS","tier":"standard","source":"OSM (Iceland)"}},{"type":"Feature","geometry":{"type":"Point","coordinates":[-19.6490569,65.7585775]},"properties":{"name":"Kj\u00f6tafur\u00f0ast\u00f6\u00f0 KS","activities":"slaughterhouse","city":"Sau\u00f0\u00e1rkr\u00f3kur","region":"","country":"IS","tier":"major","source":"OSM (Iceland)"}},{"type":"Feature","geometry":{"type":"Point","coordinates":[-21.6824395,64.1609139]},"properties":{"name":"\u00cdsfugl","activities":"slaughterhouse","city":"","region":"","country":"IS","tier":"major","source":"OSM (Iceland)"}},{"type":"Feature","geometry":{"type":"Point","coordinates":[-21.0105821,63.9442935]},"properties":{"name":"Sl\u00e1turf\u00e9lag Su\u00f0urlands","activities":"slaughterhouse","city":"Selfoss","region":"","country":"IS","tier":"major","source":"OSM (Iceland)"}},{"type":"Feature","geometry":{"type":"Point","coordinates":[-22.3931895,63.9728171]},"properties":{"name":"Vogav\u00edk - fiskeldi","activities":"food","city":"Vogar, dreifb\u00fdli","region":"","country":"IS","tier":"standard","source":"OSM (Iceland)"}},{"type":"Feature","geometry":{"type":"Point","coordinates":[-20.4051094,63.8331551]},"properties":{"name":"Food production facility","activities":"slaughterhouse","city":"","region":"","country":"IS","tier":"major","source":"OSM (Iceland)"}},{"type":"Feature","geometry":{"type":"Point","coordinates":[-18.1557368,65.699643]},"properties":{"name":"Food production facility","activities":"slaughterhouse","city":"Akureyri, dreifb\u00fdli","region":"","country":"IS","tier":"major","source":"OSM (Iceland)"}},{"type":"Feature","geometry":{"type":"Point","coordinates":[-22.3930006,63.9738779]},"properties":{"name":"Food production facility","activities":"slaughterhouse","city":"","region":"","country":"IS","tier":"major","source":"OSM (Iceland)"}},{"type":"Feature","geometry":{"type":"Point","coordinates":[-18.0878324,65.743255]},"properties":{"name":"Food production facility","activities":"slaughterhouse","city":"","region":"","country":"IS","tier":"major","source":"OSM (Iceland)"}},{"type":"Feature","geometry":{"type":"Point","coordinates":[-18.0875165,65.7430701]},"properties":{"name":"Food production facility","activities":"slaughterhouse","city":"","region":"","country":"IS","tier":"major","source":"OSM (Iceland)"}},{"type":"Feature","geometry":{"type":"Point","coordinates":[-18.0869578,65.7431119]},"properties":{"name":"Food production facility","activities":"slaughterhouse","city":"","region":"","country":"IS","tier":"major","source":"OSM (Iceland)"}},{"type":"Feature","geometry":{"type":"Point","coordinates":[-18.087269,65.7431644]},"properties":{"name":"Food production facility","activities":"slaughterhouse","city":"","region":"","country":"IS","tier":"major","source":"OSM (Iceland)"}},{"type":"Feature","geometry":{"type":"Point","coordinates":[-18.0868494,65.7430777]},"properties":{"name":"Food production facility","activities":"slaughterhouse","city":"","region":"","country":"IS","tier":"major","source":"OSM (Iceland)"}},{"type":"Feature","geometry":{"type":"Point","coordinates":[-18.0869975,65.7429099]},"properties":{"name":"Food production facility","activities":"slaughterhouse","city":"","region":"","country":"IS","tier":"major","source":"OSM (Iceland)"}},{"type":"Feature","geometry":{"type":"Point","coordinates":[-18.0871233,65.7428466]},"properties":{"name":"Food production facility","activities":"slaughterhouse","city":"","region":"","country":"IS","tier":"major","source":"OSM (Iceland)"}},{"type":"Feature","geometry":{"type":"Point","coordinates":[-18.0865381,65.7427634]},"properties":{"name":"Food production facility","activities":"slaughterhouse","city":"","region":"","country":"IS","tier":"major","source":"OSM (Iceland)"}},{"type":"Feature","geometry":{"type":"Point","coordinates":[-18.0867858,65.7429369]},"properties":{"name":"Food production facility","activities":"slaughterhouse","city":"","region":"","country":"IS","tier":"major","source":"OSM (Iceland)"}},{"type":"Feature","geometry":{"type":"Point","coordinates":[-18.0864268,65.7429892]},"properties":{"name":"Food production facility","activities":"slaughterhouse","city":"","region":"","country":"IS","tier":"major","source":"OSM (Iceland)"}}]}