{"type":"FeatureCollection","name":"military","metadata":{"generated":"2026-05-19T17:51:47Z","source":"OpenStreetMap via Overpass API (military=*, named features)","clipped_to":"scenario.geojson land polygons (Ocean excluded)","count":355},"features":[{"type":"Feature","geometry":{"type":"Point","coordinates":[-162.0625,58.6463889]},"properties":{"name":"Cape Newenham Long Range Radar Station","kind":"airfield","operator":"","country":"US","tier":"major","source":"OSM (United States)","osm_id":"node/369143880"}},{"type":"Feature","geometry":{"type":"Point","coordinates":[-166.1006123,68.8738516]},"properties":{"name":"Cape Lisburne LRRS Airport","kind":"airfield","operator":"","country":"US","tier":"major","source":"OSM (United States)","osm_id":"node/369143895"}},{"type":"Feature","geometry":{"type":"Point","coordinates":[-147.099444,64.6644444]},"properties":{"name":"Eielson Air Force Base","kind":"airfield","operator":"","country":"US","tier":"major","source":"OSM (United States)","osm_id":"node/369144410"}},{"type":"Feature","geometry":{"type":"Point","coordinates":[-147.5665086,64.4513838]},"properties":{"name":"Clear Creek Airport","kind":"airfield","operator":"","country":"US","tier":"major","source":"OSM (United States)","osm_id":"node/369144412"}},{"type":"Feature","geometry":{"type":"Point","coordinates":[-147.616666,64.8363889]},"properties":{"name":"Ladd Army Airfield","kind":"airfield","operator":"","country":"US","tier":"major","source":"OSM (United States)","osm_id":"node/369144448"}},{"type":"Feature","geometry":{"type":"Point","coordinates":[-147.3633647,64.3624697]},"properties":{"name":"Blair Lake Airport","kind":"airfield","operator":"","country":"US","tier":"major","source":"OSM (United States)","osm_id":"node/369144449"}},{"type":"Feature","geometry":{"type":"Point","coordinates":[-153.242845,70.9103076]},"properties":{"name":"Lonely Air Station","kind":"airfield","operator":"","country":"US","tier":"major","source":"OSM (United States)","osm_id":"node/369144685"}},{"type":"Feature","geometry":{"type":"Point","coordinates":[-161.2812,65.4021]},"properties":{"name":"Granite Mountain Air Station","kind":"airfield","operator":"U.S. Government","country":"US","tier":"major","source":"OSM (United States)","osm_id":"node/387130448"}},{"type":"Feature","geometry":{"type":"Point","coordinates":[-156.638018,71.3386044]},"properties":{"name":"Pt. Barrow Airfield","kind":"airfield","operator":"","country":"US","tier":"major","source":"OSM (United States)","osm_id":"node/846358981"}},{"type":"Feature","geometry":{"type":"Point","coordinates":[-149.652999,61.2663994]},"properties":{"name":"Bryant Army Airfield","kind":"airfield","operator":"","country":"US","tier":"major","source":"OSM (United States)","osm_id":"node/1042053940"}},{"type":"Feature","geometry":{"type":"Point","coordinates":[-149.7783555,61.2305856]},"properties":{"name":"Boniface Gate","kind":"checkpoint","operator":"","country":"US","tier":"standard","source":"OSM (United States)","osm_id":"node/1726117325"}},{"type":"Feature","geometry":{"type":"Point","coordinates":[-105.4922256,44.281326]},"properties":{"name":"Armed Forces Career Center","kind":"office","operator":"","country":"US","tier":"major","source":"OSM (United States)","osm_id":"node/4876824558"}},{"type":"Feature","geometry":{"type":"Point","coordinates":[-134.618475,58.3706888]},"properties":{"name":"U.S. Coast Guard","kind":"office","operator":"","country":"US","tier":"standard","source":"OSM (United States)","osm_id":"node/7928117671"}},{"type":"Feature","geometry":{"type":"Point","coordinates":[-161.9044863,70.2941294]},"properties":{"name":"Icy Cape Air Force Station","kind":"airfield","operator":"","country":"US","tier":"major","source":"OSM (United States)","osm_id":"node/8251072636"}},{"type":"Feature","geometry":{"type":"Point","coordinates":[-152.4052141,57.7879841]},"properties":{"name":"U.S. Coast Guard - Marine Safety Detachment Kodiak","kind":"office","operator":"","country":"US","tier":"standard","source":"OSM (United States)","osm_id":"node/8272367978"}},{"type":"Feature","geometry":{"type":"Point","coordinates":[-134.6498282,58.3832869]},"properties":{"name":"USCGC Liberty","kind":"naval_base","operator":"","country":"US","tier":"major","source":"OSM (United States)","osm_id":"node/8280985962"}},{"type":"Feature","geometry":{"type":"Point","coordinates":[-131.664104,55.347063]},"properties":{"name":"U.S. Coast Guard","kind":"office","operator":"","country":"US","tier":"standard","source":"OSM (United States)","osm_id":"node/8295182253"}},{"type":"Feature","geometry":{"type":"Point","coordinates":[-84.771979,44.634916]},"properties":{"name":"Camp Grayling Main Gate","kind":"checkpoint","operator":"","country":"US","tier":"standard","source":"OSM (United States)","osm_id":"node/9050015810"}},{"type":"Feature","geometry":{"type":"Point","coordinates":[-84.8054185,44.6227805]},"properties":{"name":"Camp Grayling Checkpoint","kind":"checkpoint","operator":"","country":"US","tier":"standard","source":"OSM (United States)","osm_id":"node/9050016276"}},{"type":"Feature","geometry":{"type":"Point","coordinates":[-84.7733425,44.6145749]},"properties":{"name":"Camp Grayling Checkpoint","kind":"checkpoint","operator":"","country":"US","tier":"standard","source":"OSM (United States)","osm_id":"node/9050016536"}},{"type":"Feature","geometry":{"type":"Point","coordinates":[-149.8814465,61.145636]},"properties":{"name":"Army/Navy Recruiting","kind":"office","operator":"","country":"US","tier":"major","source":"OSM (United States)","osm_id":"node/11115524721"}},{"type":"Feature","geometry":{"type":"Point","coordinates":[-156.7818606,71.2911821]},"properties":{"name":"Alaska Army National Guard","kind":"office","operator":"","country":"US","tier":"standard","source":"OSM (United States)","osm_id":"node/11128991030"}},{"type":"Feature","geometry":{"type":"Point","coordinates":[-85.6382641,44.7256108]},"properties":{"name":"Armed Forces Career Center","kind":"office","operator":"","country":"US","tier":"major","source":"OSM (United States)","osm_id":"node/11294625970"}},{"type":"Feature","geometry":{"type":"Point","coordinates":[-149.7486167,61.231526]},"properties":{"name":"Muldoon Road Gate","kind":"checkpoint","operator":"","country":"US","tier":"standard","source":"OSM (United States)","osm_id":"node/11296646311"}},{"type":"Feature","geometry":{"type":"Point","coordinates":[-149.7486188,61.2314539]},"properties":{"name":"Muldoon Road Gate","kind":"checkpoint","operator":"","country":"US","tier":"standard","source":"OSM (United States)","osm_id":"node/11296646312"}},{"type":"Feature","geometry":{"type":"Point","coordinates":[-84.2229201,44.2712597]},"properties":{"name":"U.S. Army Recruiting Station","kind":"office","operator":"","country":"US","tier":"major","source":"OSM (United States)","osm_id":"node/11397056475"}},{"type":"Feature","geometry":{"type":"Point","coordinates":[-83.4711195,45.0623828]},"properties":{"name":"Armed Forces Career Center","kind":"office","operator":"","country":"US","tier":"major","source":"OSM (United States)","osm_id":"node/11537615356"}},{"type":"Feature","geometry":{"type":"Point","coordinates":[-149.7427048,61.2263479]},"properties":{"name":"US Military Recruiting Office","kind":"office","operator":"","country":"US","tier":"major","source":"OSM (United States)","osm_id":"node/13457077869"}},{"type":"Feature","geometry":{"type":"Point","coordinates":[-150.0187542,61.2030561]},"properties":{"name":"Nike-Hercules - Site Point","kind":"bunker","operator":"","country":"US","tier":"standard","source":"OSM (United States)","osm_id":"node/13829833872"}},{"type":"Feature","geometry":{"type":"Point","coordinates":[-149.6385135,61.2703049]},"properties":{"name":"Alaska Army National Guard Armory","kind":"office","operator":"","country":"US","tier":"standard","source":"OSM (United States)","osm_id":"way/28558921"}},{"type":"Feature","geometry":{"type":"Point","coordinates":[-149.8109427,61.2443208]},"properties":{"name":"Alaskan Command","kind":"office","operator":"","country":"US","tier":"major","source":"OSM (United States)","osm_id":"way/28579186"}},{"type":"Feature","geometry":{"type":"Point","coordinates":[-149.8108882,61.246412]},"properties":{"name":"673 ABW HQ","kind":"office","operator":"","country":"US","tier":"major","source":"OSM (United States)","osm_id":"way/28579198"}},{"type":"Feature","geometry":{"type":"Point","coordinates":[-149.8092631,61.2471671]},"properties":{"name":"Contracting, Public Affairs, 673 ABW/XP","kind":"office","operator":"","country":"US","tier":"major","source":"OSM (United States)","osm_id":"way/28579207"}},{"type":"Feature","geometry":{"type":"Point","coordinates":[-149.8084971,61.2485987]},"properties":{"name":"3rd Wing Advanced Programs","kind":"office","operator":"","country":"US","tier":"major","source":"OSM (United States)","osm_id":"way/28579270"}},{"type":"Feature","geometry":{"type":"Point","coordinates":[-134.645413,58.3899457]},"properties":{"name":"Alaska National Guard","kind":"office","operator":"","country":"US","tier":"standard","source":"OSM (United States)","osm_id":"way/44334948"}},{"type":"Feature","geometry":{"type":"Point","coordinates":[-149.8450763,61.2646786]},"properties":{"name":"Alaskan Mission Operations Center","kind":"office","operator":"National Security Agency","country":"US","tier":"major","source":"OSM (United States)","osm_id":"way/94159694"}},{"type":"Feature","geometry":{"type":"Point","coordinates":[-151.5439845,59.6459901]},"properties":{"name":"US Coast Guard","kind":"office","operator":"","country":"US","tier":"standard","source":"OSM (United States)","osm_id":"way/161871822"}},{"type":"Feature","geometry":{"type":"Point","coordinates":[-86.2442424,44.6300258]},"properties":{"name":"U.S. Coast Guard Station","kind":"office","operator":"","country":"US","tier":"standard","source":"OSM (United States)","osm_id":"way/192441294"}},{"type":"Feature","geometry":{"type":"Point","coordinates":[-159.8641192,70.6138459]},"properties":{"name":"Wainwright AFS Airport","kind":"airfield","operator":"","country":"US","tier":"major","source":"OSM (United States)","osm_id":"way/202207519"}},{"type":"Feature","geometry":{"type":"Point","coordinates":[-166.0387608,61.7812471]},"properties":{"name":"Cape Romanzof Long Range Radar Site Airport","kind":"airfield","operator":"","country":"US","tier":"major","source":"OSM (United States)","osm_id":"way/203511219"}},{"type":"Feature","geometry":{"type":"Point","coordinates":[-166.1510996,68.8704005]},"properties":{"name":"Cape Lisburne Top Camp","kind":"radar","operator":"","country":"US","tier":"major","source":"OSM (United States)","osm_id":"way/248360226"}},{"type":"Feature","geometry":{"type":"Point","coordinates":[-167.9224086,65.5639463]},"properties":{"name":"Tin City LRRS Airport","kind":"airfield","operator":"","country":"US","tier":"major","source":"OSM (United States)","osm_id":"way/248545951"}},{"type":"Feature","geometry":{"type":"Point","coordinates":[-146.8441869,70.1709294]},"properties":{"name":"Bullen Point Air Force Station Airport","kind":"airfield","operator":"","country":"US","tier":"major","source":"OSM (United States)","osm_id":"way/253576699"}},{"type":"Feature","geometry":{"type":"Point","coordinates":[-147.0972188,64.6745861]},"properties":{"name":"353d Combat Training Squadron","kind":"office","operator":"","country":"US","tier":"major","source":"OSM (United States)","osm_id":"way/291267181"}},{"type":"Feature","geometry":{"type":"Point","coordinates":[-147.0968735,64.6764714]},"properties":{"name":"RED FLAG-Alaska","kind":"office","operator":"","country":"US","tier":"major","source":"OSM (United States)","osm_id":"way/291267183"}},{"type":"Feature","geometry":{"type":"Point","coordinates":[-100.6588285,47.8505925]},"properties":{"name":"Launch Facility A-08","kind":"bunker","operator":"740th Missile Squadron","country":"US","tier":"standard","source":"OSM (United States)","osm_id":"way/363400626"}},{"type":"Feature","geometry":{"type":"Point","coordinates":[-100.798783,47.8614541]},"properties":{"name":"Launch Facility B-06","kind":"bunker","operator":"740th Missile Squadron","country":"US","tier":"standard","source":"OSM (United States)","osm_id":"way/363400654"}},{"type":"Feature","geometry":{"type":"Point","coordinates":[-83.4312416,45.0616685]},"properties":{"name":"U.S. Coast Guard Station","kind":"office","operator":"","country":"US","tier":"standard","source":"OSM (United States)","osm_id":"way/493151202"}},{"type":"Feature","geometry":{"type":"Point","coordinates":[-155.5746429,61.0960841]},"properties":{"name":"Sparrevohn LRRS Airport","kind":"airfield","operator":"","country":"US","tier":"major","source":"OSM (United States)","osm_id":"way/504184743"}},{"type":"Feature","geometry":{"type":"Point","coordinates":[-155.9781676,62.8946766]},"properties":{"name":"Tatalina Long Range Radar Site Airport","kind":"airfield","operator":"","country":"US","tier":"major","source":"OSM (United States)","osm_id":"way/504193527"}},{"type":"Feature","geometry":{"type":"Point","coordinates":[-153.7045819,65.9928501]},"properties":{"name":"Indian Mountain Long Range Radar Site Airport","kind":"airfield","operator":"","country":"US","tier":"major","source":"OSM (United States)","osm_id":"way/504333267"}},{"type":"Feature","geometry":{"type":"Point","coordinates":[-145.7191384,63.9966891]},"properties":{"name":"Allen Army Air Field","kind":"airfield","operator":"United States Army","country":"US","tier":"major","source":"OSM (United States)","osm_id":"way/504409539"}},{"type":"Feature","geometry":{"type":"Point","coordinates":[-156.819969,64.4164345]},"properties":{"name":"Kalakaket Creek Air Station Airport","kind":"airfield","operator":"United States Air Force","country":"US","tier":"major","source":"OSM (United States)","osm_id":"way/507869214"}},{"type":"Feature","geometry":{"type":"Point","coordinates":[-162.6913635,55.2764095]},"properties":{"name":"North Swan Lake Bunker","kind":"bunker","operator":"","country":"US","tier":"standard","source":"OSM (United States)","osm_id":"way/541660243"}},{"type":"Feature","geometry":{"type":"Point","coordinates":[-162.725408,55.1948793]},"properties":{"name":"Air Rescue & Fire Fighting Training","kind":"training_area","operator":"","country":"US","tier":"limited","source":"OSM (United States)","osm_id":"way/542001414"}},{"type":"Feature","geometry":{"type":"Point","coordinates":[-162.7093643,55.2007531]},"properties":{"name":"Gun","kind":"bunker","operator":"","country":"US","tier":"standard","source":"OSM (United States)","osm_id":"way/542515073"}},{"type":"Feature","geometry":{"type":"Point","coordinates":[-177.2008703,51.7151829]},"properties":{"name":"Canon Mount","kind":"bunker","operator":"","country":"US","tier":"standard","source":"OSM (United States)","osm_id":"way/542875828"}},{"type":"Feature","geometry":{"type":"Point","coordinates":[-177.2009462,51.7149549]},"properties":{"name":"Gun Mount","kind":"bunker","operator":"","country":"US","tier":"standard","source":"OSM (United States)","osm_id":"way/542875830"}},{"type":"Feature","geometry":{"type":"Point","coordinates":[-177.1990879,51.7148671]},"properties":{"name":"Gun Mount","kind":"bunker","operator":"","country":"US","tier":"standard","source":"OSM (United States)","osm_id":"way/542876729"}},{"type":"Feature","geometry":{"type":"Point","coordinates":[-177.1992544,51.7149586]},"properties":{"name":"Gun Mount","kind":"bunker","operator":"","country":"US","tier":"standard","source":"OSM (United States)","osm_id":"way/542876730"}},{"type":"Feature","geometry":{"type":"Point","coordinates":[-177.1984032,51.7153039]},"properties":{"name":"Gun Mount","kind":"bunker","operator":"","country":"US","tier":"standard","source":"OSM (United States)","osm_id":"way/542877104"}},{"type":"Feature","geometry":{"type":"Point","coordinates":[-177.1984776,51.7154168]},"properties":{"name":"Gun Mount","kind":"bunker","operator":"","country":"US","tier":"standard","source":"OSM (United States)","osm_id":"way/542877105"}},{"type":"Feature","geometry":{"type":"Point","coordinates":[-177.197795,51.7171087]},"properties":{"name":"Outlook Area","kind":"bunker","operator":"","country":"US","tier":"standard","source":"OSM (United States)","osm_id":"way/542877454"}},{"type":"Feature","geometry":{"type":"Point","coordinates":[-162.7147332,55.2085941]},"properties":{"name":"USFWS Bunk House","kind":"barracks","operator":"","country":"US","tier":"standard","source":"OSM (United States)","osm_id":"way/543221974"}},{"type":"Feature","geometry":{"type":"Point","coordinates":[-162.9147691,55.1806714]},"properties":{"name":"Gun Mount","kind":"bunker","operator":"","country":"US","tier":"standard","source":"OSM (United States)","osm_id":"way/546744026"}},{"type":"Feature","geometry":{"type":"Point","coordinates":[-162.7375866,55.1741617]},"properties":{"name":"Rod & Gun Club Rifle Range","kind":"training_area","operator":"","country":"US","tier":"limited","source":"OSM (United States)","osm_id":"way/548612444"}},{"type":"Feature","geometry":{"type":"Point","coordinates":[-162.9346718,55.0459585]},"properties":{"name":"World War II Military Bunker","kind":"bunker","operator":"","country":"US","tier":"standard","source":"OSM (United States)","osm_id":"way/549062084"}},{"type":"Feature","geometry":{"type":"Point","coordinates":[-149.8001508,61.248433]},"properties":{"name":"3rd Wing Headquarters","kind":"office","operator":"","country":"US","tier":"major","source":"OSM (United States)","osm_id":"way/607996475"}},{"type":"Feature","geometry":{"type":"Point","coordinates":[-149.801264,61.2487208]},"properties":{"name":"3rd Maintenance Squadron","kind":"office","operator":"","country":"US","tier":"major","source":"OSM (United States)","osm_id":"way/607996476"}},{"type":"Feature","geometry":{"type":"Point","coordinates":[-149.8002568,61.2442163]},"properties":{"name":"RED FLAG-Alaska","kind":"office","operator":"","country":"US","tier":"major","source":"OSM (United States)","osm_id":"way/607996491"}},{"type":"Feature","geometry":{"type":"Point","coordinates":[-149.8098814,61.2432379]},"properties":{"name":"Canadian Detachment JBER","kind":"office","operator":"","country":"US","tier":"major","source":"OSM (United States)","osm_id":"way/607996500"}},{"type":"Feature","geometry":{"type":"Point","coordinates":[-149.8433008,61.2367622]},"properties":{"name":"673rd Communication Squadron","kind":"office","operator":"","country":"US","tier":"major","source":"OSM (United States)","osm_id":"way/607999319"}},{"type":"Feature","geometry":{"type":"Point","coordinates":[-134.6450412,58.3896269]},"properties":{"name":"Alaska National Guard","kind":"office","operator":"","country":"US","tier":"standard","source":"OSM (United States)","osm_id":"way/648902639"}},{"type":"Feature","geometry":{"type":"Point","coordinates":[-134.6456366,58.3836452]},"properties":{"name":"USCGC LIBERTY","kind":"office","operator":"","country":"US","tier":"major","source":"OSM (United States)","osm_id":"way/648902640"}},{"type":"Feature","geometry":{"type":"Point","coordinates":[-171.7300835,63.7783326]},"properties":{"name":"Alaska Army National Guard","kind":"office","operator":"","country":"US","tier":"standard","source":"OSM (United States)","osm_id":"way/649505724"}},{"type":"Feature","geometry":{"type":"Point","coordinates":[-162.2931288,55.0977339]},"properties":{"name":"KC Gun Hut","kind":"training_area","operator":"","country":"US","tier":"limited","source":"OSM (United States)","osm_id":"way/697074695"}},{"type":"Feature","geometry":{"type":"Point","coordinates":[-84.8257185,44.589105]},"properties":{"name":"Artillery Range","kind":"danger_area","operator":"","country":"US","tier":"limited","source":"OSM (United States)","osm_id":"way/715082192"}},{"type":"Feature","geometry":{"type":"Point","coordinates":[-84.4662118,45.6523049]},"properties":{"name":"U.S. Coast Guard","kind":"office","operator":"","country":"US","tier":"standard","source":"OSM (United States)","osm_id":"way/803528297"}},{"type":"Feature","geometry":{"type":"Point","coordinates":[-84.4664653,45.6523402]},"properties":{"name":"U.S. Coast Guard","kind":"office","operator":"","country":"US","tier":"standard","source":"OSM (United States)","osm_id":"way/803528298"}},{"type":"Feature","geometry":{"type":"Point","coordinates":[-166.8730382,65.2589466]},"properties":{"name":"Port Clarence Coast Guard Station","kind":"airfield","operator":"","country":"US","tier":"major","source":"OSM (United States)","osm_id":"way/826543873"}},{"type":"Feature","geometry":{"type":"Point","coordinates":[-86.3414255,44.2502854]},"properties":{"name":"U.S. Coast Guard Station","kind":"office","operator":"","country":"US","tier":"standard","source":"OSM (United States)","osm_id":"way/836426862"}},{"type":"Feature","geometry":{"type":"Point","coordinates":[-86.4597178,43.9529019]},"properties":{"name":"U.S. Coast Guard Station","kind":"office","operator":"","country":"US","tier":"standard","source":"OSM (United States)","osm_id":"way/836532451"}},{"type":"Feature","geometry":{"type":"Point","coordinates":[-85.2456853,45.3163097]},"properties":{"name":"U.S. Coast Guard Station","kind":"office","operator":"","country":"US","tier":"standard","source":"OSM (United States)","osm_id":"way/840938354"}},{"type":"Feature","geometry":{"type":"Point","coordinates":[-82.6516433,43.8562922]},"properties":{"name":"U.S. Coast Guard Station","kind":"office","operator":"","country":"US","tier":"standard","source":"OSM (United States)","osm_id":"way/842500935"}},{"type":"Feature","geometry":{"type":"Point","coordinates":[-147.0925692,64.6743773]},"properties":{"name":"Amber Hall","kind":"office","operator":"","country":"US","tier":"major","source":"OSM (United States)","osm_id":"way/871438959"}},{"type":"Feature","geometry":{"type":"Point","coordinates":[-149.4327131,60.1210581]},"properties":{"name":"USCGC MUSTANG","kind":"office","operator":"","country":"US","tier":"major","source":"OSM (United States)","osm_id":"way/890144767"}},{"type":"Feature","geometry":{"type":"Point","coordinates":[-146.3716364,61.1376362]},"properties":{"name":"USCG","kind":"office","operator":"","country":"US","tier":"major","source":"OSM (United States)","osm_id":"way/890766873"}},{"type":"Feature","geometry":{"type":"Point","coordinates":[-146.3712966,61.1374216]},"properties":{"name":"SFO Valdez","kind":"office","operator":"","country":"US","tier":"major","source":"OSM (United States)","osm_id":"way/890766874"}},{"type":"Feature","geometry":{"type":"Point","coordinates":[-149.6393049,61.2691207]},"properties":{"name":"Captain of the Port","kind":"office","operator":"","country":"US","tier":"major","source":"OSM (United States)","osm_id":"way/890847457"}},{"type":"Feature","geometry":{"type":"Point","coordinates":[-149.1460273,61.5661477]},"properties":{"name":"American Legion Post 15","kind":"office","operator":"","country":"US","tier":"major","source":"OSM (United States)","osm_id":"way/934498131"}},{"type":"Feature","geometry":{"type":"Point","coordinates":[-84.729576,44.681108]},"properties":{"name":"Grayling Army Airfield","kind":"airfield","operator":"","country":"US","tier":"major","source":"OSM (United States)","osm_id":"way/935614925"}},{"type":"Feature","geometry":{"type":"Point","coordinates":[-84.5690137,44.8352042]},"properties":{"name":"North Impact Area 40","kind":"danger_area","operator":"","country":"US","tier":"limited","source":"OSM (United States)","osm_id":"way/935617709"}},{"type":"Feature","geometry":{"type":"Point","coordinates":[-147.005691,64.6523117]},"properties":{"name":"Combat Arms Training Facility","kind":"range","operator":"","country":"US","tier":"limited","source":"OSM (United States)","osm_id":"way/967106014"}},{"type":"Feature","geometry":{"type":"Point","coordinates":[-147.0821894,64.6614282]},"properties":{"name":"F-35 Simulator Building","kind":"office","operator":"","country":"US","tier":"major","source":"OSM (United States)","osm_id":"way/967129836"}},{"type":"Feature","geometry":{"type":"Point","coordinates":[-149.8537077,61.2380912]},"properties":{"name":"Elmendorf PME Center of Excellence","kind":"office","operator":"","country":"US","tier":"major","source":"OSM (United States)","osm_id":"way/974186257"}},{"type":"Feature","geometry":{"type":"Point","coordinates":[-149.847437,61.229395]},"properties":{"name":"U.S. Army Corps of Engineers Alaska District","kind":"office","operator":"","country":"US","tier":"major","source":"OSM (United States)","osm_id":"way/992510874"}},{"type":"Feature","geometry":{"type":"Point","coordinates":[-149.8222795,61.2334045]},"properties":{"name":"JBER commercial vehicle inspection area","kind":"checkpoint","operator":"","country":"US","tier":"standard","source":"OSM (United States)","osm_id":"way/1044388935"}},{"type":"Feature","geometry":{"type":"Point","coordinates":[-155.2597646,59.3623614]},"properties":{"name":"Big Mountain Airport","kind":"airfield","operator":"","country":"US","tier":"major","source":"OSM (United States)","osm_id":"way/1095052775"}},{"type":"Feature","geometry":{"type":"Point","coordinates":[-84.4857801,45.635997]},"properties":{"name":"Cheboygan Armory","kind":"office","operator":"","country":"US","tier":"major","source":"OSM (United States)","osm_id":"way/1186199968"}},{"type":"Feature","geometry":{"type":"Point","coordinates":[-83.5691373,45.0712141]},"properties":{"name":"Alpena Combat Readiness Training Center (CRTC)","kind":"checkpoint","operator":"Alpena Combat Readiness Training Center (CRTC)","country":"US","tier":"standard","source":"OSM (United States)","osm_id":"way/1263813323"}},{"type":"Feature","geometry":{"type":"Point","coordinates":[-152.3589421,57.8328287]},"properties":{"name":"War Reserve Magazine","kind":"bunker","operator":"","country":"US","tier":"standard","source":"OSM (United States)","osm_id":"way/1283592470"}},{"type":"Feature","geometry":{"type":"Point","coordinates":[-149.5472858,61.2467377]},"properties":{"name":"Missile Warhead Magazine","kind":"bunker","operator":"","country":"US","tier":"standard","source":"OSM (United States)","osm_id":"way/1311085986"}},{"type":"Feature","geometry":{"type":"Point","coordinates":[-149.885994,61.4067307]},"properties":{"name":"Missle Launch & Control","kind":"bunker","operator":"","country":"US","tier":"standard","source":"OSM (United States)","osm_id":"way/1312076564"}},{"type":"Feature","geometry":{"type":"Point","coordinates":[-149.883711,61.4067302]},"properties":{"name":"Missle Launch & Control","kind":"bunker","operator":"","country":"US","tier":"standard","source":"OSM (United States)","osm_id":"way/1312076565"}},{"type":"Feature","geometry":{"type":"Point","coordinates":[-97.6052434,42.8702976]},"properties":{"name":"Challenge Valley","kind":"obstacle_course","operator":"","country":"US","tier":"major","source":"OSM (United States)","osm_id":"way/1314714697"}},{"type":"Feature","geometry":{"type":"Point","coordinates":[-149.6957273,61.2127625]},"properties":{"name":"Afghan Village","kind":"training_area","operator":"","country":"US","tier":"limited","source":"OSM (United States)","osm_id":"way/1316823016"}},{"type":"Feature","geometry":{"type":"Point","coordinates":[-156.6353678,71.3273005]},"properties":{"name":"former DEW POW-Main / Today Point Barrow NWS","kind":"base","operator":"","country":"US","tier":"major","source":"OSM (United States)","osm_id":"way/1462920716"}},{"type":"Feature","geometry":{"type":"Point","coordinates":[-149.8150195,61.2473563]},"properties":{"name":"Elmendorf Air Force Base","kind":"airfield","operator":"United States Air Force","country":"US","tier":"major","source":"OSM (United States)","osm_id":"relation/7368334"}},{"type":"Feature","geometry":{"type":"Point","coordinates":[-71.4781731,46.8758564]},"properties":{"name":"RDDC Valcartier, Centre d'Essais et d'Exp\u00e9rimentation en Munitions (CEEM)","kind":"office","operator":"","country":"CA","tier":"major","source":"OSM (Canada)","osm_id":"node/404798834"}},{"type":"Feature","geometry":{"type":"Point","coordinates":[-114.6305369,51.6842393]},"properties":{"name":"challenge course","kind":"obstacle_course","operator":"","country":"CA","tier":"major","source":"OSM (Canada)","osm_id":"node/696996520"}},{"type":"Feature","geometry":{"type":"Point","coordinates":[-64.0065463,46.5982825]},"properties":{"name":"Former RCAF Mount Pleasant Airport","kind":"airfield","operator":"Dept of National Defence","country":"CA","tier":"major","source":"OSM (Canada)","osm_id":"node/1042024322"}},{"type":"Feature","geometry":{"type":"Point","coordinates":[-71.5018035,46.9024389]},"properties":{"name":"H\u00e9liport de Valcartier","kind":"yes","operator":"","country":"CA","tier":"major","source":"OSM (Canada)","osm_id":"node/1042145412"}},{"type":"Feature","geometry":{"type":"Point","coordinates":[-66.4661055,45.8401257]},"properties":{"name":"Main Gate","kind":"checkpoint","operator":"","country":"CA","tier":"standard","source":"OSM (Canada)","osm_id":"node/1068713833"}},{"type":"Feature","geometry":{"type":"Point","coordinates":[-66.3759494,45.5703175]},"properties":{"name":"Camp Petersville Checkpoint","kind":"checkpoint","operator":"","country":"CA","tier":"standard","source":"OSM (Canada)","osm_id":"node/1518595368"}},{"type":"Feature","geometry":{"type":"Point","coordinates":[-110.8880871,52.823389]},"properties":{"name":"CFB Wainwright","kind":"range","operator":"","country":"CA","tier":"limited","source":"OSM (Canada)","osm_id":"node/1690660981"}},{"type":"Feature","geometry":{"type":"Point","coordinates":[-60.440166,46.2217671]},"properties":{"name":"ELECTRIC FENCE","kind":"danger_area","operator":"","country":"CA","tier":"limited","source":"OSM (Canada)","osm_id":"node/1716408936"}},{"type":"Feature","geometry":{"type":"Point","coordinates":[-111.7770141,49.3478778]},"properties":{"name":"\u05d4\u05de\u05e1\u05d3\u05e8 \u05d4\u05d0\u05d9\u05dc\u05d5\u05de\u05d9\u05e0\u05d8\u05d9","kind":"range","operator":"","country":"CA","tier":"limited","source":"OSM (Canada)","osm_id":"node/3162629122"}},{"type":"Feature","geometry":{"type":"Point","coordinates":[-71.0559343,48.4302033]},"properties":{"name":"Centre des Forces Cannadiennes ( Marine )","kind":"office","operator":"","country":"CA","tier":"major","source":"OSM (Canada)","osm_id":"node/3843675646"}},{"type":"Feature","geometry":{"type":"Point","coordinates":[-94.9790641,74.7533129]},"properties":{"name":"Crystal City","kind":"training_area","operator":"Canadian Armed Forces","country":"CA","tier":"limited","source":"OSM (Canada)","osm_id":"node/4292822590"}},{"type":"Feature","geometry":{"type":"Point","coordinates":[-101.0335146,56.8203252]},"properties":{"name":"open pit mine","kind":"danger_area","operator":"","country":"CA","tier":"limited","source":"OSM (Canada)","osm_id":"node/4925593031"}},{"type":"Feature","geometry":{"type":"Point","coordinates":[-98.6581116,54.8794799]},"properties":{"name":"mine ramp","kind":"danger_area","operator":"","country":"CA","tier":"limited","source":"OSM (Canada)","osm_id":"node/4955772187"}},{"type":"Feature","geometry":{"type":"Point","coordinates":[-98.6560463,54.8780695]},"properties":{"name":"mine shaft","kind":"danger_area","operator":"","country":"CA","tier":"limited","source":"OSM (Canada)","osm_id":"node/4955772194"}},{"type":"Feature","geometry":{"type":"Point","coordinates":[-66.5292153,45.8724016]},"properties":{"name":"Canada Border Services Agency","kind":"checkpoint","operator":"","country":"CA","tier":"standard","source":"OSM (Canada)","osm_id":"node/5005181309"}},{"type":"Feature","geometry":{"type":"Point","coordinates":[-111.9699159,50.317287]},"properties":{"name":"Texas Gate","kind":"danger_area","operator":"","country":"CA","tier":"limited","source":"OSM (Canada)","osm_id":"node/5680527002"}},{"type":"Feature","geometry":{"type":"Point","coordinates":[-111.7864056,51.4091694]},"properties":{"name":"Fog Area","kind":"danger_area","operator":"","country":"CA","tier":"limited","source":"OSM (Canada)","osm_id":"node/5680725357"}},{"type":"Feature","geometry":{"type":"Point","coordinates":[-63.6189311,44.7061059]},"properties":{"name":"CFAD Bedford Magazine","kind":"naval_base","operator":"","country":"CA","tier":"major","source":"OSM (Canada)","osm_id":"node/5907470291"}},{"type":"Feature","geometry":{"type":"Point","coordinates":[-63.630141,44.7124107]},"properties":{"name":"CFAD Bedford Magazine","kind":"naval_base","operator":"","country":"CA","tier":"major","source":"OSM (Canada)","osm_id":"node/6182279588"}},{"type":"Feature","geometry":{"type":"Point","coordinates":[-66.2890225,45.843517]},"properties":{"name":"SW8","kind":"office","operator":"","country":"CA","tier":"major","source":"OSM (Canada)","osm_id":"node/6807066533"}},{"type":"Feature","geometry":{"type":"Point","coordinates":[-66.5299501,45.8728943]},"properties":{"name":"Security Check In","kind":"checkpoint","operator":"","country":"CA","tier":"standard","source":"OSM (Canada)","osm_id":"node/6906214853"}},{"type":"Feature","geometry":{"type":"Point","coordinates":[-109.1016393,68.7528373]},"properties":{"name":"Byron Bay Airport (abandoned)","kind":"airfield","operator":"","country":"CA","tier":"major","source":"OSM (Canada)","osm_id":"node/8259106030"}},{"type":"Feature","geometry":{"type":"Point","coordinates":[-113.2399738,68.474828]},"properties":{"name":"Lady Franklin Point Airport","kind":"airfield","operator":"","country":"CA","tier":"major","source":"OSM (Canada)","osm_id":"node/8259106050"}},{"type":"Feature","geometry":{"type":"Point","coordinates":[-93.4221855,68.793214]},"properties":{"name":"Shepherd Bay Airport","kind":"airfield","operator":"","country":"CA","tier":"major","source":"OSM (Canada)","osm_id":"node/8259106051"}},{"type":"Feature","geometry":{"type":"Point","coordinates":[-89.6033858,68.4387081]},"properties":{"name":"Pelly Bay (DEW Site) Airport (abandoned)","kind":"airfield","operator":"","country":"CA","tier":"major","source":"OSM (Canada)","osm_id":"node/8259106063"}},{"type":"Feature","geometry":{"type":"Point","coordinates":[-73.4791493,45.439365]},"properties":{"name":"Royal Canadian Legion Branch 215","kind":"office","operator":"","country":"CA","tier":"major","source":"OSM (Canada)","osm_id":"node/8384068298"}},{"type":"Feature","geometry":{"type":"Point","coordinates":[-66.926571,52.9869032]},"properties":{"name":"IOC Mine Area Boarder","kind":"danger_area","operator":"","country":"CA","tier":"limited","source":"OSM (Canada)","osm_id":"node/8711932961"}},{"type":"Feature","geometry":{"type":"Point","coordinates":[-66.9276974,52.9910506]},"properties":{"name":"IOC Mine Area Board","kind":"danger_area","operator":"","country":"CA","tier":"limited","source":"OSM (Canada)","osm_id":"node/8711932962"}},{"type":"Feature","geometry":{"type":"Point","coordinates":[-66.927453,52.9918287]},"properties":{"name":"IOC Mine Area Boarder","kind":"danger_area","operator":"","country":"CA","tier":"limited","source":"OSM (Canada)","osm_id":"node/8711932963"}},{"type":"Feature","geometry":{"type":"Point","coordinates":[-66.9067896,52.9895036]},"properties":{"name":"IOC Mine Property","kind":"danger_area","operator":"","country":"CA","tier":"limited","source":"OSM (Canada)","osm_id":"node/8711932976"}},{"type":"Feature","geometry":{"type":"Point","coordinates":[-66.9193174,52.9964804]},"properties":{"name":"IOC Mine Property","kind":"danger_area","operator":"","country":"CA","tier":"limited","source":"OSM (Canada)","osm_id":"node/8711932977"}},{"type":"Feature","geometry":{"type":"Point","coordinates":[-66.9050067,52.9874604]},"properties":{"name":"IOC Mine Property","kind":"danger_area","operator":"","country":"CA","tier":"limited","source":"OSM (Canada)","osm_id":"node/8711932978"}},{"type":"Feature","geometry":{"type":"Point","coordinates":[-66.3385693,53.5310408]},"properties":{"name":"Flooding in the winter time","kind":"danger_area","operator":"","country":"CA","tier":"limited","source":"OSM (Canada)","osm_id":"node/9592393822"}},{"type":"Feature","geometry":{"type":"Point","coordinates":[-66.3393844,53.5314649]},"properties":{"name":"Flooding in the winter time","kind":"danger_area","operator":"","country":"CA","tier":"limited","source":"OSM (Canada)","osm_id":"node/9592393823"}},{"type":"Feature","geometry":{"type":"Point","coordinates":[-66.8832711,52.9012039]},"properties":{"name":"Only when ice is good","kind":"danger_area","operator":"","country":"CA","tier":"limited","source":"OSM (Canada)","osm_id":"node/9671131854"}},{"type":"Feature","geometry":{"type":"Point","coordinates":[-60.6749937,53.2952227]},"properties":{"name":"Dirt path overgrown","kind":"danger_area","operator":"","country":"CA","tier":"limited","source":"OSM (Canada)","osm_id":"node/9697570179"}},{"type":"Feature","geometry":{"type":"Point","coordinates":[-104.8531546,50.6490965]},"properties":{"name":"Biathlon Range","kind":"danger_area","operator":"","country":"CA","tier":"limited","source":"OSM (Canada)","osm_id":"node/10151998146"}},{"type":"Feature","geometry":{"type":"Point","coordinates":[-68.2093924,51.5807146]},"properties":{"name":"steep decline","kind":"danger_area","operator":"","country":"CA","tier":"limited","source":"OSM (Canada)","osm_id":"node/10688619942"}},{"type":"Feature","geometry":{"type":"Point","coordinates":[-66.3997389,53.0874825]},"properties":{"name":"Coming onto the Lake","kind":"danger_area","operator":"","country":"CA","tier":"limited","source":"OSM (Canada)","osm_id":"node/10777939292"}},{"type":"Feature","geometry":{"type":"Point","coordinates":[-66.397348,53.0886964]},"properties":{"name":"Onto the Lake","kind":"danger_area","operator":"","country":"CA","tier":"limited","source":"OSM (Canada)","osm_id":"node/10777939293"}},{"type":"Feature","geometry":{"type":"Point","coordinates":[-67.507786,53.0844263]},"properties":{"name":"Rapide Du Mille iles","kind":"danger_area","operator":"","country":"CA","tier":"limited","source":"OSM (Canada)","osm_id":"node/10783415843"}},{"type":"Feature","geometry":{"type":"Point","coordinates":[-114.0864585,50.9568494]},"properties":{"name":"Royal Canadian Air Cadets 52 Squadron","kind":"office","operator":"","country":"CA","tier":"major","source":"OSM (Canada)","osm_id":"node/10910665117"}},{"type":"Feature","geometry":{"type":"Point","coordinates":[-62.3417778,82.4985382]},"properties":{"name":"Canadian Forces Station Alert","kind":"base","operator":"","country":"CA","tier":"major","source":"OSM (Canada)","osm_id":"node/11461375670"}},{"type":"Feature","geometry":{"type":"Point","coordinates":[-64.7956075,46.0896856]},"properties":{"name":"8th Canadian Hussars (Princess Louise's)","kind":"office","operator":"","country":"CA","tier":"major","source":"OSM (Canada)","osm_id":"node/11653905567"}},{"type":"Feature","geometry":{"type":"Point","coordinates":[-114.0764178,51.0480474]},"properties":{"name":"Canadian Forces Recruiting Centre, Calgary","kind":"office","operator":"","country":"CA","tier":"major","source":"OSM (Canada)","osm_id":"node/11772307584"}},{"type":"Feature","geometry":{"type":"Point","coordinates":[-66.921189,52.966226]},"properties":{"name":"Trail Cloase from the 5th April to November 5 th Range Open","kind":"danger_area","operator":"","country":"CA","tier":"limited","source":"OSM (Canada)","osm_id":"node/11881886001"}},{"type":"Feature","geometry":{"type":"Point","coordinates":[-71.2136991,46.845385]},"properties":{"name":"Centre de recrutement des Forces canadiennes Qu\u00e9bec","kind":"office","operator":"","country":"CA","tier":"major","source":"OSM (Canada)","osm_id":"node/11959345505"}},{"type":"Feature","geometry":{"type":"Point","coordinates":[-73.4884742,45.5118228]},"properties":{"name":"Escadron 827 Longueuil","kind":"office","operator":"","country":"CA","tier":"major","source":"OSM (Canada)","osm_id":"node/12055484261"}},{"type":"Feature","geometry":{"type":"Point","coordinates":[-73.7461467,45.3773957]},"properties":{"name":"L\u00e9gion Royale Canadienne, Filiale 108","kind":"office","operator":"","country":"CA","tier":"major","source":"OSM (Canada)","osm_id":"node/12416022548"}},{"type":"Feature","geometry":{"type":"Point","coordinates":[-71.8731519,45.3984469]},"properties":{"name":"35e R\u00e9giment","kind":"office","operator":"Forces arm\u00e9es canadiennes","country":"CA","tier":"major","source":"OSM (Canada)","osm_id":"node/12482384299"}},{"type":"Feature","geometry":{"type":"Point","coordinates":[-71.249043,46.8034797]},"properties":{"name":"Complexe militaire Saint-Malo - 35e Bataillon des services","kind":"office","operator":"D\u00e9fense nationale - Forces arm\u00e9es canadiennes","country":"CA","tier":"major","source":"OSM (Canada)","osm_id":"node/12509619755"}},{"type":"Feature","geometry":{"type":"Point","coordinates":[-64.7962033,46.0895388]},"properties":{"name":"31st Canadian brigade group headquarters","kind":"office","operator":"","country":"CA","tier":"major","source":"OSM (Canada)","osm_id":"node/13027624437"}},{"type":"Feature","geometry":{"type":"Point","coordinates":[-113.5027077,53.5394556]},"properties":{"name":"FORCES Recruitment Centre","kind":"office","operator":"","country":"CA","tier":"major","source":"OSM (Canada)","osm_id":"node/13665431351"}},{"type":"Feature","geometry":{"type":"Point","coordinates":[-64.2919559,45.8646103]},"properties":{"name":"Duke's Bastion","kind":"bunker","operator":"","country":"CA","tier":"standard","source":"OSM (Canada)","osm_id":"node/13747143826"}},{"type":"Feature","geometry":{"type":"Point","coordinates":[-64.2915882,45.8649087]},"properties":{"name":"Prince Edward's Bunker","kind":"bunker","operator":"","country":"CA","tier":"standard","source":"OSM (Canada)","osm_id":"node/13747143827"}},{"type":"Feature","geometry":{"type":"Point","coordinates":[-64.2910751,45.8643456]},"properties":{"name":"Prince Frederic's Bastion","kind":"bunker","operator":"","country":"CA","tier":"standard","source":"OSM (Canada)","osm_id":"node/13747143828"}},{"type":"Feature","geometry":{"type":"Point","coordinates":[-64.2910354,45.8647742]},"properties":{"name":"Prince Henry's Bastion","kind":"bunker","operator":"","country":"CA","tier":"standard","source":"OSM (Canada)","osm_id":"node/13747143829"}},{"type":"Feature","geometry":{"type":"Point","coordinates":[-64.2916398,45.8642557]},"properties":{"name":"Prince William's Bastion","kind":"bunker","operator":"","country":"CA","tier":"standard","source":"OSM (Canada)","osm_id":"node/13747143830"}},{"type":"Feature","geometry":{"type":"Point","coordinates":[-73.5722473,45.5179352]},"properties":{"name":"Henri-Julien Armoury-Fusiliers Mont-Royal","kind":"armoury","operator":"","country":"CA","tier":"major","source":"OSM (Canada)","osm_id":"way/46867166"}},{"type":"Feature","geometry":{"type":"Point","coordinates":[-72.5335745,46.3594108]},"properties":{"name":"Marine Royale Canadienne","kind":"armory","operator":"","country":"CA","tier":"major","source":"OSM (Canada)","osm_id":"way/67144762"}},{"type":"Feature","geometry":{"type":"Point","coordinates":[-72.5330343,46.3594427]},"properties":{"name":"NCSM Radisson","kind":"naval","operator":"","country":"CA","tier":"major","source":"OSM (Canada)","osm_id":"way/67144765"}},{"type":"Feature","geometry":{"type":"Point","coordinates":[-72.5415005,46.3479055]},"properties":{"name":"Man\u00e8ge militaire G\u00e9n\u00e9ral-Jean-Victor-Allard","kind":"armory","operator":"","country":"CA","tier":"major","source":"OSM (Canada)","osm_id":"way/67282765"}},{"type":"Feature","geometry":{"type":"Point","coordinates":[-75.6885065,45.4210748]},"properties":{"name":"DND","kind":"office","operator":"","country":"CA","tier":"major","source":"OSM (Canada)","osm_id":"way/68588423"}},{"type":"Feature","geometry":{"type":"Point","coordinates":[-75.6888625,45.421427]},"properties":{"name":"Cartier Square Drill Hall","kind":"office","operator":"","country":"CA","tier":"major","source":"OSM (Canada)","osm_id":"way/68588589"}},{"type":"Feature","geometry":{"type":"Point","coordinates":[-98.2875762,49.9764232]},"properties":{"name":"Portage La Prairie Armoury","kind":"office","operator":"","country":"CA","tier":"major","source":"OSM (Canada)","osm_id":"way/80490349"}},{"type":"Feature","geometry":{"type":"Point","coordinates":[-99.627921,49.8004292]},"properties":{"name":"Regional Emergency Government Headquarters","kind":"bunker","operator":"","country":"CA","tier":"standard","source":"OSM (Canada)","osm_id":"way/95481395"}},{"type":"Feature","geometry":{"type":"Point","coordinates":[-97.243335,49.8961733]},"properties":{"name":"CFB Winnipeg","kind":"airfield","operator":"","country":"CA","tier":"major","source":"OSM (Canada)","osm_id":"way/96584343"}},{"type":"Feature","geometry":{"type":"Point","coordinates":[-97.139957,49.9277258]},"properties":{"name":"Lieutenant-Colonel Harcus Strachan, VC, MC Armoury","kind":"armory","operator":"","country":"CA","tier":"major","source":"OSM (Canada)","osm_id":"way/98887462"}},{"type":"Feature","geometry":{"type":"Point","coordinates":[-72.4876985,45.8719192]},"properties":{"name":"Drummondville Armoury","kind":"office","operator":"","country":"CA","tier":"major","source":"OSM (Canada)","osm_id":"way/99337771"}},{"type":"Feature","geometry":{"type":"Point","coordinates":[-73.5318199,45.5768226]},"properties":{"name":"BFC Montr\u00e9al - Garnison Montr\u00e9al","kind":"garrison","operator":"","country":"CA","tier":"major","source":"OSM (Canada)","osm_id":"way/102369346"}},{"type":"Feature","geometry":{"type":"Point","coordinates":[-113.447018,53.4889165]},"properties":{"name":"Lt-Col Philip Debney Armoury","kind":"barracks","operator":"","country":"CA","tier":"standard","source":"OSM (Canada)","osm_id":"way/102487583"}},{"type":"Feature","geometry":{"type":"Point","coordinates":[-66.6407844,45.9630619]},"properties":{"name":"Armoury","kind":"office","operator":"","country":"CA","tier":"major","source":"OSM (Canada)","osm_id":"way/103813450"}},{"type":"Feature","geometry":{"type":"Point","coordinates":[-71.4866382,46.8871525]},"properties":{"name":"Bunker (521)","kind":"bunker","operator":"","country":"CA","tier":"standard","source":"OSM (Canada)","osm_id":"way/104323300"}},{"type":"Feature","geometry":{"type":"Point","coordinates":[-66.2472669,45.8165402]},"properties":{"name":"Abandoned Airfield","kind":"airfield","operator":"","country":"CA","tier":"major","source":"OSM (Canada)","osm_id":"way/109670155"}},{"type":"Feature","geometry":{"type":"Point","coordinates":[-114.0893493,51.0462948]},"properties":{"name":"Mewata Armoury","kind":"armoury","operator":"","country":"CA","tier":"major","source":"OSM (Canada)","osm_id":"way/127960996"}},{"type":"Feature","geometry":{"type":"Point","coordinates":[-101.7358035,68.6570407]},"properties":{"name":"Jenny Lind Island Airport (abandoned)","kind":"airfield","operator":"","country":"CA","tier":"major","source":"OSM (Canada)","osm_id":"way/148396789"}},{"type":"Feature","geometry":{"type":"Point","coordinates":[-104.6060155,50.4343883]},"properties":{"name":"HMCS Queen Building","kind":"navy","operator":"","country":"CA","tier":"major","source":"OSM (Canada)","osm_id":"way/155557430"}},{"type":"Feature","geometry":{"type":"Point","coordinates":[-105.5577794,50.3309991]},"properties":{"name":"Moose Jaw Air Vice Marshal C. M. McEwen Airport","kind":"airfield","operator":"","country":"CA","tier":"major","source":"OSM (Canada)","osm_id":"way/156158791"}},{"type":"Feature","geometry":{"type":"Point","coordinates":[-65.5711397,47.0018484]},"properties":{"name":"LCol William George Stothart Armoury","kind":"office","operator":"","country":"CA","tier":"major","source":"OSM (Canada)","osm_id":"way/161498493"}},{"type":"Feature","geometry":{"type":"Point","coordinates":[-73.2529576,45.2958112]},"properties":{"name":"Coll\u00e8ge militaire royal de Saint-Jean-sur-Richelieu","kind":"base","operator":"","country":"CA","tier":"major","source":"OSM (Canada)","osm_id":"way/165846665"}},{"type":"Feature","geometry":{"type":"Point","coordinates":[-73.5828221,45.5164452]},"properties":{"name":"Esplanade Armoury-Canadian Grenadier Guards;Man\u00e8ge militaire des Canadian Grenadier Guards","kind":"office","operator":"","country":"CA","tier":"standard","source":"OSM (Canada)","osm_id":"way/167078839"}},{"type":"Feature","geometry":{"type":"Point","coordinates":[-71.4785416,46.896991]},"properties":{"name":"CT Normandie","kind":"range","operator":"","country":"CA","tier":"limited","source":"OSM (Canada)","osm_id":"way/180114060"}},{"type":"Feature","geometry":{"type":"Point","coordinates":[-71.4810632,46.9042235]},"properties":{"name":"CT Batoche","kind":"range","operator":"","country":"CA","tier":"limited","source":"OSM (Canada)","osm_id":"way/180237691"}},{"type":"Feature","geometry":{"type":"Point","coordinates":[-101.0445502,56.8390368]},"properties":{"name":"Lynn Lake settling pond","kind":"danger_area","operator":"","country":"CA","tier":"limited","source":"OSM (Canada)","osm_id":"way/181037293"}},{"type":"Feature","geometry":{"type":"Point","coordinates":[-113.4389303,53.668825]},"properties":{"name":"Range","kind":"range","operator":"","country":"CA","tier":"limited","source":"OSM (Canada)","osm_id":"way/191841948"}},{"type":"Feature","geometry":{"type":"Point","coordinates":[-113.4409357,53.6689164]},"properties":{"name":"Range","kind":"range","operator":"","country":"CA","tier":"limited","source":"OSM (Canada)","osm_id":"way/191842163"}},{"type":"Feature","geometry":{"type":"Point","coordinates":[-110.2742592,54.4003618]},"properties":{"name":"CFB Cold Lake","kind":"airfield","operator":"","country":"CA","tier":"major","source":"OSM (Canada)","osm_id":"way/199424474"}},{"type":"Feature","geometry":{"type":"Point","coordinates":[-52.7030979,47.5593178]},"properties":{"name":"HMCS Cabot","kind":"base","operator":"","country":"CA","tier":"major","source":"OSM (Canada)","osm_id":"way/199699112"}},{"type":"Feature","geometry":{"type":"Point","coordinates":[-73.0188165,45.2950594]},"properties":{"name":"Apollo Range","kind":"range","operator":"","country":"CA","tier":"limited","source":"OSM (Canada)","osm_id":"way/199910581"}},{"type":"Feature","geometry":{"type":"Point","coordinates":[-73.0182617,45.3008669]},"properties":{"name":"Bronze Range","kind":"range","operator":"","country":"CA","tier":"limited","source":"OSM (Canada)","osm_id":"way/199910712"}},{"type":"Feature","geometry":{"type":"Point","coordinates":[-73.0170296,45.3017293]},"properties":{"name":"Cavalier Range","kind":"range","operator":"","country":"CA","tier":"limited","source":"OSM (Canada)","osm_id":"way/199910724"}},{"type":"Feature","geometry":{"type":"Point","coordinates":[-110.9286549,52.7919179]},"properties":{"name":"Range 8","kind":"range","operator":"","country":"CA","tier":"limited","source":"OSM (Canada)","osm_id":"way/210214514"}},{"type":"Feature","geometry":{"type":"Point","coordinates":[-110.919287,52.7928819]},"properties":{"name":"Range 6","kind":"range","operator":"","country":"CA","tier":"limited","source":"OSM (Canada)","osm_id":"way/230261025"}},{"type":"Feature","geometry":{"type":"Point","coordinates":[-60.1651229,46.1671758]},"properties":{"name":"CFS Sydney","kind":"yes","operator":"","country":"CA","tier":"major","source":"OSM (Canada)","osm_id":"way/275353455"}},{"type":"Feature","geometry":{"type":"Point","coordinates":[-114.9324649,51.3177446]},"properties":{"name":"S12-1","kind":"barracks","operator":"","country":"CA","tier":"standard","source":"OSM (Canada)","osm_id":"way/328841329"}},{"type":"Feature","geometry":{"type":"Point","coordinates":[-114.9330649,51.3156371]},"properties":{"name":"S6 Staff Mess","kind":"barracks","operator":"","country":"CA","tier":"standard","source":"OSM (Canada)","osm_id":"way/328841332"}},{"type":"Feature","geometry":{"type":"Point","coordinates":[-114.9327648,51.3180374]},"properties":{"name":"S10 P&D Training","kind":"barracks","operator":"","country":"CA","tier":"standard","source":"OSM (Canada)","osm_id":"way/328841334"}},{"type":"Feature","geometry":{"type":"Point","coordinates":[-114.9330204,51.31761]},"properties":{"name":"B3 Staff Cadets","kind":"barracks","operator":"","country":"CA","tier":"standard","source":"OSM (Canada)","osm_id":"way/328841335"}},{"type":"Feature","geometry":{"type":"Point","coordinates":[-114.9342137,51.3180349]},"properties":{"name":"S-11","kind":"barracks","operator":"","country":"CA","tier":"standard","source":"OSM (Canada)","osm_id":"way/328841346"}},{"type":"Feature","geometry":{"type":"Point","coordinates":[-64.9273753,44.9790626]},"properties":{"name":"Base Pistol Range","kind":"range","operator":"","country":"CA","tier":"limited","source":"OSM (Canada)","osm_id":"way/331008954"}},{"type":"Feature","geometry":{"type":"Point","coordinates":[-112.6785716,51.0445995]},"properties":{"name":"25 m SA / Archery Range (?)","kind":"range","operator":"","country":"CA","tier":"limited","source":"OSM (Canada)","osm_id":"way/335685850"}},{"type":"Feature","geometry":{"type":"Point","coordinates":[-118.7962605,55.161961]},"properties":{"name":"D Company Armouries","kind":"barracks","operator":"","country":"CA","tier":"standard","source":"OSM (Canada)","osm_id":"way/343769656"}},{"type":"Feature","geometry":{"type":"Point","coordinates":[-63.5540243,44.5943149]},"properties":{"name":"Fire Command Post","kind":"bunker","operator":"","country":"CA","tier":"standard","source":"OSM (Canada)","osm_id":"way/349895785"}},{"type":"Feature","geometry":{"type":"Point","coordinates":[-66.3394474,47.9698635]},"properties":{"name":"Biathlon shooting range","kind":"danger_area","operator":"","country":"CA","tier":"limited","source":"OSM (Canada)","osm_id":"way/356042077"}},{"type":"Feature","geometry":{"type":"Point","coordinates":[-73.283752,45.2998979]},"properties":{"name":"Base des Forces canadiennes Saint-Jean","kind":"base","operator":"","country":"CA","tier":"major","source":"OSM (Canada)","osm_id":"way/360434951"}},{"type":"Feature","geometry":{"type":"Point","coordinates":[-70.9926839,48.3268716]},"properties":{"name":"Base des Forces canadiennes Bagotville","kind":"airfield","operator":"","country":"CA","tier":"major","source":"OSM (Canada)","osm_id":"way/361462205"}},{"type":"Feature","geometry":{"type":"Point","coordinates":[-65.4999214,45.7223362]},"properties":{"name":"Sussex Armoury","kind":"office","operator":"","country":"CA","tier":"major","source":"OSM (Canada)","osm_id":"way/391745622"}},{"type":"Feature","geometry":{"type":"Point","coordinates":[-73.0025963,45.2918851]},"properties":{"name":"Piste d'\u00e9valuation de leadership","kind":"obstacle_course","operator":"","country":"CA","tier":"major","source":"OSM (Canada)","osm_id":"way/400239996"}},{"type":"Feature","geometry":{"type":"Point","coordinates":[-64.1438517,50.2898656]},"properties":{"name":"Aeroport-de-Mingan","kind":"airfield","operator":"","country":"CA","tier":"major","source":"OSM (Canada)","osm_id":"way/455878757"}},{"type":"Feature","geometry":{"type":"Point","coordinates":[-97.3412633,49.9129862]},"properties":{"name":"Saint Charles Rifle Range","kind":"range","operator":"","country":"CA","tier":"limited","source":"OSM (Canada)","osm_id":"way/471358131"}},{"type":"Feature","geometry":{"type":"Point","coordinates":[-75.732718,45.424526]},"properties":{"name":"Salaberry Armoury","kind":"barracks","operator":"","country":"CA","tier":"standard","source":"OSM (Canada)","osm_id":"way/478081406"}},{"type":"Feature","geometry":{"type":"Point","coordinates":[-75.6289995,45.4220705]},"properties":{"name":"CANEX","kind":"office","operator":"","country":"CA","tier":"major","source":"OSM (Canada)","osm_id":"way/485899442"}},{"type":"Feature","geometry":{"type":"Point","coordinates":[-101.0323613,56.8198966]},"properties":{"name":"caved in mine shaft","kind":"danger_area","operator":"","country":"CA","tier":"limited","source":"OSM (Canada)","osm_id":"way/501904738"}},{"type":"Feature","geometry":{"type":"Point","coordinates":[-101.0449325,56.8415119]},"properties":{"name":"liming plabt settling pond","kind":"danger_area","operator":"","country":"CA","tier":"limited","source":"OSM (Canada)","osm_id":"way/501904741"}},{"type":"Feature","geometry":{"type":"Point","coordinates":[-97.1298222,49.9070052]},"properties":{"name":"heavy metal contamination","kind":"danger_area","operator":"","country":"CA","tier":"limited","source":"OSM (Canada)","osm_id":"way/502520361"}},{"type":"Feature","geometry":{"type":"Point","coordinates":[-75.7325386,45.4243295]},"properties":{"name":"Man\u00e8ge Militaire de Salaberry","kind":"range","operator":"","country":"CA","tier":"limited","source":"OSM (Canada)","osm_id":"way/537180091"}},{"type":"Feature","geometry":{"type":"Point","coordinates":[-71.571259,46.9659429]},"properties":{"name":"Base des Forces Canadiennes Valcartier","kind":"base","operator":"","country":"CA","tier":"major","source":"OSM (Canada)","osm_id":"way/556847248"}},{"type":"Feature","geometry":{"type":"Point","coordinates":[-98.2752388,49.9152301]},"properties":{"name":"Lt Alan McLeod Building","kind":"barracks","operator":"","country":"CA","tier":"standard","source":"OSM (Canada)","osm_id":"way/562526469"}},{"type":"Feature","geometry":{"type":"Point","coordinates":[-67.5740845,46.1511899]},"properties":{"name":"Woodstock Armoury","kind":"office","operator":"","country":"CA","tier":"major","source":"OSM (Canada)","osm_id":"way/574622191"}},{"type":"Feature","geometry":{"type":"Point","coordinates":[-85.7389845,68.3430005]},"properties":{"name":"Mackar Inlet Airport (abandoned)","kind":"airfield","operator":"","country":"CA","tier":"major","source":"OSM (Canada)","osm_id":"way/586470149"}},{"type":"Feature","geometry":{"type":"Point","coordinates":[-114.3873612,53.3681285]},"properties":{"name":"25m Pistol range","kind":"danger_area","operator":"","country":"CA","tier":"limited","source":"OSM (Canada)","osm_id":"way/621285136"}},{"type":"Feature","geometry":{"type":"Point","coordinates":[-114.3868408,53.3677893]},"properties":{"name":"100m range","kind":"danger_area","operator":"","country":"CA","tier":"limited","source":"OSM (Canada)","osm_id":"way/621285141"}},{"type":"Feature","geometry":{"type":"Point","coordinates":[-114.3874336,53.367554]},"properties":{"name":"50m range","kind":"danger_area","operator":"","country":"CA","tier":"limited","source":"OSM (Canada)","osm_id":"way/621285143"}},{"type":"Feature","geometry":{"type":"Point","coordinates":[-114.3865042,53.3688644]},"properties":{"name":"300/500/800m range","kind":"danger_area","operator":"","country":"CA","tier":"limited","source":"OSM (Canada)","osm_id":"way/621285144"}},{"type":"Feature","geometry":{"type":"Point","coordinates":[-63.6308632,44.7129782]},"properties":{"name":"name=CFAD Bedford Magazine","kind":"naval_base","operator":"","country":"CA","tier":"major","source":"OSM (Canada)","osm_id":"way/660316564"}},{"type":"Feature","geometry":{"type":"Point","coordinates":[-66.4456293,45.837397]},"properties":{"name":"M-5","kind":"office","operator":"","country":"CA","tier":"major","source":"OSM (Canada)","osm_id":"way/714625045"}},{"type":"Feature","geometry":{"type":"Point","coordinates":[-73.4333406,45.4888824]},"properties":{"name":"La l\u00e9gion royale canadienne St-Hubert BR 159","kind":"office","operator":"","country":"CA","tier":"major","source":"OSM (Canada)","osm_id":"way/718478798"}},{"type":"Feature","geometry":{"type":"Point","coordinates":[-110.4898745,55.0562643]},"properties":{"name":"Kodiak Den - J Bunk","kind":"bunker","operator":"","country":"CA","tier":"standard","source":"OSM (Canada)","osm_id":"way/764677716"}},{"type":"Feature","geometry":{"type":"Point","coordinates":[-60.136197,46.1237063]},"properties":{"name":"Canadian Army Firearms Range (cape breton)","kind":"range","operator":"","country":"CA","tier":"limited","source":"OSM (Canada)","osm_id":"way/793367874"}},{"type":"Feature","geometry":{"type":"Point","coordinates":[-53.9886162,47.3095354]},"properties":{"name":"Naval Air Station Argentia","kind":"airfield","operator":"","country":"CA","tier":"major","source":"OSM (Canada)","osm_id":"way/845500564"}},{"type":"Feature","geometry":{"type":"Point","coordinates":[-115.0740722,51.4027978]},"properties":{"name":"Camp Howard","kind":"barracks","operator":"","country":"CA","tier":"standard","source":"OSM (Canada)","osm_id":"way/878353555"}},{"type":"Feature","geometry":{"type":"Point","coordinates":[-63.4506461,45.4210229]},"properties":{"name":"Regional Emergency Government Headquarters","kind":"bunker","operator":"","country":"CA","tier":"standard","source":"OSM (Canada)","osm_id":"way/884371969"}},{"type":"Feature","geometry":{"type":"Point","coordinates":[-113.8635313,52.1730128]},"properties":{"name":"Regional Emergency Government Headquarters","kind":"bunker","operator":"","country":"CA","tier":"standard","source":"OSM (Canada)","osm_id":"way/884416588"}},{"type":"Feature","geometry":{"type":"Point","coordinates":[-71.1276185,68.6265918]},"properties":{"name":"Dewar Lakes Airport","kind":"airfield","operator":"","country":"CA","tier":"major","source":"OSM (Canada)","osm_id":"way/953410795"}},{"type":"Feature","geometry":{"type":"Point","coordinates":[-114.3914795,53.3676431]},"properties":{"name":"Shotgun Skeet Range","kind":"danger_area","operator":"","country":"CA","tier":"limited","source":"OSM (Canada)","osm_id":"way/976771266"}},{"type":"Feature","geometry":{"type":"Point","coordinates":[-67.7563545,47.0606428]},"properties":{"name":"The Royal New Brunswick Regiment","kind":"office","operator":"","country":"CA","tier":"major","source":"OSM (Canada)","osm_id":"way/1047510422"}},{"type":"Feature","geometry":{"type":"Point","coordinates":[-117.8071111,53.452961]},"properties":{"name":"Jarvis Lake Training Detachment","kind":"training_area","operator":"","country":"CA","tier":"limited","source":"OSM (Canada)","osm_id":"way/1181226294"}},{"type":"Feature","geometry":{"type":"Point","coordinates":[-66.4438897,45.8176964]},"properties":{"name":"Reichwald Range","kind":"range","operator":"","country":"CA","tier":"limited","source":"OSM (Canada)","osm_id":"way/1223114247"}},{"type":"Feature","geometry":{"type":"Point","coordinates":[-66.4409086,45.818118]},"properties":{"name":"Amiens Range","kind":"range","operator":"","country":"CA","tier":"limited","source":"OSM (Canada)","osm_id":"way/1223114248"}},{"type":"Feature","geometry":{"type":"Point","coordinates":[-60.9669248,52.2803418]},"properties":{"name":"5 Wing Goose Bay Practice Training Area Safety Template Zone","kind":"danger_area","operator":"","country":"CA","tier":"limited","source":"OSM (Canada)","osm_id":"way/1223355462"}},{"type":"Feature","geometry":{"type":"Point","coordinates":[-113.4704681,53.6780218]},"properties":{"name":"Obstacle Course","kind":"obstacle_course","operator":"","country":"CA","tier":"major","source":"OSM (Canada)","osm_id":"way/1224866787"}},{"type":"Feature","geometry":{"type":"Point","coordinates":[-113.465005,53.6812905]},"properties":{"name":"Tank Park","kind":"training_area","operator":"","country":"CA","tier":"limited","source":"OSM (Canada)","osm_id":"way/1224877975"}},{"type":"Feature","geometry":{"type":"Point","coordinates":[-113.4912183,53.674757]},"properties":{"name":"MP Building and Guardhouse","kind":"checkpoint","operator":"","country":"CA","tier":"standard","source":"OSM (Canada)","osm_id":"way/1224912327"}},{"type":"Feature","geometry":{"type":"Point","coordinates":[-71.4780829,46.9066299]},"properties":{"name":"CT Nicosie","kind":"range","operator":"","country":"CA","tier":"limited","source":"OSM (Canada)","osm_id":"way/1228092654"}},{"type":"Feature","geometry":{"type":"Point","coordinates":[-110.6689358,52.6590714]},"properties":{"name":"Permanent Danger Area 4 L4","kind":"danger_area","operator":"","country":"CA","tier":"limited","source":"OSM (Canada)","osm_id":"way/1228133639"}},{"type":"Feature","geometry":{"type":"Point","coordinates":[-110.9177112,52.6772942]},"properties":{"name":"Permanent Danger Area 3B H2","kind":"danger_area","operator":"","country":"CA","tier":"limited","source":"OSM (Canada)","osm_id":"way/1228133643"}},{"type":"Feature","geometry":{"type":"Point","coordinates":[-111.0534579,52.7080414]},"properties":{"name":"AFV Battle Run","kind":"range","operator":"","country":"CA","tier":"limited","source":"OSM (Canada)","osm_id":"way/1228133645"}},{"type":"Feature","geometry":{"type":"Point","coordinates":[-110.9615209,52.7282814]},"properties":{"name":"Permanent Danger Area 3A F2","kind":"danger_area","operator":"","country":"CA","tier":"limited","source":"OSM (Canada)","osm_id":"way/1228353613"}},{"type":"Feature","geometry":{"type":"Point","coordinates":[-110.918515,52.757955]},"properties":{"name":"Permanent Danger Area 2","kind":"danger_area","operator":"","country":"CA","tier":"limited","source":"OSM (Canada)","osm_id":"way/1228355628"}},{"type":"Feature","geometry":{"type":"Point","coordinates":[-110.9106294,52.8142956]},"properties":{"name":"Gas Hut","kind":"training_area","operator":"","country":"CA","tier":"limited","source":"OSM (Canada)","osm_id":"way/1228481256"}},{"type":"Feature","geometry":{"type":"Point","coordinates":[-110.9005173,52.8142511]},"properties":{"name":"Range Control","kind":"checkpoint","operator":"","country":"CA","tier":"standard","source":"OSM (Canada)","osm_id":"way/1228481257"}},{"type":"Feature","geometry":{"type":"Point","coordinates":[-73.2962459,45.5523447]},"properties":{"name":"Champ de Tir Saint-Bruno","kind":"range","operator":"","country":"CA","tier":"limited","source":"OSM (Canada)","osm_id":"way/1229570380"}},{"type":"Feature","geometry":{"type":"Point","coordinates":[-110.9807017,52.6745693]},"properties":{"name":"Permanent Danger Area 3B H1","kind":"danger_area","operator":"","country":"CA","tier":"limited","source":"OSM (Canada)","osm_id":"way/1236331932"}},{"type":"Feature","geometry":{"type":"Point","coordinates":[-62.5856184,58.4889656]},"properties":{"name":"Saglek radar base","kind":"base","operator":"","country":"CA","tier":"major","source":"OSM (Canada)","osm_id":"way/1238431276"}},{"type":"Feature","geometry":{"type":"Point","coordinates":[-111.0278037,52.732378]},"properties":{"name":"Permanent Danger Area 3A F1","kind":"danger_area","operator":"","country":"CA","tier":"limited","source":"OSM (Canada)","osm_id":"way/1240045286"}},{"type":"Feature","geometry":{"type":"Point","coordinates":[-110.9113262,52.7921171]},"properties":{"name":"Range 5","kind":"range","operator":"","country":"CA","tier":"limited","source":"OSM (Canada)","osm_id":"way/1240048246"}},{"type":"Feature","geometry":{"type":"Point","coordinates":[-110.9096769,52.7920914]},"properties":{"name":"Range 4","kind":"range","operator":"","country":"CA","tier":"limited","source":"OSM (Canada)","osm_id":"way/1240048247"}},{"type":"Feature","geometry":{"type":"Point","coordinates":[-110.9037799,52.7842782]},"properties":{"name":"Range 3","kind":"range","operator":"","country":"CA","tier":"limited","source":"OSM (Canada)","osm_id":"way/1240048248"}},{"type":"Feature","geometry":{"type":"Point","coordinates":[-110.9062647,52.7727989]},"properties":{"name":"Range 2 (Grenade)","kind":"range","operator":"","country":"CA","tier":"limited","source":"OSM (Canada)","osm_id":"way/1240048250"}},{"type":"Feature","geometry":{"type":"Point","coordinates":[-110.9582825,52.7827176]},"properties":{"name":"Range 10 (Mobile Targets)","kind":"range","operator":"","country":"CA","tier":"limited","source":"OSM (Canada)","osm_id":"way/1240048251"}},{"type":"Feature","geometry":{"type":"Point","coordinates":[-110.9577258,52.7677929]},"properties":{"name":"Range 11","kind":"range","operator":"","country":"CA","tier":"limited","source":"OSM (Canada)","osm_id":"way/1240048252"}},{"type":"Feature","geometry":{"type":"Point","coordinates":[-110.9426553,52.7562551]},"properties":{"name":"Range 13","kind":"range","operator":"","country":"CA","tier":"limited","source":"OSM (Canada)","osm_id":"way/1240048253"}},{"type":"Feature","geometry":{"type":"Point","coordinates":[-110.9245751,52.7466958]},"properties":{"name":"Range 14","kind":"range","operator":"","country":"CA","tier":"limited","source":"OSM (Canada)","osm_id":"way/1240048254"}},{"type":"Feature","geometry":{"type":"Point","coordinates":[-110.9601101,52.7391859]},"properties":{"name":"Range 19","kind":"range","operator":"","country":"CA","tier":"limited","source":"OSM (Canada)","osm_id":"way/1240048255"}},{"type":"Feature","geometry":{"type":"Point","coordinates":[-110.9793266,52.7655689]},"properties":{"name":"Range 22","kind":"range","operator":"","country":"CA","tier":"limited","source":"OSM (Canada)","osm_id":"way/1240048256"}},{"type":"Feature","geometry":{"type":"Point","coordinates":[-110.9990429,52.7670715]},"properties":{"name":"Range 21","kind":"range","operator":"","country":"CA","tier":"limited","source":"OSM (Canada)","osm_id":"way/1240048257"}},{"type":"Feature","geometry":{"type":"Point","coordinates":[-113.0103406,49.7534993]},"properties":{"name":"Kipp Range","kind":"range","operator":"","country":"CA","tier":"limited","source":"OSM (Canada)","osm_id":"way/1242252556"}},{"type":"Feature","geometry":{"type":"Point","coordinates":[-113.0118165,49.7534613]},"properties":{"name":"Kipp Range Area","kind":"training_area","operator":"","country":"CA","tier":"limited","source":"OSM (Canada)","osm_id":"way/1242252565"}},{"type":"Feature","geometry":{"type":"Point","coordinates":[-113.4249443,49.7111913]},"properties":{"name":"former BCATP barracks","kind":"barracks","operator":"","country":"CA","tier":"standard","source":"OSM (Canada)","osm_id":"way/1255034484"}},{"type":"Feature","geometry":{"type":"Point","coordinates":[-66.451887,45.7796288]},"properties":{"name":"Batoche Small Arms Range","kind":"range","operator":"","country":"CA","tier":"limited","source":"OSM (Canada)","osm_id":"way/1276138224"}},{"type":"Feature","geometry":{"type":"Point","coordinates":[-66.4582799,45.7895467]},"properties":{"name":"Vimy Range","kind":"range","operator":"","country":"CA","tier":"limited","source":"OSM (Canada)","osm_id":"way/1276138242"}},{"type":"Feature","geometry":{"type":"Point","coordinates":[-66.4587001,45.7985365]},"properties":{"name":"Mons Range","kind":"range","operator":"","country":"CA","tier":"limited","source":"OSM (Canada)","osm_id":"way/1276138243"}},{"type":"Feature","geometry":{"type":"Point","coordinates":[-66.4581694,45.8042553]},"properties":{"name":"Abandoned Flanders Range","kind":"range","operator":"","country":"CA","tier":"limited","source":"OSM (Canada)","osm_id":"way/1276138252"}},{"type":"Feature","geometry":{"type":"Point","coordinates":[-66.4530281,45.8032654]},"properties":{"name":"Abandoned Ardennes Range","kind":"range","operator":"","country":"CA","tier":"limited","source":"OSM (Canada)","osm_id":"way/1276138254"}},{"type":"Feature","geometry":{"type":"Point","coordinates":[-114.934728,51.3183818]},"properties":{"name":"B1-5 (F)","kind":"barracks","operator":"","country":"CA","tier":"standard","source":"OSM (Canada)","osm_id":"way/1279556165"}},{"type":"Feature","geometry":{"type":"Point","coordinates":[-114.9349663,51.3182201]},"properties":{"name":"B1-3","kind":"barracks","operator":"","country":"CA","tier":"standard","source":"OSM (Canada)","osm_id":"way/1279556167"}},{"type":"Feature","geometry":{"type":"Point","coordinates":[-114.9347008,51.3180182]},"properties":{"name":"A Coy","kind":"barracks","operator":"","country":"CA","tier":"standard","source":"OSM (Canada)","osm_id":"way/1279556168"}},{"type":"Feature","geometry":{"type":"Point","coordinates":[-114.9349466,51.3178025]},"properties":{"name":"B1-1","kind":"barracks","operator":"","country":"CA","tier":"standard","source":"OSM (Canada)","osm_id":"way/1279556169"}},{"type":"Feature","geometry":{"type":"Point","coordinates":[-114.9344387,51.317814]},"properties":{"name":"B1-2","kind":"barracks","operator":"","country":"CA","tier":"standard","source":"OSM (Canada)","osm_id":"way/1279556170"}},{"type":"Feature","geometry":{"type":"Point","coordinates":[-114.9336388,51.3186219]},"properties":{"name":"B2-5","kind":"barracks","operator":"","country":"CA","tier":"standard","source":"OSM (Canada)","osm_id":"way/1279556642"}},{"type":"Feature","geometry":{"type":"Point","coordinates":[-114.9333725,51.3184792]},"properties":{"name":"B2-3","kind":"barracks","operator":"","country":"CA","tier":"standard","source":"OSM (Canada)","osm_id":"way/1279556643"}},{"type":"Feature","geometry":{"type":"Point","coordinates":[-114.9333525,51.3180524]},"properties":{"name":"B2-1","kind":"barracks","operator":"","country":"CA","tier":"standard","source":"OSM (Canada)","osm_id":"way/1279556644"}},{"type":"Feature","geometry":{"type":"Point","coordinates":[-114.9339332,51.3184614]},"properties":{"name":"B2-4 (F)","kind":"barracks","operator":"","country":"CA","tier":"standard","source":"OSM (Canada)","osm_id":"way/1279556645"}},{"type":"Feature","geometry":{"type":"Point","coordinates":[-114.9338578,51.3180467]},"properties":{"name":"B2-2","kind":"barracks","operator":"","country":"CA","tier":"standard","source":"OSM (Canada)","osm_id":"way/1279556647"}},{"type":"Feature","geometry":{"type":"Point","coordinates":[-114.9328682,51.3170813]},"properties":{"name":"B4-1 Caterer","kind":"barracks","operator":"","country":"CA","tier":"standard","source":"OSM (Canada)","osm_id":"way/1279560740"}},{"type":"Feature","geometry":{"type":"Point","coordinates":[-114.9328451,51.3167178]},"properties":{"name":"B4-2 Trainers","kind":"barracks","operator":"","country":"CA","tier":"standard","source":"OSM (Canada)","osm_id":"way/1279560742"}},{"type":"Feature","geometry":{"type":"Point","coordinates":[-114.9328315,51.3163277]},"properties":{"name":"B5-2 Officer/NCO","kind":"barracks","operator":"","country":"CA","tier":"standard","source":"OSM (Canada)","osm_id":"way/1279560743"}},{"type":"Feature","geometry":{"type":"Point","coordinates":[-114.9331234,51.3161527]},"properties":{"name":"B5-1 Mil","kind":"barracks","operator":"","country":"CA","tier":"standard","source":"OSM (Canada)","osm_id":"way/1279560744"}},{"type":"Feature","geometry":{"type":"Point","coordinates":[-114.9328117,51.3159893]},"properties":{"name":"B5-3 Officer/NCO","kind":"barracks","operator":"","country":"CA","tier":"standard","source":"OSM (Canada)","osm_id":"way/1279560746"}},{"type":"Feature","geometry":{"type":"Point","coordinates":[-71.6181093,46.9605776]},"properties":{"name":"CT Loagane","kind":"range","operator":"","country":"CA","tier":"limited","source":"OSM (Canada)","osm_id":"way/1287761490"}},{"type":"Feature","geometry":{"type":"Point","coordinates":[-73.0026469,45.3270777]},"properties":{"name":"Bivouac K","kind":"training_area","operator":"","country":"CA","tier":"limited","source":"OSM (Canada)","osm_id":"way/1302175319"}},{"type":"Feature","geometry":{"type":"Point","coordinates":[-73.0022605,45.3285269]},"properties":{"name":"Bivouac J","kind":"training_area","operator":"","country":"CA","tier":"limited","source":"OSM (Canada)","osm_id":"way/1302175320"}},{"type":"Feature","geometry":{"type":"Point","coordinates":[-73.0100444,45.3145077]},"properties":{"name":"Bivouac D","kind":"training_area","operator":"","country":"CA","tier":"limited","source":"OSM (Canada)","osm_id":"way/1302175330"}},{"type":"Feature","geometry":{"type":"Point","coordinates":[-73.0093302,45.3152975]},"properties":{"name":"Bivouac E","kind":"training_area","operator":"","country":"CA","tier":"limited","source":"OSM (Canada)","osm_id":"way/1302175331"}},{"type":"Feature","geometry":{"type":"Point","coordinates":[-73.0088645,45.3160721]},"properties":{"name":"Bivouac F","kind":"training_area","operator":"","country":"CA","tier":"limited","source":"OSM (Canada)","osm_id":"way/1302175332"}},{"type":"Feature","geometry":{"type":"Point","coordinates":[-73.0002316,45.3302522]},"properties":{"name":"Mock VIllage","kind":"training_area","operator":"","country":"CA","tier":"limited","source":"OSM (Canada)","osm_id":"way/1302175339"}},{"type":"Feature","geometry":{"type":"Point","coordinates":[-73.0084601,45.3067818]},"properties":{"name":"Bivouac A","kind":"training_area","operator":"","country":"CA","tier":"limited","source":"OSM (Canada)","osm_id":"way/1302175349"}},{"type":"Feature","geometry":{"type":"Point","coordinates":[-73.0093279,45.3046477]},"properties":{"name":"Bivouac C","kind":"training_area","operator":"","country":"CA","tier":"limited","source":"OSM (Canada)","osm_id":"way/1302175350"}},{"type":"Feature","geometry":{"type":"Point","coordinates":[-73.0086474,45.3057603]},"properties":{"name":"Bivouac B","kind":"training_area","operator":"","country":"CA","tier":"limited","source":"OSM (Canada)","osm_id":"way/1302175351"}},{"type":"Feature","geometry":{"type":"Point","coordinates":[-73.0036545,45.315015]},"properties":{"name":"Bivouac I","kind":"training_area","operator":"","country":"CA","tier":"limited","source":"OSM (Canada)","osm_id":"way/1302175353"}},{"type":"Feature","geometry":{"type":"Point","coordinates":[-73.0176228,45.3065618]},"properties":{"name":"Palladium Grenade Range","kind":"range","operator":"","country":"CA","tier":"limited","source":"OSM (Canada)","osm_id":"way/1302175355"}},{"type":"Feature","geometry":{"type":"Point","coordinates":[-73.0105501,45.2959644]},"properties":{"name":"Combat Gladius Trail","kind":"obstacle_course","operator":"","country":"CA","tier":"major","source":"OSM (Canada)","osm_id":"way/1302175356"}},{"type":"Feature","geometry":{"type":"Point","coordinates":[-73.0116476,45.2965444]},"properties":{"name":"CQC Dummies","kind":"training_area","operator":"","country":"CA","tier":"limited","source":"OSM (Canada)","osm_id":"way/1302175358"}},{"type":"Feature","geometry":{"type":"Point","coordinates":[-73.0040483,45.2915508]},"properties":{"name":"BIvouac L","kind":"training_area","operator":"","country":"CA","tier":"limited","source":"OSM (Canada)","osm_id":"way/1302175359"}},{"type":"Feature","geometry":{"type":"Point","coordinates":[-73.0038107,45.2937437]},"properties":{"name":"BIvouac N","kind":"training_area","operator":"","country":"CA","tier":"limited","source":"OSM (Canada)","osm_id":"way/1302175360"}},{"type":"Feature","geometry":{"type":"Point","coordinates":[-73.0251091,45.3147006]},"properties":{"name":"Persistence Range","kind":"range","operator":"","country":"CA","tier":"limited","source":"OSM (Canada)","osm_id":"way/1302175380"}},{"type":"Feature","geometry":{"type":"Point","coordinates":[-73.0307358,45.3223403]},"properties":{"name":"Tactical Course","kind":"obstacle_course","operator":"","country":"CA","tier":"major","source":"OSM (Canada)","osm_id":"way/1302175382"}},{"type":"Feature","geometry":{"type":"Point","coordinates":[-73.0024692,45.317507]},"properties":{"name":"Pyrotechnics Site Alpha","kind":"training_area","operator":"","country":"CA","tier":"limited","source":"OSM (Canada)","osm_id":"way/1302335313"}},{"type":"Feature","geometry":{"type":"Point","coordinates":[-73.0308187,45.307735]},"properties":{"name":"Sector 7","kind":"training_area","operator":"","country":"CA","tier":"limited","source":"OSM (Canada)","osm_id":"way/1302335318"}},{"type":"Feature","geometry":{"type":"Point","coordinates":[-73.0250994,45.3154787]},"properties":{"name":"Abacus Range","kind":"range","operator":"","country":"CA","tier":"limited","source":"OSM (Canada)","osm_id":"way/1302335319"}},{"type":"Feature","geometry":{"type":"Point","coordinates":[-111.0731748,50.2778971]},"properties":{"name":"Disposal Site","kind":"danger_area","operator":"","country":"CA","tier":"limited","source":"OSM (Canada)","osm_id":"way/1315184463"}},{"type":"Feature","geometry":{"type":"Point","coordinates":[-111.114626,50.374741]},"properties":{"name":"Owl 600m Range","kind":"range","operator":"","country":"CA","tier":"limited","source":"OSM (Canada)","osm_id":"way/1315231995"}},{"type":"Feature","geometry":{"type":"Point","coordinates":[-111.1129789,50.3754162]},"properties":{"name":"Owl 100m Range","kind":"range","operator":"","country":"CA","tier":"limited","source":"OSM (Canada)","osm_id":"way/1315231996"}},{"type":"Feature","geometry":{"type":"Point","coordinates":[-99.6020387,49.8125741]},"properties":{"name":"R4-38 Gas Hut","kind":"facility","operator":"","country":"CA","tier":"major","source":"OSM (Canada)","osm_id":"way/1321462584"}},{"type":"Feature","geometry":{"type":"Point","coordinates":[-66.4582493,45.5544449]},"properties":{"name":"Enniskillen Bivouac","kind":"training_area","operator":"","country":"CA","tier":"limited","source":"OSM (Canada)","osm_id":"way/1349070110"}},{"type":"Feature","geometry":{"type":"Point","coordinates":[-66.162878,45.551411]},"properties":{"name":"Mountain Impact Area (SRIA)","kind":"danger_area","operator":"","country":"CA","tier":"limited","source":"OSM (Canada)","osm_id":"way/1350297947"}},{"type":"Feature","geometry":{"type":"Point","coordinates":[-115.0741699,51.4027378]},"properties":{"name":"The Army Cadet League - Camp Howard","kind":"base","operator":"","country":"CA","tier":"major","source":"OSM (Canada)","osm_id":"way/1364171110"}},{"type":"Feature","geometry":{"type":"Point","coordinates":[-71.462952,46.9266686]},"properties":{"name":"Tranch\u00e9e Russe","kind":"trench","operator":"","country":"CA","tier":"major","source":"OSM (Canada)","osm_id":"way/1443273174"}},{"type":"Feature","geometry":{"type":"Point","coordinates":[-71.5914865,46.955775]},"properties":{"name":"Champ de tire Grenade","kind":"range","operator":"","country":"CA","tier":"limited","source":"OSM (Canada)","osm_id":"way/1454922360"}},{"type":"Feature","geometry":{"type":"Point","coordinates":[-71.6027155,46.9716312]},"properties":{"name":"Champ de tire Complexe","kind":"range","operator":"","country":"CA","tier":"limited","source":"OSM (Canada)","osm_id":"way/1454922363"}},{"type":"Feature","geometry":{"type":"Point","coordinates":[-71.5614183,46.9281888]},"properties":{"name":"CT Ortona","kind":"range","operator":"","country":"CA","tier":"limited","source":"OSM (Canada)","osm_id":"way/1462469820"}},{"type":"Feature","geometry":{"type":"Point","coordinates":[-71.571593,46.9843898]},"properties":{"name":"Parcour Nord","kind":"range","operator":"","country":"CA","tier":"limited","source":"OSM (Canada)","osm_id":"way/1462469821"}},{"type":"Feature","geometry":{"type":"Point","coordinates":[-71.5830776,46.9648438]},"properties":{"name":"Champ de tir  trois rivieres","kind":"range","operator":"","country":"CA","tier":"limited","source":"OSM (Canada)","osm_id":"way/1462469822"}},{"type":"Feature","geometry":{"type":"Point","coordinates":[-71.4806231,46.9008996]},"properties":{"name":"CT Cambrai","kind":"range","operator":"","country":"CA","tier":"limited","source":"OSM (Canada)","osm_id":"way/1462469826"}},{"type":"Feature","geometry":{"type":"Point","coordinates":[-71.4629555,46.9265793]},"properties":{"name":"Tranach\u00e9e Russe","kind":"trench","operator":"","country":"CA","tier":"major","source":"OSM (Canada)","osm_id":"way/1464456038"}},{"type":"Feature","geometry":{"type":"Point","coordinates":[-71.5546322,47.0191981]},"properties":{"name":"Zone d'impact","kind":"danger_area","operator":"","country":"CA","tier":"limited","source":"OSM (Canada)","osm_id":"way/1496526154"}},{"type":"Feature","geometry":{"type":"Point","coordinates":[-113.4667122,53.6760109]},"properties":{"name":"CFB Edmonton","kind":"barracks","operator":"","country":"CA","tier":"standard","source":"OSM (Canada)","osm_id":"relation/6554386"}},{"type":"Feature","geometry":{"type":"Point","coordinates":[-63.6287952,44.7170888]},"properties":{"name":"CFAD Bedford Magazine","kind":"naval_base","operator":"","country":"CA","tier":"major","source":"OSM (Canada)","osm_id":"relation/9098614"}},{"type":"Feature","geometry":{"type":"Point","coordinates":[-63.5015272,44.6379376]},"properties":{"name":"CFB Shearwater","kind":"airfield","operator":"","country":"CA","tier":"major","source":"OSM (Canada)","osm_id":"relation/9381846"}},{"type":"Feature","geometry":{"type":"Point","coordinates":[-63.5483174,44.5865333]},"properties":{"name":"CFNES Herring Cove","kind":"naval_base","operator":"","country":"CA","tier":"major","source":"OSM (Canada)","osm_id":"relation/11937012"}},{"type":"Feature","geometry":{"type":"Point","coordinates":[-63.6123712,44.6575016]},"properties":{"name":"Windsor Park","kind":"barracks","operator":"","country":"CA","tier":"standard","source":"OSM (Canada)","osm_id":"relation/11957919"}},{"type":"Feature","geometry":{"type":"Point","coordinates":[-63.5835082,44.658627]},"properties":{"name":"HMC Dockyard Halifax","kind":"naval_base","operator":"","country":"CA","tier":"major","source":"OSM (Canada)","osm_id":"relation/11958069"}},{"type":"Feature","geometry":{"type":"Point","coordinates":[-63.6757635,44.7489951]},"properties":{"name":"Bedford Range","kind":"range","operator":"","country":"CA","tier":"limited","source":"OSM (Canada)","osm_id":"relation/11961055"}},{"type":"Feature","geometry":{"type":"Point","coordinates":[-66.0760147,45.2711948]},"properties":{"name":"HMCS Brunswicker","kind":"naval_base","operator":"","country":"CA","tier":"major","source":"OSM (Canada)","osm_id":"relation/12542822"}},{"type":"Feature","geometry":{"type":"Point","coordinates":[-63.9854099,44.9672374]},"properties":{"name":"NRS Newport Corner","kind":"naval_base","operator":"","country":"CA","tier":"major","source":"OSM (Canada)","osm_id":"relation/13928098"}},{"type":"Feature","geometry":{"type":"Point","coordinates":[-64.0692778,44.5875886]},"properties":{"name":"NRS Mill Cove","kind":"naval_base","operator":"","country":"CA","tier":"major","source":"OSM (Canada)","osm_id":"relation/13928100"}},{"type":"Feature","geometry":{"type":"Point","coordinates":[-104.8538748,50.648911]},"properties":{"name":"QVN 22 rifle range","kind":"danger_area","operator":"","country":"CA","tier":"limited","source":"OSM (Canada)","osm_id":"relation/15771054"}},{"type":"Feature","geometry":{"type":"Point","coordinates":[-63.5926981,44.6605731]},"properties":{"name":"Stadacona","kind":"base","operator":"","country":"CA","tier":"major","source":"OSM (Canada)","osm_id":"relation/17202754"}},{"type":"Feature","geometry":{"type":"Point","coordinates":[-23.9319,72.2369003]},"properties":{"name":"Mestersvig Airport","kind":"airfield","operator":"","country":"GL","tier":"major","source":"OSM (Greenland)","osm_id":"node/1042023330"}},{"type":"Feature","geometry":{"type":"Point","coordinates":[-16.6583387,81.6011346]},"properties":{"name":"Station Nord","kind":"yes","operator":"","country":"GL","tier":"major","source":"OSM (Greenland)","osm_id":"node/9081744700"}},{"type":"Feature","geometry":{"type":"Point","coordinates":[-68.2998133,76.4285727]},"properties":{"name":"Camp Tuto Ice Tunnel","kind":"bunker","operator":"","country":"GL","tier":"standard","source":"OSM (Greenland)","osm_id":"node/13532563741"}},{"type":"Feature","geometry":{"type":"Point","coordinates":[-68.723337,76.5297058]},"properties":{"name":"Pituffik Space Base","kind":"airfield","operator":"United States Air Force","country":"GL","tier":"major","source":"OSM (Greenland)","osm_id":"way/615361094"}},{"type":"Feature","geometry":{"type":"Point","coordinates":[-16.6673971,81.601519]},"properties":{"name":"Station Nord","kind":"airfield","operator":"","country":"GL","tier":"major","source":"OSM (Greenland)","osm_id":"way/657023872"}},{"type":"Feature","geometry":{"type":"Point","coordinates":[-16.6624242,81.6018]},"properties":{"name":"Bygning 3 - Fuppebolig","kind":"barracks","operator":"","country":"GL","tier":"standard","source":"OSM (Greenland)","osm_id":"way/939556302"}},{"type":"Feature","geometry":{"type":"Point","coordinates":[-22.5886485,63.9743944]},"properties":{"name":"Silvergate","kind":"checkpoint","operator":"","country":"IS","tier":"standard","source":"OSM (Iceland)","osm_id":"node/5620997153"}},{"type":"Feature","geometry":{"type":"Point","coordinates":[-22.5907531,63.9652067]},"properties":{"name":"Demantshli\u00f0","kind":"checkpoint","operator":"","country":"IS","tier":"standard","source":"OSM (Iceland)","osm_id":"node/13316660421"}},{"type":"Feature","geometry":{"type":"Point","coordinates":[-22.6388245,63.9724862]},"properties":{"name":"Naval Air Station Keflavik","kind":"airfield","operator":"","country":"IS","tier":"major","source":"OSM (Iceland)","osm_id":"way/1303575445"}}]}