{"type":"FeatureCollection","name":"walmarts","metadata":{"generated":"2026-05-14T18:33:25Z","source":"OpenStreetMap via Overpass API (brand=Walmart / Q483551)","clipped_to":"scenario.geojson land polygons (Ocean excluded)","count":285},"features":[{"type":"Feature","geometry":{"type":"Point","coordinates":[-122.896014,49.2519216]},"properties":{"name":"Walmart","brand":"Walmart","shop":"department_store","tier":"standard","addr":"9855, Austin Avenue","city":"","region":"","osm_id":"node/824070005"}},{"type":"Feature","geometry":{"type":"Point","coordinates":[-97.1089925,49.8305591]},"properties":{"name":"Walmart","brand":"Walmart","shop":"department_store","tier":"standard","addr":"","city":"","region":"","osm_id":"node/947454564"}},{"type":"Feature","geometry":{"type":"Point","coordinates":[-120.2190603,55.7385973]},"properties":{"name":"Walmart","brand":"Walmart","shop":"department_store","tier":"standard","addr":"","city":"","region":"","osm_id":"node/1026450719"}},{"type":"Feature","geometry":{"type":"Point","coordinates":[-64.7607491,46.0970033]},"properties":{"name":"Walmart","brand":"Walmart","shop":"department_store","tier":"standard","addr":"","city":"","region":"","osm_id":"node/1353098115"}},{"type":"Feature","geometry":{"type":"Point","coordinates":[-113.978514,51.0536567]},"properties":{"name":"Walmart Supercentre","brand":"Walmart","shop":"supermarket","tier":"major","addr":"3800, Memorial Drive E","city":"","region":"","osm_id":"node/1364140191"}},{"type":"Feature","geometry":{"type":"Point","coordinates":[-71.8703862,45.4219818]},"properties":{"name":"Walmart","brand":"Walmart","shop":"department_store","tier":"standard","addr":"","city":"","region":"","osm_id":"node/1557313377"}},{"type":"Feature","geometry":{"type":"Point","coordinates":[-71.649829,48.523683]},"properties":{"name":"Walmart Supercentre","brand":"Walmart","shop":"supermarket","tier":"major","addr":"Avenue du Pont sud","city":"Alma","region":"Qu\u00e9bec","osm_id":"node/1843349107"}},{"type":"Feature","geometry":{"type":"Point","coordinates":[-66.0925468,45.2534357]},"properties":{"name":"Walmart Supercentre","brand":"Walmart","shop":"supermarket","tier":"major","addr":"","city":"","region":"","osm_id":"node/2076644188"}},{"type":"Feature","geometry":{"type":"Point","coordinates":[-71.0571407,48.4030349]},"properties":{"name":"Walmart","brand":"Walmart","shop":"department_store","tier":"standard","addr":"1451, Boulevard Talbot","city":"Saguenay","region":"Qu\u00e9bec","osm_id":"node/2327776468"}},{"type":"Feature","geometry":{"type":"Point","coordinates":[-99.9574834,49.8679804]},"properties":{"name":"Walmart","brand":"Walmart","shop":"department_store","tier":"standard","addr":"","city":"","region":"","osm_id":"node/2385726652"}},{"type":"Feature","geometry":{"type":"Point","coordinates":[-94.4741423,49.7577277]},"properties":{"name":"Walmart","brand":"Walmart","shop":"department_store","tier":"standard","addr":"24, Mikana Way","city":"","region":"","osm_id":"node/2414582625"}},{"type":"Feature","geometry":{"type":"Point","coordinates":[-71.2047469,46.872382]},"properties":{"name":"Walmart","brand":"Walmart","shop":"department_store","tier":"standard","addr":"","city":"","region":"","osm_id":"node/2428831260"}},{"type":"Feature","geometry":{"type":"Point","coordinates":[-97.0768452,49.8546055]},"properties":{"name":"Walmart","brand":"Walmart","shop":"department_store","tier":"standard","addr":"35, Lakewood Boulevard","city":"","region":"","osm_id":"node/2463493827"}},{"type":"Feature","geometry":{"type":"Point","coordinates":[-58.5742654,48.5499767]},"properties":{"name":"Walmart","brand":"Walmart","shop":"department_store","tier":"standard","addr":"","city":"","region":"","osm_id":"node/2551504960"}},{"type":"Feature","geometry":{"type":"Point","coordinates":[-72.5236189,45.8946448]},"properties":{"name":"Walmart","brand":"Walmart","shop":"department_store","tier":"standard","addr":"1205, Boulevard Ren\u00e9-L\u00e9vesque","city":"Drummondville","region":"Qu\u00e9bec","osm_id":"node/2638931038"}},{"type":"Feature","geometry":{"type":"Point","coordinates":[-66.3943544,50.2272017]},"properties":{"name":"Walmart","brand":"Walmart","shop":"department_store","tier":"standard","addr":"","city":"","region":"","osm_id":"node/2689884940"}},{"type":"Feature","geometry":{"type":"Point","coordinates":[-114.1391053,51.041135]},"properties":{"name":"Walmart Supercentre","brand":"Walmart","shop":"supermarket","tier":"major","addr":"1212, 37 Street SW","city":"","region":"","osm_id":"node/2701638194"}},{"type":"Feature","geometry":{"type":"Point","coordinates":[-63.6210126,44.6463635]},"properties":{"name":"Walmart Supercentre","brand":"Walmart","shop":"supermarket","tier":"major","addr":"6990, Mumford Road","city":"Halifax","region":"Nova Scotia","osm_id":"node/2702745770"}},{"type":"Feature","geometry":{"type":"Point","coordinates":[-73.8218319,45.6295703]},"properties":{"name":"Walmart","brand":"Walmart","shop":"department_store","tier":"standard","addr":"","city":"","region":"","osm_id":"node/2752011777"}},{"type":"Feature","geometry":{"type":"Point","coordinates":[-73.5724913,45.5925826]},"properties":{"name":"Walmart","brand":"Walmart","shop":"department_store","tier":"standard","addr":"","city":"","region":"","osm_id":"node/2898366408"}},{"type":"Feature","geometry":{"type":"Point","coordinates":[-122.376845,49.058021]},"properties":{"name":"Walmart Supercentre","brand":"Walmart","shop":"supermarket","tier":"major","addr":"","city":"","region":"","osm_id":"node/2924265096"}},{"type":"Feature","geometry":{"type":"Point","coordinates":[-122.6001725,49.2180032]},"properties":{"name":"Walmart","brand":"Walmart","shop":"department_store","tier":"standard","addr":"","city":"","region":"","osm_id":"node/3132107726"}},{"type":"Feature","geometry":{"type":"Point","coordinates":[-73.5916152,45.5745701]},"properties":{"name":"Walmart Supercentre","brand":"Walmart","shop":"supermarket","tier":"major","addr":"","city":"","region":"","osm_id":"node/3181155837"}},{"type":"Feature","geometry":{"type":"Point","coordinates":[-114.471332,51.1863141]},"properties":{"name":"Walmart Supercentre","brand":"Walmart","shop":"supermarket","tier":"major","addr":"","city":"","region":"","osm_id":"node/3355295391"}},{"type":"Feature","geometry":{"type":"Point","coordinates":[-73.4610819,45.52243]},"properties":{"name":"Walmart","brand":"Walmart","shop":"department_store","tier":"standard","addr":"","city":"","region":"","osm_id":"node/3362622634"}},{"type":"Feature","geometry":{"type":"Point","coordinates":[-113.420813,53.5394609]},"properties":{"name":"Walmart Supercentre","brand":"Walmart","shop":"supermarket","tier":"major","addr":"5004, 98 Avenue NW","city":"Edmonton","region":"","osm_id":"node/3370277379"}},{"type":"Feature","geometry":{"type":"Point","coordinates":[-57.9234871,48.9601567]},"properties":{"name":"Walmart","brand":"Walmart","shop":"department_store","tier":"standard","addr":"16, Murphy Square","city":"Corner Brook","region":"NL","osm_id":"node/3412758079"}},{"type":"Feature","geometry":{"type":"Point","coordinates":[-55.6507854,48.9482668]},"properties":{"name":"Walmart","brand":"Walmart","shop":"department_store","tier":"standard","addr":"","city":"","region":"","osm_id":"node/3413425512"}},{"type":"Feature","geometry":{"type":"Point","coordinates":[-60.2266354,46.1095488]},"properties":{"name":"Walmart","brand":"Walmart","shop":"department_store","tier":"standard","addr":"","city":"","region":"","osm_id":"node/3486559650"}},{"type":"Feature","geometry":{"type":"Point","coordinates":[-124.0519775,49.2373259]},"properties":{"name":"Walmart Supercentre","brand":"Walmart","shop":"supermarket","tier":"major","addr":"6801, Island Highway North","city":"Nanaimo","region":"","osm_id":"node/3711210139"}},{"type":"Feature","geometry":{"type":"Point","coordinates":[-70.0556572,47.3598978]},"properties":{"name":"Walmart","brand":"Walmart","shop":"department_store","tier":"standard","addr":"160, 230 Ouest","city":"La Pocati\u00e8re","region":"Qu\u00e9bec","osm_id":"node/3730822570"}},{"type":"Feature","geometry":{"type":"Point","coordinates":[-73.4735933,45.5385633]},"properties":{"name":"Walmart","brand":"Walmart","shop":"department_store","tier":"standard","addr":"1999, Boulevard Roland-Therrien","city":"Longueuil","region":"QC","osm_id":"node/3881301633"}},{"type":"Feature","geometry":{"type":"Point","coordinates":[-122.34058,49.1317933]},"properties":{"name":"Walmart","brand":"Walmart","shop":"department_store","tier":"standard","addr":"","city":"","region":"","osm_id":"node/3964790359"}},{"type":"Feature","geometry":{"type":"Point","coordinates":[-119.590154,49.4642901]},"properties":{"name":"Walmart","brand":"Walmart","shop":"department_store","tier":"standard","addr":"275, Green Avenue West","city":"","region":"","osm_id":"node/4108507117"}},{"type":"Feature","geometry":{"type":"Point","coordinates":[-65.7733534,44.5996103]},"properties":{"name":"Walmart","brand":"Walmart","shop":"department_store","tier":"standard","addr":"","city":"","region":"","osm_id":"node/4216588289"}},{"type":"Feature","geometry":{"type":"Point","coordinates":[-68.2590843,49.2004038]},"properties":{"name":"Walmart","brand":"Walmart","shop":"department_store","tier":"standard","addr":"630, Boulevard Lafl\u00e8che","city":"","region":"","osm_id":"node/4330794992"}},{"type":"Feature","geometry":{"type":"Point","coordinates":[-74.2743006,46.0431885]},"properties":{"name":"Walmart Supercentre","brand":"Walmart","shop":"supermarket","tier":"major","addr":"","city":"","region":"","osm_id":"node/4401485830"}},{"type":"Feature","geometry":{"type":"Point","coordinates":[-122.847815,49.1869641]},"properties":{"name":"Walmart","brand":"Walmart","shop":"department_store","tier":"standard","addr":"10153, King George Boulevard","city":"","region":"","osm_id":"node/4416997352"}},{"type":"Feature","geometry":{"type":"Point","coordinates":[-53.2439469,47.7271526]},"properties":{"name":"Walmart","brand":"Walmart","shop":"department_store","tier":"standard","addr":"","city":"","region":"","osm_id":"node/4420377901"}},{"type":"Feature","geometry":{"type":"Point","coordinates":[-109.141565,51.4726205]},"properties":{"name":"Walmart","brand":"Walmart","shop":"department_store","tier":"standard","addr":"","city":"","region":"","osm_id":"node/4484821994"}},{"type":"Feature","geometry":{"type":"Point","coordinates":[-64.9212478,44.9676233]},"properties":{"name":"Walmart","brand":"Walmart","shop":"department_store","tier":"standard","addr":"","city":"","region":"","osm_id":"node/4498900343"}},{"type":"Feature","geometry":{"type":"Point","coordinates":[-73.6121584,45.7238932]},"properties":{"name":"Walmart Supercentre","brand":"Walmart","shop":"supermarket","tier":"major","addr":"155, Mont\u00e9e Masson","city":"Mascouche","region":"QC","osm_id":"node/4600975592"}},{"type":"Feature","geometry":{"type":"Point","coordinates":[-79.6722194,47.5329404]},"properties":{"name":"Walmart Supercenter","brand":"Walmart","shop":"supermarket","tier":"major","addr":"133, Highway 11 (Trans-Canada)","city":"New Liskeard","region":"","osm_id":"node/4783027299"}},{"type":"Feature","geometry":{"type":"Point","coordinates":[-77.8387343,48.0948385]},"properties":{"name":"Walmart","brand":"Walmart","shop":"department_store","tier":"standard","addr":"","city":"","region":"","osm_id":"node/4844790357"}},{"type":"Feature","geometry":{"type":"Point","coordinates":[-60.264265,46.2133578]},"properties":{"name":"Walmart","brand":"Walmart","shop":"department_store","tier":"standard","addr":"","city":"","region":"","osm_id":"node/4897392121"}},{"type":"Feature","geometry":{"type":"Point","coordinates":[-122.8923846,49.1329813]},"properties":{"name":"Walmart Supercentre","brand":"Walmart","shop":"supermarket","tier":"major","addr":"7155, Scott Road","city":"Delta","region":"","osm_id":"node/5002370822"}},{"type":"Feature","geometry":{"type":"Point","coordinates":[-73.5412347,45.5808251]},"properties":{"name":"Walmart","brand":"Walmart","shop":"department_store","tier":"standard","addr":"3121, Avenue de Granby","city":"Montr\u00e9al","region":"Qu\u00e9bec","osm_id":"node/5021353721"}},{"type":"Feature","geometry":{"type":"Point","coordinates":[-71.253026,46.8245334]},"properties":{"name":"Walmart","brand":"Walmart","shop":"department_store","tier":"standard","addr":"","city":"","region":"","osm_id":"node/5044883118"}},{"type":"Feature","geometry":{"type":"Point","coordinates":[-73.6528402,45.4918948]},"properties":{"name":"Walmart Supercentre","brand":"Walmart","shop":"supermarket","tier":"major","addr":"","city":"","region":"","osm_id":"node/5255444610"}},{"type":"Feature","geometry":{"type":"Point","coordinates":[-73.295718,45.3312584]},"properties":{"name":"Walmart Supercentre","brand":"Walmart","shop":"supermarket","tier":"major","addr":"","city":"","region":"","osm_id":"node/5288660921"}},{"type":"Feature","geometry":{"type":"Point","coordinates":[-61.3330516,45.6169601]},"properties":{"name":"Walmart","brand":"Walmart","shop":"department_store","tier":"standard","addr":"","city":"","region":"","osm_id":"node/5548241584"}},{"type":"Feature","geometry":{"type":"Point","coordinates":[-89.308821,48.3823508]},"properties":{"name":"Walmart","brand":"Walmart","shop":"department_store","tier":"standard","addr":"","city":"","region":"","osm_id":"node/5550757891"}},{"type":"Feature","geometry":{"type":"Point","coordinates":[-72.7512141,45.4169039]},"properties":{"name":"Walmart Supercentre","brand":"Walmart","shop":"supermarket","tier":"major","addr":"Rue Simonds Nord","city":"","region":"","osm_id":"node/5599013851"}},{"type":"Feature","geometry":{"type":"Point","coordinates":[-101.8386626,54.7672064]},"properties":{"name":"Walmart","brand":"Walmart","shop":"department_store","tier":"standard","addr":"","city":"","region":"","osm_id":"node/5714149421"}},{"type":"Feature","geometry":{"type":"Point","coordinates":[-124.5162851,49.8442327]},"properties":{"name":"Walmart","brand":"Walmart","shop":"department_store","tier":"standard","addr":"7100, Alberni Street","city":"","region":"","osm_id":"node/5847902593"}},{"type":"Feature","geometry":{"type":"Point","coordinates":[-52.8144982,47.502357]},"properties":{"name":"Walmart Supercentre","brand":"Walmart","shop":"supermarket","tier":"major","addr":"","city":"","region":"","osm_id":"node/6126590396"}},{"type":"Feature","geometry":{"type":"Point","coordinates":[-73.6128256,45.6054827]},"properties":{"name":"Walmart","brand":"Walmart","shop":"department_store","tier":"standard","addr":"","city":"","region":"","osm_id":"node/6329816580"}},{"type":"Feature","geometry":{"type":"Point","coordinates":[-72.1291319,45.2819831]},"properties":{"name":"Walmart","brand":"Walmart","shop":"department_store","tier":"standard","addr":"1935, Rue Sherbrooke","city":"Magog","region":"Qu\u00e9bec","osm_id":"node/6635876726"}},{"type":"Feature","geometry":{"type":"Point","coordinates":[-97.8488698,55.7436734]},"properties":{"name":"Walmart","brand":"Walmart","shop":"department_store","tier":"standard","addr":"","city":"","region":"","osm_id":"node/6713234886"}},{"type":"Feature","geometry":{"type":"Point","coordinates":[-73.8215384,45.4615556]},"properties":{"name":"Walmart","brand":"Walmart","shop":"department_store","tier":"standard","addr":"","city":"","region":"","osm_id":"node/7011861280"}},{"type":"Feature","geometry":{"type":"Point","coordinates":[-122.7990935,49.2813609]},"properties":{"name":"Walmart","brand":"Walmart","shop":"department_store","tier":"standard","addr":"2929, Barnet Highway","city":"Coquitlam","region":"BC","osm_id":"node/7057361085"}},{"type":"Feature","geometry":{"type":"Point","coordinates":[-73.6973088,45.6113421]},"properties":{"name":"Walmart","brand":"Walmart","shop":"department_store","tier":"standard","addr":"","city":"","region":"","osm_id":"node/7157569708"}},{"type":"Feature","geometry":{"type":"Point","coordinates":[-73.8587587,45.4503199]},"properties":{"name":"Walmart","brand":"Walmart","shop":"department_store","tier":"standard","addr":"17000, route Transcanadienne","city":"","region":"","osm_id":"node/7341304162"}},{"type":"Feature","geometry":{"type":"Point","coordinates":[-73.9208664,45.5785522]},"properties":{"name":"Walmart Saint-Eustache","brand":"Walmart","shop":"department_store","tier":"standard","addr":"764, Boulevard Arthur-Sauv\u00e9","city":"Saint-Eustache","region":"QC","osm_id":"node/7396074366"}},{"type":"Feature","geometry":{"type":"Point","coordinates":[-74.0172723,45.761851]},"properties":{"name":"Walmart","brand":"Walmart","shop":"department_store","tier":"standard","addr":"1030, Boulevard du Grand Heron","city":"Saint-J\u00e9r\u00f4me","region":"","osm_id":"node/7406137756"}},{"type":"Feature","geometry":{"type":"Point","coordinates":[-71.2865121,46.7698361]},"properties":{"name":"Walmart Supercentre","brand":"Walmart","shop":"supermarket","tier":"major","addr":"","city":"","region":"","osm_id":"node/7571830326"}},{"type":"Feature","geometry":{"type":"Point","coordinates":[-72.5221683,45.893596]},"properties":{"name":"Walmart","brand":"Walmart","shop":"department_store","tier":"standard","addr":"","city":"","region":"","osm_id":"node/7687977080"}},{"type":"Feature","geometry":{"type":"Point","coordinates":[-72.5236667,45.8946]},"properties":{"name":"Walmart Supercentre","brand":"Walmart","shop":"supermarket","tier":"major","addr":"1205, Boulevard Ren\u00e9-L\u00e9vesque","city":"Drummondville","region":"Qu\u00e9bec","osm_id":"node/7687993746"}},{"type":"Feature","geometry":{"type":"Point","coordinates":[-73.9123728,45.678098]},"properties":{"name":"Walmart Blainville","brand":"Walmart","shop":"supermarket","tier":"major","addr":"1333, Boulevard Mich\u00e8le-Bohec","city":"","region":"","osm_id":"node/7721095759"}},{"type":"Feature","geometry":{"type":"Point","coordinates":[-71.1725033,46.7959914]},"properties":{"name":"Walmart L\u00e9vis","brand":"Walmart","shop":"supermarket","tier":"major","addr":"1200, Boulevard Alphonse-Desjardins","city":"L\u00e9vis","region":"QC","osm_id":"node/7816043289"}},{"type":"Feature","geometry":{"type":"Point","coordinates":[-73.7623756,45.3430777]},"properties":{"name":"Walmart Supercentre","brand":"Walmart","shop":"supermarket","tier":"major","addr":"","city":"","region":"","osm_id":"node/7873308242"}},{"type":"Feature","geometry":{"type":"Point","coordinates":[-73.5860502,45.3901782]},"properties":{"name":"Walmart","brand":"Walmart","shop":"department_store","tier":"standard","addr":"","city":"","region":"","osm_id":"node/8014020327"}},{"type":"Feature","geometry":{"type":"Point","coordinates":[-73.5137662,45.3695876]},"properties":{"name":"Walmart","brand":"Walmart","shop":"department_store","tier":"standard","addr":"","city":"","region":"","osm_id":"node/8126779362"}},{"type":"Feature","geometry":{"type":"Point","coordinates":[-67.5562273,48.8436696]},"properties":{"name":"Walmart","brand":"Walmart","shop":"department_store","tier":"standard","addr":"150, Rue Piuze","city":"Matane","region":"","osm_id":"node/9412925309"}},{"type":"Feature","geometry":{"type":"Point","coordinates":[-66.9264285,52.9472171]},"properties":{"name":"Walmart","brand":"Walmart","shop":"department_store","tier":"standard","addr":"","city":"","region":"","osm_id":"node/9580682829"}},{"type":"Feature","geometry":{"type":"Point","coordinates":[-70.9100571,45.5944838]},"properties":{"name":"Walmart","brand":"Walmart","shop":"department_store","tier":"standard","addr":"3130, Rue Laval","city":"","region":"","osm_id":"node/9658425695"}},{"type":"Feature","geometry":{"type":"Point","coordinates":[-123.3362723,48.4472302]},"properties":{"name":"Walmart","brand":"Walmart","shop":"department_store","tier":"standard","addr":"","city":"","region":"","osm_id":"node/10595374876"}},{"type":"Feature","geometry":{"type":"Point","coordinates":[-113.5058869,53.5637695]},"properties":{"name":"Walmart Supercentre","brand":"Walmart","shop":"supermarket","tier":"major","addr":"1, Kingsway NW","city":"Edmonton","region":"AB","osm_id":"node/10834426298"}},{"type":"Feature","geometry":{"type":"Point","coordinates":[-73.6478948,45.534517]},"properties":{"name":"Walmart","brand":"Walmart","shop":"department_store","tier":"standard","addr":"951, Rue du March\u00e9-Central","city":"Montr\u00e9al","region":"QC","osm_id":"node/11034646369"}},{"type":"Feature","geometry":{"type":"Point","coordinates":[-103.8733184,49.6613501]},"properties":{"name":"Walmart Supercentre","brand":"Walmart","shop":"supermarket","tier":"major","addr":"","city":"","region":"","osm_id":"node/11486092291"}},{"type":"Feature","geometry":{"type":"Point","coordinates":[-100.059979,51.1355039]},"properties":{"name":"Walmart Supercentre","brand":"Walmart","shop":"supermarket","tier":"major","addr":"","city":"","region":"","osm_id":"node/11486096471"}},{"type":"Feature","geometry":{"type":"Point","coordinates":[-113.9447397,49.4995262]},"properties":{"name":"Walmart","brand":"Walmart","shop":"department_store","tier":"standard","addr":"","city":"","region":"","osm_id":"node/11697734500"}},{"type":"Feature","geometry":{"type":"Point","coordinates":[-73.6102624,45.4518578]},"properties":{"name":"Walmart Supercenter","brand":"Walmart","shop":"supermarket","tier":"major","addr":"6797, Boulevard Newman","city":"LaSalle","region":"QC","osm_id":"node/12161631876"}},{"type":"Feature","geometry":{"type":"Point","coordinates":[-73.7077146,45.4920038]},"properties":{"name":"Walmart","brand":"Walmart","shop":"department_store","tier":"standard","addr":"3820, Boulevard de la C\u00f4te-Vertu","city":"Montr\u00e9al","region":"QC","osm_id":"node/12507292986"}},{"type":"Feature","geometry":{"type":"Point","coordinates":[-72.9783386,45.6412062]},"properties":{"name":"Walmart Saint-Hyacinthe","brand":"Walmart","shop":"department_store","tier":"standard","addr":"5950, Rue Martineau","city":"Saint-Hyacinthe","region":"QC","osm_id":"node/12544766754"}},{"type":"Feature","geometry":{"type":"Point","coordinates":[-113.4869597,53.5976702]},"properties":{"name":"Walmart Supercentre","brand":"Walmart","shop":"supermarket","tier":"major","addr":"","city":"","region":"","osm_id":"node/13204178065"}},{"type":"Feature","geometry":{"type":"Point","coordinates":[-74.3302017,45.6378827]},"properties":{"name":"Walmart","brand":"Walmart","shop":"supermarket","tier":"major","addr":"480, Avenue Bethany","city":"Lachute","region":"QC","osm_id":"node/13252558725"}},{"type":"Feature","geometry":{"type":"Point","coordinates":[-114.2133909,51.1536502]},"properties":{"name":"Walmart Supercentre","brand":"Walmart","shop":"supermarket","tier":"major","addr":"8888, Country Hills Boulevard NW","city":"Calgary","region":"","osm_id":"way/27031707"}},{"type":"Feature","geometry":{"type":"Point","coordinates":[-97.194047,49.8969708]},"properties":{"name":"Walmart","brand":"Walmart","shop":"department_store","tier":"standard","addr":"","city":"","region":"","osm_id":"way/27944786"}},{"type":"Feature","geometry":{"type":"Point","coordinates":[-149.8796492,61.1923141]},"properties":{"name":"Walmart Supercenter","brand":"Walmart","shop":"supermarket","tier":"major","addr":"3101, A Street","city":"Anchorage","region":"AK","osm_id":"way/28615011"}},{"type":"Feature","geometry":{"type":"Point","coordinates":[-63.1525579,46.2619379]},"properties":{"name":"Walmart","brand":"Walmart","shop":"department_store","tier":"standard","addr":"","city":"","region":"","osm_id":"way/34954392"}},{"type":"Feature","geometry":{"type":"Point","coordinates":[-123.5054625,48.4440103]},"properties":{"name":"Walmart","brand":"Walmart","shop":"department_store","tier":"standard","addr":"860, Langford Parkway","city":"","region":"","osm_id":"way/36981970"}},{"type":"Feature","geometry":{"type":"Point","coordinates":[-73.4390546,45.4490111]},"properties":{"name":"Walmart Supercentre","brand":"Walmart","shop":"supermarket","tier":"major","addr":"9000, Boulevard Leduc","city":"Brossard","region":"","osm_id":"way/38226675"}},{"type":"Feature","geometry":{"type":"Point","coordinates":[-75.7708817,45.4359312]},"properties":{"name":"Walmart Supercentre","brand":"Walmart","shop":"supermarket","tier":"major","addr":"35, Boulevard du Plateau","city":"Gatineau","region":"","osm_id":"way/39336982"}},{"type":"Feature","geometry":{"type":"Point","coordinates":[-71.9637905,45.4182835]},"properties":{"name":"Walmart","brand":"Walmart","shop":"department_store","tier":"standard","addr":"4050, Boulevard Josaphat-Rancourt","city":"Sherbrooke","region":"","osm_id":"way/40159349"}},{"type":"Feature","geometry":{"type":"Point","coordinates":[-97.1987892,49.8236667]},"properties":{"name":"Walmart","brand":"Walmart","shop":"department_store","tier":"standard","addr":"1665, Kenaston Boulevard","city":"Winnipeg","region":"","osm_id":"way/40838192"}},{"type":"Feature","geometry":{"type":"Point","coordinates":[-113.317092,53.5111295]},"properties":{"name":"Walmart","brand":"Walmart","shop":"department_store","tier":"standard","addr":"239, Wye Road","city":"","region":"","osm_id":"way/42851338"}},{"type":"Feature","geometry":{"type":"Point","coordinates":[-113.8184086,52.236521]},"properties":{"name":"Walmart Supercentre","brand":"Walmart","shop":"supermarket","tier":"major","addr":"","city":"","region":"","osm_id":"way/43078548"}},{"type":"Feature","geometry":{"type":"Point","coordinates":[-73.3843247,45.5092843]},"properties":{"name":"Walmart","brand":"Walmart","shop":"department_store","tier":"standard","addr":"1475, Boulevard Saint-Bruno","city":"","region":"","osm_id":"way/48010007"}},{"type":"Feature","geometry":{"type":"Point","coordinates":[-113.4013326,53.6002548]},"properties":{"name":"Walmart","brand":"Walmart","shop":"department_store","tier":"standard","addr":"13703 40 St NW","city":"Edmonton","region":"","osm_id":"way/49521465"}},{"type":"Feature","geometry":{"type":"Point","coordinates":[-97.3132724,49.8858369]},"properties":{"name":"Walmart Supercentre","brand":"Walmart","shop":"supermarket","tier":"major","addr":"3655, Portage Avenue","city":"","region":"","osm_id":"way/50114428"}},{"type":"Feature","geometry":{"type":"Point","coordinates":[-67.7527467,47.0602225]},"properties":{"name":"Walmart Supercenter","brand":"Walmart","shop":"supermarket","tier":"major","addr":"","city":"","region":"","osm_id":"way/56911205"}},{"type":"Feature","geometry":{"type":"Point","coordinates":[-104.5347493,50.4442279]},"properties":{"name":"Walmart Supercentre","brand":"Walmart","shop":"supermarket","tier":"major","addr":"2150, Prince of Wales Drive","city":"Regina","region":"SK","osm_id":"way/61012307"}},{"type":"Feature","geometry":{"type":"Point","coordinates":[-113.5704739,53.2685569]},"properties":{"name":"Walmart Supercentre","brand":"Walmart","shop":"supermarket","tier":"major","addr":"5302, Discovery Way","city":"Leduc","region":"AB","osm_id":"way/66621416"}},{"type":"Feature","geometry":{"type":"Point","coordinates":[-66.0193998,45.3081572]},"properties":{"name":"Walmart","brand":"Walmart","shop":"department_store","tier":"standard","addr":"450, Westmorland Road","city":"Saint John","region":"","osm_id":"way/66727605"}},{"type":"Feature","geometry":{"type":"Point","coordinates":[-97.1500208,49.9576299]},"properties":{"name":"Walmart","brand":"Walmart","shop":"department_store","tier":"standard","addr":"2370, McPhillips Street","city":"","region":"","osm_id":"way/71794060"}},{"type":"Feature","geometry":{"type":"Point","coordinates":[-89.2394489,48.4128297]},"properties":{"name":"Walmart","brand":"Walmart","shop":"department_store","tier":"standard","addr":"","city":"","region":"","osm_id":"way/75168706"}},{"type":"Feature","geometry":{"type":"Point","coordinates":[-122.9510357,49.1918357]},"properties":{"name":"Walmart","brand":"Walmart","shop":"department_store","tier":"standard","addr":"805, Boyd Street","city":"","region":"","osm_id":"way/82258315"}},{"type":"Feature","geometry":{"type":"Point","coordinates":[-63.5009424,44.6702857]},"properties":{"name":"Walmart","brand":"Walmart","shop":"department_store","tier":"standard","addr":"900, Cole Harbour Road","city":"Cole Harbour","region":"Nova Scotia","osm_id":"way/82329706"}},{"type":"Feature","geometry":{"type":"Point","coordinates":[-115.7508014,49.5316663]},"properties":{"name":"Walmart","brand":"Walmart","shop":"department_store","tier":"standard","addr":"2100, Willowbrook Drive","city":"Cranbrook","region":"BC","osm_id":"way/88597327"}},{"type":"Feature","geometry":{"type":"Point","coordinates":[-68.4976679,48.4537698]},"properties":{"name":"Walmart","brand":"Walmart","shop":"department_store","tier":"standard","addr":"415, Mont\u00e9e Industrielle-et-Commerciale","city":"Rimouski","region":"","osm_id":"way/95805194"}},{"type":"Feature","geometry":{"type":"Point","coordinates":[-122.8777185,49.1659195]},"properties":{"name":"Walmart Supercentre","brand":"Walmart","shop":"supermarket","tier":"major","addr":"12451, 88 Avenue","city":"","region":"","osm_id":"way/95918736"}},{"type":"Feature","geometry":{"type":"Point","coordinates":[-63.5693708,44.6975707]},"properties":{"name":"Walmart","brand":"Walmart","shop":"department_store","tier":"standard","addr":"90, Lamont Terrace","city":"Dartmouth","region":"Nova Scotia","osm_id":"way/96167058"}},{"type":"Feature","geometry":{"type":"Point","coordinates":[-71.3487114,46.7822857]},"properties":{"name":"Walmart","brand":"Walmart","shop":"department_store","tier":"standard","addr":"1470, Avenue Jules-Verne","city":"Qu\u00e9bec","region":"QC","osm_id":"way/96358395"}},{"type":"Feature","geometry":{"type":"Point","coordinates":[-64.8294975,46.1144305]},"properties":{"name":"Walmart","brand":"Walmart","shop":"department_store","tier":"standard","addr":"25, Plaza Boulevard","city":"Moncton","region":"","osm_id":"way/96772847"}},{"type":"Feature","geometry":{"type":"Point","coordinates":[-63.6434265,44.752729]},"properties":{"name":"Walmart","brand":"Walmart","shop":"department_store","tier":"standard","addr":"141, Damascus Road","city":"Bedford","region":"Nova Scotia","osm_id":"way/97635837"}},{"type":"Feature","geometry":{"type":"Point","coordinates":[-83.4765652,45.0640719]},"properties":{"name":"Walmart Supercenter","brand":"Walmart","shop":"supermarket","tier":"major","addr":"1180, M 32 West","city":"Alpena","region":"MI","osm_id":"way/102924201"}},{"type":"Feature","geometry":{"type":"Point","coordinates":[-119.4252343,49.8888443]},"properties":{"name":"Walmart Supercentre","brand":"Walmart","shop":"supermarket","tier":"major","addr":"","city":"","region":"","osm_id":"way/110340420"}},{"type":"Feature","geometry":{"type":"Point","coordinates":[-114.0377994,51.1075383]},"properties":{"name":"Walmart Supercentre","brand":"Walmart","shop":"supermarket","tier":"major","addr":"1110, 57 Avenue NE","city":"Calgary","region":"Alberta","osm_id":"way/110350374"}},{"type":"Feature","geometry":{"type":"Point","coordinates":[-102.4457693,51.2046769]},"properties":{"name":"Walmart","brand":"Walmart","shop":"department_store","tier":"standard","addr":"","city":"","region":"","osm_id":"way/111865539"}},{"type":"Feature","geometry":{"type":"Point","coordinates":[-121.9805793,49.1513936]},"properties":{"name":"Walmart Supercentre","brand":"Walmart","shop":"supermarket","tier":"major","addr":"8249, Eagle Landing Parkway","city":"Chilliwack","region":"","osm_id":"way/112508813"}},{"type":"Feature","geometry":{"type":"Point","coordinates":[-114.0069075,51.2624761]},"properties":{"name":"Walmart Supercentre","brand":"Walmart","shop":"supermarket","tier":"major","addr":"2881, Main Street SW","city":"Airdrie","region":"AB","osm_id":"way/116064867"}},{"type":"Feature","geometry":{"type":"Point","coordinates":[-85.6326262,44.7281091]},"properties":{"name":"Walmart Supercenter","brand":"Walmart","shop":"supermarket","tier":"major","addr":"2640, Crossing Circle","city":"Traverse City","region":"MI","osm_id":"way/117108854"}},{"type":"Feature","geometry":{"type":"Point","coordinates":[-112.6882891,51.4499588]},"properties":{"name":"Walmart Supercentre","brand":"Walmart","shop":"supermarket","tier":"major","addr":"","city":"","region":"","osm_id":"way/118516250"}},{"type":"Feature","geometry":{"type":"Point","coordinates":[-124.9814736,49.6670066]},"properties":{"name":"Walmart Supercentre","brand":"Walmart","shop":"supermarket","tier":"major","addr":"3199, Cliffe Avenue","city":"Courtenay","region":"","osm_id":"way/119944854"}},{"type":"Feature","geometry":{"type":"Point","coordinates":[-52.7145223,47.6197234]},"properties":{"name":"Walmart","brand":"Walmart","shop":"department_store","tier":"standard","addr":"","city":"","region":"","osm_id":"way/120618900"}},{"type":"Feature","geometry":{"type":"Point","coordinates":[-113.9668112,50.9293442]},"properties":{"name":"Walmart","brand":"Walmart","shop":"department_store","tier":"standard","addr":"4705, 130 Ave SE","city":"Calgary","region":"AB","osm_id":"way/120858300"}},{"type":"Feature","geometry":{"type":"Point","coordinates":[-112.79679,49.6575435]},"properties":{"name":"Walmart Supercentre","brand":"Walmart","shop":"supermarket","tier":"major","addr":"3700, Mayor Magrath Drive S","city":"Lethbridge","region":"AB","osm_id":"way/123739198"}},{"type":"Feature","geometry":{"type":"Point","coordinates":[-114.0612771,50.9009189]},"properties":{"name":"Walmart Supercentre","brand":"Walmart","shop":"supermarket","tier":"major","addr":"","city":"","region":"","osm_id":"way/124064616"}},{"type":"Feature","geometry":{"type":"Point","coordinates":[-120.3706623,50.6656553]},"properties":{"name":"Walmart","brand":"Walmart","shop":"department_store","tier":"standard","addr":"1055, Hillside Drive","city":"Kamloops","region":"BC","osm_id":"way/124455589"}},{"type":"Feature","geometry":{"type":"Point","coordinates":[-123.0269924,49.2591815]},"properties":{"name":"Walmart Supercentre","brand":"Walmart","shop":"supermarket","tier":"major","addr":"3585, Grandview Highway","city":"Vancouver","region":"BC","osm_id":"way/125715571"}},{"type":"Feature","geometry":{"type":"Point","coordinates":[-122.7349919,49.25448]},"properties":{"name":"Walmart","brand":"Walmart","shop":"department_store","tier":"standard","addr":"","city":"","region":"","osm_id":"way/126162126"}},{"type":"Feature","geometry":{"type":"Point","coordinates":[-123.1495222,49.7210439]},"properties":{"name":"Walmart","brand":"Walmart","shop":"department_store","tier":"standard","addr":"39210, Discovery Way","city":"Squamish","region":"","osm_id":"way/127014616"}},{"type":"Feature","geometry":{"type":"Point","coordinates":[-66.626403,45.9889419]},"properties":{"name":"Walmart","brand":"Walmart","shop":"department_store","tier":"standard","addr":"125, Two Nations Crossing","city":"Fredericton","region":"","osm_id":"way/130866123"}},{"type":"Feature","geometry":{"type":"Point","coordinates":[-113.6349166,53.6591676]},"properties":{"name":"Walmart Supercentre","brand":"Walmart","shop":"supermarket","tier":"major","addr":"","city":"","region":"","osm_id":"way/132607580"}},{"type":"Feature","geometry":{"type":"Point","coordinates":[-75.7339374,45.4448918]},"properties":{"name":"Walmart Supercentre","brand":"Walmart","shop":"supermarket","tier":"major","addr":"425, Boulevard Saint-Joseph","city":"","region":"","osm_id":"way/140703368"}},{"type":"Feature","geometry":{"type":"Point","coordinates":[-113.543257,53.6317445]},"properties":{"name":"Walmart Supercentre","brand":"Walmart","shop":"supermarket","tier":"major","addr":"16940, 127 Street NW","city":"Edmonton","region":"AB","osm_id":"way/153411074"}},{"type":"Feature","geometry":{"type":"Point","coordinates":[-113.644041,53.5387425]},"properties":{"name":"Walmart Supercentre","brand":"Walmart","shop":"supermarket","tier":"major","addr":"","city":"","region":"","osm_id":"way/153737327"}},{"type":"Feature","geometry":{"type":"Point","coordinates":[-113.2790505,53.5689395]},"properties":{"name":"Walmart Supercentre","brand":"Walmart","shop":"supermarket","tier":"major","addr":"Emerald Drive","city":"","region":"","osm_id":"way/158038655"}},{"type":"Feature","geometry":{"type":"Point","coordinates":[-120.8352344,56.2365934]},"properties":{"name":"Walmart","brand":"Walmart","shop":"department_store","tier":"standard","addr":"9007, 96A Street","city":"Fort St. John","region":"BC","osm_id":"way/159801231"}},{"type":"Feature","geometry":{"type":"Point","coordinates":[-75.6753374,45.4808218]},"properties":{"name":"Walmart Supercentre","brand":"Walmart","shop":"supermarket","tier":"major","addr":"640, Boulevard Maloney Ouest","city":"","region":"","osm_id":"way/162163940"}},{"type":"Feature","geometry":{"type":"Point","coordinates":[-108.2719167,52.7643654]},"properties":{"name":"Walmart","brand":"Walmart","shop":"department_store","tier":"standard","addr":"","city":"","region":"","osm_id":"way/167471977"}},{"type":"Feature","geometry":{"type":"Point","coordinates":[-97.4011186,42.9072648]},"properties":{"name":"Walmart Supercenter","brand":"Walmart","shop":"supermarket","tier":"major","addr":"3001, Broadway Avenue","city":"Yankton","region":"SD","osm_id":"way/167708129"}},{"type":"Feature","geometry":{"type":"Point","coordinates":[-52.7837507,47.5547576]},"properties":{"name":"Walmart Supercentre","brand":"Walmart","shop":"supermarket","tier":"major","addr":"75, Kelsey Drive","city":"St. John's","region":"","osm_id":"way/167896689"}},{"type":"Feature","geometry":{"type":"Point","coordinates":[-110.0495076,53.2758757]},"properties":{"name":"Walmart Supercentre","brand":"Walmart","shop":"supermarket","tier":"major","addr":"4210, 70 Avenue","city":"Lloydminster","region":"","osm_id":"way/167996237"}},{"type":"Feature","geometry":{"type":"Point","coordinates":[-65.6848165,47.6274948]},"properties":{"name":"Walmart Supercentre","brand":"Walmart","shop":"supermarket","tier":"major","addr":"","city":"","region":"","osm_id":"way/168021347"}},{"type":"Feature","geometry":{"type":"Point","coordinates":[-75.7199846,45.4647762]},"properties":{"name":"Walmart","brand":"Walmart","shop":"department_store","tier":"standard","addr":"51, Boulevard de la Gappe","city":"Gatineau","region":"Qu\u00e9bec","osm_id":"way/168125425"}},{"type":"Feature","geometry":{"type":"Point","coordinates":[-106.6215486,52.1493825]},"properties":{"name":"Walmart Supercentre","brand":"Walmart","shop":"supermarket","tier":"major","addr":"1706, Preston Avenue","city":"","region":"","osm_id":"way/168201539"}},{"type":"Feature","geometry":{"type":"Point","coordinates":[-114.069171,50.9660504]},"properties":{"name":"Walmart","brand":"Walmart","shop":"department_store","tier":"standard","addr":"","city":"","region":"","osm_id":"way/170122889"}},{"type":"Feature","geometry":{"type":"Point","coordinates":[-113.5999643,53.4386293]},"properties":{"name":"Walmart Supercentre","brand":"Walmart","shop":"supermarket","tier":"major","addr":"6110, Currents Drive NW","city":"Edmonton","region":"AB","osm_id":"way/170237651"}},{"type":"Feature","geometry":{"type":"Point","coordinates":[-107.7790478,50.308648]},"properties":{"name":"Walmart Supercentre","brand":"Walmart","shop":"supermarket","tier":"major","addr":"","city":"","region":"","osm_id":"way/171066775"}},{"type":"Feature","geometry":{"type":"Point","coordinates":[-92.8117254,49.7843386]},"properties":{"name":"Walmart","brand":"Walmart","shop":"department_store","tier":"standard","addr":"620, Government Street","city":"Dryden","region":"","osm_id":"way/175144332"}},{"type":"Feature","geometry":{"type":"Point","coordinates":[-114.0461122,50.9841021]},"properties":{"name":"Walmart Supercentre","brand":"Walmart","shop":"supermarket","tier":"major","addr":"","city":"","region":"","osm_id":"way/177854505"}},{"type":"Feature","geometry":{"type":"Point","coordinates":[-66.0982939,43.8456266]},"properties":{"name":"Walmart Supercentre","brand":"Walmart","shop":"supermarket","tier":"major","addr":"","city":"","region":"","osm_id":"way/179835573"}},{"type":"Feature","geometry":{"type":"Point","coordinates":[-120.752044,50.1215474]},"properties":{"name":"Walmart","brand":"Walmart","shop":"department_store","tier":"standard","addr":"3900, Crawford Avenue","city":"Merit","region":"BC","osm_id":"way/179894217"}},{"type":"Feature","geometry":{"type":"Point","coordinates":[-63.3061366,45.3532359]},"properties":{"name":"Walmart","brand":"Walmart","shop":"department_store","tier":"standard","addr":"","city":"","region":"","osm_id":"way/180426859"}},{"type":"Feature","geometry":{"type":"Point","coordinates":[-84.3149344,46.5411895]},"properties":{"name":"Walmart Supercenter","brand":"Walmart","shop":"supermarket","tier":"major","addr":"","city":"","region":"","osm_id":"way/180656087"}},{"type":"Feature","geometry":{"type":"Point","coordinates":[-123.3737997,48.4552817]},"properties":{"name":"Walmart","brand":"Walmart","shop":"department_store","tier":"standard","addr":"3460, Saanich Road","city":"","region":"","osm_id":"way/185227347"}},{"type":"Feature","geometry":{"type":"Point","coordinates":[-113.2105612,53.6970708]},"properties":{"name":"Walmart Supercentre","brand":"Walmart","shop":"supermarket","tier":"major","addr":"","city":"","region":"","osm_id":"way/186518670"}},{"type":"Feature","geometry":{"type":"Point","coordinates":[-113.481965,53.4401589]},"properties":{"name":"Walmart Supercentre","brand":"Walmart","shop":"supermarket","tier":"major","addr":"1203, Parsons Road NW","city":"Edmonton","region":"Alberta","osm_id":"way/187047400"}},{"type":"Feature","geometry":{"type":"Point","coordinates":[-71.2754961,46.7272217]},"properties":{"name":"Walmart","brand":"Walmart","shop":"department_store","tier":"standard","addr":"700, Rue de la Concorde","city":"L\u00e9vis","region":"QC","osm_id":"way/189982776"}},{"type":"Feature","geometry":{"type":"Point","coordinates":[-122.7816188,49.0443647]},"properties":{"name":"Walmart","brand":"Walmart","shop":"department_store","tier":"standard","addr":"2355, 160 Street","city":"Surrey","region":"BC","osm_id":"way/191352954"}},{"type":"Feature","geometry":{"type":"Point","coordinates":[-128.5802173,54.5106109]},"properties":{"name":"Walmart Supercentre","brand":"Walmart","shop":"supermarket","tier":"major","addr":"4427, Yellowhead Highway","city":"","region":"","osm_id":"way/192227136"}},{"type":"Feature","geometry":{"type":"Point","coordinates":[-112.0836606,53.5033427]},"properties":{"name":"Walmart","brand":"Walmart","shop":"department_store","tier":"standard","addr":"6809, Highway 16A","city":"","region":"","osm_id":"way/193206898"}},{"type":"Feature","geometry":{"type":"Point","coordinates":[-70.6801303,46.1284108]},"properties":{"name":"Walmart","brand":"Walmart","shop":"department_store","tier":"standard","addr":"750, 107e Rue","city":"Saint-Georges","region":"","osm_id":"way/198868638"}},{"type":"Feature","geometry":{"type":"Point","coordinates":[-74.1184065,45.2694223]},"properties":{"name":"Walmart Supercentre","brand":"Walmart","shop":"supermarket","tier":"major","addr":"2050, Boulevard Monseigneur-Langlois","city":"","region":"","osm_id":"way/204262938"}},{"type":"Feature","geometry":{"type":"Point","coordinates":[-65.4922725,47.0385892]},"properties":{"name":"Walmart","brand":"Walmart","shop":"department_store","tier":"standard","addr":"200, Douglastown Boulevard","city":"","region":"","osm_id":"way/207836573"}},{"type":"Feature","geometry":{"type":"Point","coordinates":[-114.7883103,55.2726262]},"properties":{"name":"Walmart","brand":"Walmart","shop":"department_store","tier":"standard","addr":"","city":"","region":"","osm_id":"way/208362514"}},{"type":"Feature","geometry":{"type":"Point","coordinates":[-85.5091348,43.6905328]},"properties":{"name":"Walmart Supercenter","brand":"Walmart","shop":"supermarket","tier":"major","addr":"21400, Perry Avenue","city":"Big Rapids","region":"MI","osm_id":"way/208630394"}},{"type":"Feature","geometry":{"type":"Point","coordinates":[-114.40866,62.4493523]},"properties":{"name":"Walmart","brand":"Walmart","shop":"department_store","tier":"standard","addr":"313, Old Airport Road","city":"","region":"","osm_id":"way/209097400"}},{"type":"Feature","geometry":{"type":"Point","coordinates":[-75.6498866,45.4131306]},"properties":{"name":"Walmart Supercentre","brand":"Walmart","shop":"supermarket","tier":"major","addr":"450, Industrial Avenue","city":"","region":"","osm_id":"way/209257254"}},{"type":"Feature","geometry":{"type":"Point","coordinates":[-152.365307,57.8119554]},"properties":{"name":"Walmart","brand":"Walmart","shop":"department_store","tier":"standard","addr":"2911, Mill Bay Road","city":"Kodiak","region":"AK","osm_id":"way/209450680"}},{"type":"Feature","geometry":{"type":"Point","coordinates":[-135.0705809,60.7337465]},"properties":{"name":"Walmart","brand":"Walmart","shop":"department_store","tier":"standard","addr":"9021, Quartz Road","city":"Whitehorse","region":"YT","osm_id":"way/216993793"}},{"type":"Feature","geometry":{"type":"Point","coordinates":[-123.7220915,48.8023443]},"properties":{"name":"Walmart","brand":"Walmart","shop":"department_store","tier":"standard","addr":"3020, Drinkwater Road","city":"","region":"","osm_id":"way/220082734"}},{"type":"Feature","geometry":{"type":"Point","coordinates":[-94.9472031,45.7205889]},"properties":{"name":"Walmart Supercenter","brand":"Walmart","shop":"supermarket","tier":"major","addr":"205, 12th Street South","city":"Sauk Centre","region":"MN","osm_id":"way/221600868"}},{"type":"Feature","geometry":{"type":"Point","coordinates":[-62.6702311,45.5802676]},"properties":{"name":"Walmart","brand":"Walmart","shop":"department_store","tier":"standard","addr":"713, Westville Road","city":"Westville Road","region":"Nova Scotia","osm_id":"way/223203612"}},{"type":"Feature","geometry":{"type":"Point","coordinates":[-60.1480636,46.151435]},"properties":{"name":"Walmart","brand":"Walmart","shop":"department_store","tier":"standard","addr":"80, Sydney Port Access Road","city":"Sydney","region":"Nova Scotia","osm_id":"way/224530278"}},{"type":"Feature","geometry":{"type":"Point","coordinates":[-116.4491694,53.5775527]},"properties":{"name":"Walmart Supercentre","brand":"Walmart","shop":"supermarket","tier":"major","addr":"5750, 2 Avenue","city":"Edson","region":"AB","osm_id":"way/226594763"}},{"type":"Feature","geometry":{"type":"Point","coordinates":[-106.7625671,52.1262764]},"properties":{"name":"Walmart Supercentre","brand":"Walmart","shop":"supermarket","tier":"major","addr":"225, Betts Avenue","city":"Saskatoon","region":"SK","osm_id":"way/226871852"}},{"type":"Feature","geometry":{"type":"Point","coordinates":[-113.381972,51.0396246]},"properties":{"name":"Walmart","brand":"Walmart","shop":"department_store","tier":"standard","addr":"200, Ranch Market","city":"Strathmore","region":"Alberta","osm_id":"way/229738967"}},{"type":"Feature","geometry":{"type":"Point","coordinates":[-147.6894486,64.8563941]},"properties":{"name":"Walmart Supercenter","brand":"Walmart","shop":"supermarket","tier":"major","addr":"537, Johansen Expressway","city":"Fairbanks","region":"AK","osm_id":"way/230793937"}},{"type":"Feature","geometry":{"type":"Point","coordinates":[-86.4004097,43.9578512]},"properties":{"name":"Walmart Supercenter","brand":"Walmart","shop":"supermarket","tier":"major","addr":"4854, West US Highway 10","city":"Ludington","region":"MI","osm_id":"way/231160317"}},{"type":"Feature","geometry":{"type":"Point","coordinates":[-122.6612074,49.1214613]},"properties":{"name":"Walmart","brand":"Walmart","shop":"department_store","tier":"standard","addr":"20202, 66 Avenue","city":"","region":"","osm_id":"way/232665309"}},{"type":"Feature","geometry":{"type":"Point","coordinates":[-117.6249313,53.3843236]},"properties":{"name":"Walmart","brand":"Walmart","shop":"department_store","tier":"standard","addr":"","city":"","region":"","osm_id":"way/232814179"}},{"type":"Feature","geometry":{"type":"Point","coordinates":[-119.2595087,50.2881556]},"properties":{"name":"Walmart","brand":"Walmart","shop":"department_store","tier":"standard","addr":"","city":"","region":"","osm_id":"way/235060170"}},{"type":"Feature","geometry":{"type":"Point","coordinates":[-62.0140605,45.608299]},"properties":{"name":"Walmart","brand":"Walmart","shop":"department_store","tier":"standard","addr":"50, Market Street","city":"","region":"","osm_id":"way/235764048"}},{"type":"Feature","geometry":{"type":"Point","coordinates":[-114.0637219,52.3055813]},"properties":{"name":"Walmart Supercentre","brand":"Walmart","shop":"supermarket","tier":"major","addr":"3420, 47 Avenue","city":"Sylvan Lake","region":"AB","osm_id":"way/237015840"}},{"type":"Feature","geometry":{"type":"Point","coordinates":[-104.6374617,50.4944735]},"properties":{"name":"Walmart","brand":"Walmart","shop":"department_store","tier":"standard","addr":"3939, Rochdale Blvd","city":"","region":"","osm_id":"way/238587868"}},{"type":"Feature","geometry":{"type":"Point","coordinates":[-64.1988467,45.8165604]},"properties":{"name":"Walmart Supercenter","brand":"Walmart","shop":"supermarket","tier":"major","addr":"","city":"","region":"","osm_id":"way/239783882"}},{"type":"Feature","geometry":{"type":"Point","coordinates":[-82.3795303,49.4021223]},"properties":{"name":"Walmart","brand":"Walmart","shop":"department_store","tier":"standard","addr":"350, Government Road","city":"Kapuskasing","region":"","osm_id":"way/240061686"}},{"type":"Feature","geometry":{"type":"Point","coordinates":[-72.7581773,45.1897764]},"properties":{"name":"Walmart","brand":"Walmart","shop":"department_store","tier":"standard","addr":"1770, Rue du Sud","city":"Cowansville","region":"Quebec","osm_id":"way/241881542"}},{"type":"Feature","geometry":{"type":"Point","coordinates":[-96.9015949,50.1559571]},"properties":{"name":"Walmart Supercenter","brand":"Walmart","shop":"supermarket","tier":"major","addr":"","city":"","region":"","osm_id":"way/242498453"}},{"type":"Feature","geometry":{"type":"Point","coordinates":[-149.5355856,61.3091077]},"properties":{"name":"Walmart Supercenter","brand":"Walmart","shop":"supermarket","tier":"major","addr":"18600, Eagle River Road","city":"Eagle River","region":"AK","osm_id":"way/243119579"}},{"type":"Feature","geometry":{"type":"Point","coordinates":[-64.4527385,45.0690764]},"properties":{"name":"Walmart","brand":"Walmart","shop":"department_store","tier":"standard","addr":"","city":"","region":"","osm_id":"way/247140327"}},{"type":"Feature","geometry":{"type":"Point","coordinates":[-71.2967105,46.1142864]},"properties":{"name":"Walmart","brand":"Walmart","shop":"department_store","tier":"standard","addr":"","city":"","region":"","osm_id":"way/248258864"}},{"type":"Feature","geometry":{"type":"Point","coordinates":[-55.1494871,47.1775454]},"properties":{"name":"Walmart","brand":"Walmart","shop":"department_store","tier":"standard","addr":"","city":"","region":"","osm_id":"way/248464261"}},{"type":"Feature","geometry":{"type":"Point","coordinates":[-112.8640061,53.0202099]},"properties":{"name":"Walmart Supercenter","brand":"Walmart","shop":"supermarket","tier":"major","addr":"6800, 48 Avenue","city":"","region":"","osm_id":"way/250473196"}},{"type":"Feature","geometry":{"type":"Point","coordinates":[-110.6436718,49.9933796]},"properties":{"name":"Walmart Supercentre","brand":"Walmart","shop":"supermarket","tier":"major","addr":"2051, Strachan Road Southeast","city":"Medicine Hat","region":"AB","osm_id":"way/251112667"}},{"type":"Feature","geometry":{"type":"Point","coordinates":[-122.785586,53.863564]},"properties":{"name":"Walmart","brand":"Walmart","shop":"department_store","tier":"standard","addr":"","city":"","region":"","osm_id":"way/251999310"}},{"type":"Feature","geometry":{"type":"Point","coordinates":[-96.6927387,49.5485708]},"properties":{"name":"Walmart Supercenter","brand":"Walmart","shop":"supermarket","tier":"major","addr":"184, Provincial Trunk Hightay 12 North","city":"","region":"","osm_id":"way/253077904"}},{"type":"Feature","geometry":{"type":"Point","coordinates":[-118.8281155,55.1727195]},"properties":{"name":"Walmart","brand":"Walmart","shop":"department_store","tier":"standard","addr":"11050, 103 Avenue","city":"","region":"","osm_id":"way/253119112"}},{"type":"Feature","geometry":{"type":"Point","coordinates":[-113.8114109,52.2875279]},"properties":{"name":"Walmart Supercentre","brand":"Walmart","shop":"supermarket","tier":"major","addr":"","city":"","region":"","osm_id":"way/253721059"}},{"type":"Feature","geometry":{"type":"Point","coordinates":[-104.6460072,50.40826]},"properties":{"name":"Walmart Supercentre","brand":"Walmart","shop":"supermarket","tier":"major","addr":"4500, Gordon Road","city":"Regina","region":"","osm_id":"way/256090110"}},{"type":"Feature","geometry":{"type":"Point","coordinates":[-114.1390353,51.7980062]},"properties":{"name":"Walmart","brand":"Walmart","shop":"department_store","tier":"standard","addr":"6900, 46 Street","city":"Olds","region":"","osm_id":"way/260509421"}},{"type":"Feature","geometry":{"type":"Point","coordinates":[-105.4982119,44.273004]},"properties":{"name":"Walmart Supercenter","brand":"Walmart","shop":"supermarket","tier":"major","addr":"2300, South Douglas Highway","city":"Gillette","region":"WY","osm_id":"way/260866064"}},{"type":"Feature","geometry":{"type":"Point","coordinates":[-72.75045,46.5531305]},"properties":{"name":"Walmart Supercentre","brand":"Walmart","shop":"supermarket","tier":"major","addr":"1600, Boulevard Royal","city":"Shawinigan","region":"","osm_id":"way/261173013"}},{"type":"Feature","geometry":{"type":"Point","coordinates":[-106.6408814,52.0882187]},"properties":{"name":"Walmart Supercentre","brand":"Walmart","shop":"supermarket","tier":"major","addr":"3035, Clarence Avenue","city":"Saskatoon","region":"Saskatchewan","osm_id":"way/261417493"}},{"type":"Feature","geometry":{"type":"Point","coordinates":[-113.9319545,53.5390003]},"properties":{"name":"Walmart Supercentre","brand":"Walmart","shop":"supermarket","tier":"major","addr":"90, Campsite Road","city":"Spruce Grove","region":"AB","osm_id":"way/261922781"}},{"type":"Feature","geometry":{"type":"Point","coordinates":[-115.6662798,54.1409273]},"properties":{"name":"Walmart Supercentre","brand":"Walmart","shop":"supermarket","tier":"major","addr":"","city":"","region":"","osm_id":"way/262295753"}},{"type":"Feature","geometry":{"type":"Point","coordinates":[-113.3953751,52.9533575]},"properties":{"name":"Walmart Supercentre","brand":"Walmart","shop":"supermarket","tier":"major","addr":"","city":"","region":"","osm_id":"way/263285223"}},{"type":"Feature","geometry":{"type":"Point","coordinates":[-85.3986282,44.2841386]},"properties":{"name":"Walmart Supercenter","brand":"Walmart","shop":"supermarket","tier":"major","addr":"8971, East Boon Road","city":"Cadillac","region":"MI","osm_id":"way/263360823"}},{"type":"Feature","geometry":{"type":"Point","coordinates":[-112.7383416,52.3233964]},"properties":{"name":"Walmart","brand":"Walmart","shop":"department_store","tier":"standard","addr":"4721, 70 Street","city":"","region":"","osm_id":"way/264379137"}},{"type":"Feature","geometry":{"type":"Point","coordinates":[-111.9013949,50.577432]},"properties":{"name":"Walmart","brand":"Walmart","shop":"department_store","tier":"standard","addr":"","city":"","region":"","osm_id":"way/264684735"}},{"type":"Feature","geometry":{"type":"Point","coordinates":[-151.2250025,60.5641786]},"properties":{"name":"Walmart Supercenter","brand":"Walmart","shop":"supermarket","tier":"major","addr":"10096, Kenai Spur Highway","city":"Kenai","region":"AK","osm_id":"way/264694678"}},{"type":"Feature","geometry":{"type":"Point","coordinates":[-111.3586435,56.7223271]},"properties":{"name":"Walmart","brand":"Walmart","shop":"department_store","tier":"standard","addr":"","city":"","region":"","osm_id":"way/271706578"}},{"type":"Feature","geometry":{"type":"Point","coordinates":[-73.4138016,46.0369038]},"properties":{"name":"Walmart","brand":"Walmart","shop":"department_store","tier":"standard","addr":"","city":"","region":"","osm_id":"way/282494862"}},{"type":"Feature","geometry":{"type":"Point","coordinates":[-117.3384279,56.23762]},"properties":{"name":"Walmart Supercentre","brand":"Walmart","shop":"supermarket","tier":"major","addr":"9701, 78 Street","city":"Peace River","region":"AB","osm_id":"way/286006155"}},{"type":"Feature","geometry":{"type":"Point","coordinates":[-97.0641976,49.8939051]},"properties":{"name":"Walmart","brand":"Walmart","shop":"department_store","tier":"standard","addr":"1576, Regent Avenue West","city":"","region":"","osm_id":"way/289480850"}},{"type":"Feature","geometry":{"type":"Point","coordinates":[-97.1587049,49.8531332]},"properties":{"name":"Walmart Supercentre","brand":"Walmart","shop":"supermarket","tier":"major","addr":"1000, Taylor Avenue","city":"Winnipeg","region":"","osm_id":"way/293804635"}},{"type":"Feature","geometry":{"type":"Point","coordinates":[-110.2010446,54.408432]},"properties":{"name":"Walmart","brand":"Walmart","shop":"department_store","tier":"standard","addr":"","city":"","region":"","osm_id":"way/297190845"}},{"type":"Feature","geometry":{"type":"Point","coordinates":[-149.3650259,61.5687834]},"properties":{"name":"Walmart Supercenter","brand":"Walmart","shop":"supermarket","tier":"major","addr":"1350, South Seward Meridian Parkway","city":"Wasilla","region":"AK","osm_id":"way/298000790"}},{"type":"Feature","geometry":{"type":"Point","coordinates":[-71.9279422,46.067702]},"properties":{"name":"Walmart","brand":"Walmart","shop":"department_store","tier":"standard","addr":"","city":"Victoriaville","region":"Qu\u00e9bec","osm_id":"way/301128943"}},{"type":"Feature","geometry":{"type":"Point","coordinates":[-149.8700326,61.1402221]},"properties":{"name":"Walmart Supercenter","brand":"Walmart","shop":"supermarket","tier":"major","addr":"8900, Old Seward Highway","city":"Anchorage","region":"AK","osm_id":"way/303613027"}},{"type":"Feature","geometry":{"type":"Point","coordinates":[-79.0432153,48.2428869]},"properties":{"name":"Walmart","brand":"Walmart","shop":"department_store","tier":"standard","addr":"","city":"Rouyn-Noranda","region":"","osm_id":"way/309263086"}},{"type":"Feature","geometry":{"type":"Point","coordinates":[-110.8277533,52.8418049]},"properties":{"name":"Walmart","brand":"Walmart","shop":"department_store","tier":"standard","addr":"2901, 14 Avenue","city":"Wainwright","region":"","osm_id":"way/309507443"}},{"type":"Feature","geometry":{"type":"Point","coordinates":[-122.4388479,52.9653341]},"properties":{"name":"Walmart","brand":"Walmart","shop":"department_store","tier":"standard","addr":"890, Rita Road","city":"Quesnel","region":"","osm_id":"way/310327186"}},{"type":"Feature","geometry":{"type":"Point","coordinates":[-84.2381266,43.6614368]},"properties":{"name":"Walmart Supercenter","brand":"Walmart","shop":"supermarket","tier":"major","addr":"910, Joe Mann Boulevard","city":"Midland","region":"MI","osm_id":"way/311431685"}},{"type":"Feature","geometry":{"type":"Point","coordinates":[-113.9108803,51.0385571]},"properties":{"name":"Walmart Supercentre","brand":"Walmart","shop":"supermarket","tier":"major","addr":"255, East Hills Boulevard SE","city":"","region":"","osm_id":"way/311588985"}},{"type":"Feature","geometry":{"type":"Point","coordinates":[-68.3412084,47.3951373]},"properties":{"name":"Walmart Supercentre","brand":"Walmart","shop":"supermarket","tier":"major","addr":"805, Rue Victoria","city":"Edmundston","region":"","osm_id":"way/324459860"}},{"type":"Feature","geometry":{"type":"Point","coordinates":[-113.3629995,53.4790687]},"properties":{"name":"Walmart Supercentre","brand":"Walmart","shop":"supermarket","tier":"major","addr":"775, Tamarack Way NW","city":"Edmonton","region":"","osm_id":"way/329763439"}},{"type":"Feature","geometry":{"type":"Point","coordinates":[-69.5516147,47.8211362]},"properties":{"name":"Walmart","brand":"Walmart","shop":"department_store","tier":"standard","addr":"","city":"","region":"","osm_id":"way/333369024"}},{"type":"Feature","geometry":{"type":"Point","coordinates":[-54.5964305,48.9613607]},"properties":{"name":"Walmart","brand":"Walmart","shop":"department_store","tier":"standard","addr":"","city":"","region":"","osm_id":"way/334238669"}},{"type":"Feature","geometry":{"type":"Point","coordinates":[-113.4194231,53.4221444]},"properties":{"name":"Walmart Supercentre","brand":"Walmart","shop":"supermarket","tier":"major","addr":"110, Watt Common SW","city":"Edmonton","region":"AB","osm_id":"way/335303419"}},{"type":"Feature","geometry":{"type":"Point","coordinates":[-53.9875246,48.1713563]},"properties":{"name":"Walmart","brand":"Walmart","shop":"department_store","tier":"standard","addr":"","city":"","region":"","osm_id":"way/337095966"}},{"type":"Feature","geometry":{"type":"Point","coordinates":[-83.5041935,44.2777897]},"properties":{"name":"Walmart Supercenter","brand":"Walmart","shop":"supermarket","tier":"major","addr":"621, East Lake Street","city":"Tawas City","region":"MI","osm_id":"way/342876766"}},{"type":"Feature","geometry":{"type":"Point","coordinates":[-84.6898853,45.0225784]},"properties":{"name":"Walmart Supercenter","brand":"Walmart","shop":"supermarket","tier":"major","addr":"950, Edelweiss Village Parkway","city":"Gaylord","region":"MI","osm_id":"way/342878209"}},{"type":"Feature","geometry":{"type":"Point","coordinates":[-81.3935517,48.4749471]},"properties":{"name":"Walmart","brand":"Walmart","shop":"department_store","tier":"standard","addr":"1870, Riverside Drive","city":"Timmins","region":"Ontario","osm_id":"way/343721729"}},{"type":"Feature","geometry":{"type":"Point","coordinates":[-112.7961825,49.7295465]},"properties":{"name":"Walmart","brand":"Walmart","shop":"department_store","tier":"standard","addr":"","city":"","region":"","osm_id":"way/346968443"}},{"type":"Feature","geometry":{"type":"Point","coordinates":[-65.5322552,45.7258981]},"properties":{"name":"Walmart","brand":"Walmart","shop":"department_store","tier":"standard","addr":"","city":"","region":"","osm_id":"way/352836358"}},{"type":"Feature","geometry":{"type":"Point","coordinates":[-63.7776286,46.4176805]},"properties":{"name":"Walmart","brand":"Walmart","shop":"department_store","tier":"standard","addr":"","city":"","region":"","osm_id":"way/362439202"}},{"type":"Feature","geometry":{"type":"Point","coordinates":[-63.6751559,44.6549313]},"properties":{"name":"Walmart Supercentre","brand":"Walmart","shop":"supermarket","tier":"major","addr":"220, Chain Lake Drive","city":"Halifax","region":"Nova Scotia","osm_id":"way/362974146"}},{"type":"Feature","geometry":{"type":"Point","coordinates":[-122.1225501,52.112325]},"properties":{"name":"Walmart","brand":"Walmart","shop":"department_store","tier":"standard","addr":"","city":"","region":"","osm_id":"way/365579185"}},{"type":"Feature","geometry":{"type":"Point","coordinates":[-83.8970642,43.625484]},"properties":{"name":"Walmart Supercenter","brand":"Walmart","shop":"supermarket","tier":"major","addr":"3921, Wilder Road","city":"Bay City","region":"MI","osm_id":"way/365943277"}},{"type":"Feature","geometry":{"type":"Point","coordinates":[-124.7820806,49.2681391]},"properties":{"name":"Walmart Supercentre","brand":"Walmart","shop":"supermarket","tier":"major","addr":"3355, Johnston Road","city":"","region":"","osm_id":"way/367322072"}},{"type":"Feature","geometry":{"type":"Point","coordinates":[-73.7526123,45.5598985]},"properties":{"name":"Walmart Supercentre","brand":"Walmart","shop":"supermarket","tier":"major","addr":"","city":"","region":"","osm_id":"way/372195819"}},{"type":"Feature","geometry":{"type":"Point","coordinates":[-89.2527788,48.4525447]},"properties":{"name":"Walmart","brand":"Walmart","shop":"department_store","tier":"standard","addr":"","city":"","region":"","osm_id":"way/373047148"}},{"type":"Feature","geometry":{"type":"Point","coordinates":[-84.2292898,44.2535893]},"properties":{"name":"Walmart Supercenter","brand":"Walmart","shop":"supermarket","tier":"major","addr":"2750, Cook Road","city":"West Branch","region":"MI","osm_id":"way/374521269"}},{"type":"Feature","geometry":{"type":"Point","coordinates":[-84.974047,45.3500707]},"properties":{"name":"Walmart Supercenter","brand":"Walmart","shop":"supermarket","tier":"major","addr":"1850, Anderson Road","city":"Petoskey","region":"MI","osm_id":"way/374897327"}},{"type":"Feature","geometry":{"type":"Point","coordinates":[-119.6144752,49.841261]},"properties":{"name":"Walmart Supercentre","brand":"Walmart","shop":"supermarket","tier":"major","addr":"2170, Louie Drive","city":"Westbank","region":"BC","osm_id":"way/375429608"}},{"type":"Feature","geometry":{"type":"Point","coordinates":[-64.5332083,44.4013504]},"properties":{"name":"Walmart","brand":"Walmart","shop":"department_store","tier":"standard","addr":"60, Pine Grove Road","city":"Bridgewater","region":"Nova Scotia","osm_id":"way/377712773"}},{"type":"Feature","geometry":{"type":"Point","coordinates":[-83.005691,43.8178202]},"properties":{"name":"Walmart Supercenter","brand":"Walmart","shop":"supermarket","tier":"major","addr":"901, North Van Dyke Road","city":"Bad Axe","region":"MI","osm_id":"way/378706169"}},{"type":"Feature","geometry":{"type":"Point","coordinates":[-93.4341469,48.6088308]},"properties":{"name":"Walmart","brand":"Walmart","shop":"department_store","tier":"standard","addr":"","city":"","region":"","osm_id":"way/383380864"}},{"type":"Feature","geometry":{"type":"Point","coordinates":[-122.8054817,49.1881037]},"properties":{"name":"Walmart Supercentre","brand":"Walmart","shop":"supermarket","tier":"major","addr":"10355, 152 Street","city":"","region":"","osm_id":"way/428686187"}},{"type":"Feature","geometry":{"type":"Point","coordinates":[-114.9929184,53.2254753]},"properties":{"name":"Walmart Supercentre","brand":"Walmart","shop":"supermarket","tier":"major","addr":"","city":"","region":"","osm_id":"way/436602647"}},{"type":"Feature","geometry":{"type":"Point","coordinates":[-123.120447,49.1780937]},"properties":{"name":"Walmart Supercentre","brand":"Walmart","shop":"supermarket","tier":"major","addr":"9251, Alderbridge Way","city":"Richmond","region":"BC","osm_id":"way/449995427"}},{"type":"Feature","geometry":{"type":"Point","coordinates":[-66.6644309,45.9341466]},"properties":{"name":"Walmart","brand":"Walmart","shop":"department_store","tier":"standard","addr":"1399, Regent Street","city":"","region":"","osm_id":"way/458327931"}},{"type":"Feature","geometry":{"type":"Point","coordinates":[-125.2613444,50.0315772]},"properties":{"name":"Walmart","brand":"Walmart","shop":"department_store","tier":"standard","addr":"","city":"","region":"","osm_id":"way/458530885"}},{"type":"Feature","geometry":{"type":"Point","coordinates":[-75.610618,45.4313853]},"properties":{"name":"Walmart Supercentre","brand":"Walmart","shop":"supermarket","tier":"major","addr":"1980, Ogilvie Road","city":"","region":"","osm_id":"way/466704822"}},{"type":"Feature","geometry":{"type":"Point","coordinates":[-75.5085825,45.4513255]},"properties":{"name":"Walmart Supercentre","brand":"Walmart","shop":"supermarket","tier":"major","addr":"3900, Innes Road","city":"","region":"","osm_id":"way/472398054"}},{"type":"Feature","geometry":{"type":"Point","coordinates":[-114.1424677,51.1697526]},"properties":{"name":"Walmart","brand":"Walmart","shop":"department_store","tier":"standard","addr":"35, Sage Hill Gate NW","city":"","region":"","osm_id":"way/480645867"}},{"type":"Feature","geometry":{"type":"Point","coordinates":[-66.7043711,47.9923996]},"properties":{"name":"Walmart","brand":"Walmart","shop":"department_store","tier":"standard","addr":"","city":"","region":"","osm_id":"way/483799713"}},{"type":"Feature","geometry":{"type":"Point","coordinates":[-84.6795292,44.2959485]},"properties":{"name":"Walmart Supercenter","brand":"Walmart","shop":"supermarket","tier":"major","addr":"2129, West Houghton Lake Drive","city":"Houghton Lake","region":"MI","osm_id":"way/492640404"}},{"type":"Feature","geometry":{"type":"Point","coordinates":[-71.3047148,46.8332502]},"properties":{"name":"Walmart Supercentre","brand":"Walmart","shop":"supermarket","tier":"major","addr":"","city":"","region":"","osm_id":"way/497909085"}},{"type":"Feature","geometry":{"type":"Point","coordinates":[-105.5206798,50.4107137]},"properties":{"name":"Walmart","brand":"Walmart","shop":"department_store","tier":"standard","addr":"","city":"","region":"","osm_id":"way/521875424"}},{"type":"Feature","geometry":{"type":"Point","coordinates":[-102.9659105,49.1443754]},"properties":{"name":"Walmart","brand":"Walmart","shop":"department_store","tier":"standard","addr":"","city":"","region":"","osm_id":"way/523885419"}},{"type":"Feature","geometry":{"type":"Point","coordinates":[-97.9385429,49.1954988]},"properties":{"name":"Walmart","brand":"Walmart","shop":"department_store","tier":"standard","addr":"","city":"","region":"","osm_id":"way/538832656"}},{"type":"Feature","geometry":{"type":"Point","coordinates":[-149.7432204,61.2119625]},"properties":{"name":"Walmart Supercenter","brand":"Walmart","shop":"supermarket","tier":"major","addr":"7405, Debarr Road","city":"Anchorage","region":"AK","osm_id":"way/567610066"}},{"type":"Feature","geometry":{"type":"Point","coordinates":[-114.1438268,51.0970506]},"properties":{"name":"Walmart Supercentre","brand":"Walmart","shop":"supermarket","tier":"major","addr":"5235, Northland Drive NW","city":"Calgary","region":"Alberta","osm_id":"way/568818226"}},{"type":"Feature","geometry":{"type":"Point","coordinates":[-123.080681,49.0423462]},"properties":{"name":"Walmart","brand":"Walmart","shop":"department_store","tier":"standard","addr":"5143, Canoe Pass Way","city":"","region":"","osm_id":"way/574425723"}},{"type":"Feature","geometry":{"type":"Point","coordinates":[-67.6043158,46.1751632]},"properties":{"name":"Walmart","brand":"Walmart","shop":"department_store","tier":"standard","addr":"","city":"","region":"","osm_id":"way/574642650"}},{"type":"Feature","geometry":{"type":"Point","coordinates":[-113.4945319,53.4753943]},"properties":{"name":"Walmart Supercentre","brand":"Walmart","shop":"supermarket","tier":"major","addr":"3931, Calgary Trail NW","city":"Edmonton","region":"","osm_id":"way/575765754"}},{"type":"Feature","geometry":{"type":"Point","coordinates":[-75.6794485,45.3851845]},"properties":{"name":"Walmart Supercentre","brand":"Walmart","shop":"supermarket","tier":"major","addr":"2277, Riverside Drive","city":"","region":"","osm_id":"way/605365786"}},{"type":"Feature","geometry":{"type":"Point","coordinates":[-84.4825368,45.6261608]},"properties":{"name":"Walmart Supercenter","brand":"Walmart","shop":"supermarket","tier":"major","addr":"1150, South Main Street","city":"Cheboygan","region":"MI","osm_id":"way/628159138"}},{"type":"Feature","geometry":{"type":"Point","coordinates":[-80.9484934,46.5205759]},"properties":{"name":"Walmart","brand":"Walmart","shop":"department_store","tier":"standard","addr":"","city":"","region":"","osm_id":"way/712643685"}},{"type":"Feature","geometry":{"type":"Point","coordinates":[-113.9715573,50.7037665]},"properties":{"name":"Walmart Supercentre","brand":"Walmart","shop":"supermarket","tier":"major","addr":"201, Southridge Drive","city":"Okotoks","region":"","osm_id":"way/728038232"}},{"type":"Feature","geometry":{"type":"Point","coordinates":[-98.3228491,49.9764543]},"properties":{"name":"Walmart","brand":"Walmart","shop":"department_store","tier":"standard","addr":"","city":"","region":"","osm_id":"way/757868988"}},{"type":"Feature","geometry":{"type":"Point","coordinates":[-81.0020686,46.4404512]},"properties":{"name":"Walmart","brand":"Walmart","shop":"department_store","tier":"standard","addr":"","city":"","region":"","osm_id":"way/758813141"}},{"type":"Feature","geometry":{"type":"Point","coordinates":[-112.1280596,49.7827954]},"properties":{"name":"Walmart","brand":"Walmart","shop":"department_store","tier":"standard","addr":"","city":"","region":"","osm_id":"way/761979309"}},{"type":"Feature","geometry":{"type":"Point","coordinates":[-119.3185596,50.6944986]},"properties":{"name":"Walmart Supercentre","brand":"Walmart","shop":"supermarket","tier":"major","addr":"2991, 10 Avenue Southwest","city":"Salmon Arm","region":"BC","osm_id":"way/863415379"}},{"type":"Feature","geometry":{"type":"Point","coordinates":[-105.7337853,53.2016278]},"properties":{"name":"Walmart Supercentre","brand":"Walmart","shop":"supermarket","tier":"major","addr":"","city":"","region":"","osm_id":"way/1137380984"}},{"type":"Feature","geometry":{"type":"Point","coordinates":[-113.594792,53.5205957]},"properties":{"name":"Walmart","brand":"Walmart","shop":"department_store","tier":"standard","addr":"","city":"","region":"","osm_id":"way/1211728578"}},{"type":"Feature","geometry":{"type":"Point","coordinates":[-117.2894626,49.4985159]},"properties":{"name":"Walmart Supercentre","brand":"Walmart","shop":"supermarket","tier":"major","addr":"1000","city":"","region":"","osm_id":"way/1312016179"}},{"type":"Feature","geometry":{"type":"Point","coordinates":[-72.5599919,46.3719113]},"properties":{"name":"Walmart","brand":"Walmart","shop":"department_store","tier":"standard","addr":"300, Rue Barkoff","city":"Trois-Rivi\u00e8res","region":"Qu\u00e9bec","osm_id":"way/1365573430"}},{"type":"Feature","geometry":{"type":"Point","coordinates":[-122.9999043,49.2249781]},"properties":{"name":"Walmart Supercentre","brand":"Walmart","shop":"supermarket","tier":"major","addr":"4545, Central Boulevard","city":"Burnaby","region":"BC","osm_id":"way/1383933571"}},{"type":"Feature","geometry":{"type":"Point","coordinates":[-113.5058107,53.563846]},"properties":{"name":"Walmart Supercentre","brand":"Walmart","shop":"supermarket","tier":"major","addr":"","city":"","region":"","osm_id":"way/1386298036"}}]}